School_code,AgeID,SchoolName,Street,Town_suburb,Postcode,Latitude,Longitude
5103,48586,Arncliffe West Infants School,Loftus St,Arncliffe ,2205,-33.931832,151.14516
5128,49159,Nillo Infants School,37 Belmore Road,LORN,2320,-32.727541,151.559611
8373,54678,Five Islands Secondary College,Military Rd,Port Kembla,2505,-34.489274,150.913541
5141,56242,Kyeemagh Public School,Beehag St,KYEEMAGH,2216,-33.94902,151.162305
5453,56264,Putland School,Great Western Hwy & Water St,Werrington,2747,-33.764297,150.750385
8284,57056,Georges River College Oatley Senior Campus,Oatley Ave & Hurstville Rd,Oatley ,2223,-33.977001,151.081391
8281,56647,Great Lakes College Senior Campus,The Northern Parkway,Tuncurry,2428,-32.16071754,152.4937905
5741,64076,Kamay Botany Bay Environmental Education Centre,Kamay Botany Bay Environmental Education Centre KURNELL PUBLIC SCHOOL 13-31 DAMPIER STREET KURNELL NSW 2231,,2231,-34.003706,151.221169
5711,56315,Shepherds Park School,129 Fernleigh Rd,Wagga Wagga ,2650,-35.130108,147.344225
5454,56225,Dorchester School,Briar Rd,Campbelltown ,2560,-34.088474,150.826331
5429,64079,Camden Park Environmental Education Centre,Finns Rd & Remembrance Drive,Menangle ,2568,-34.120004,150.709685
5456,56188,Girrakool School,c/o Frank Baxter YJC The Avenue,Kariong,2250,-33.4237,151.296
5540,56178,Bridge Road School,127 Parramatta Rd,Camperdown ,2050,-33.887445,151.175254
5430,64082,Georges River Environmental Education Centre,2 Central Ave,Chipping Norton ,2170,-33.910278,150.961511
5538,56158,Arndell School,Badajoz Rd,North Ryde ,2113,-33.803223,151.125535
5743,64084,Illawarra Environmental Education Centre,Killalea Drive,Dunmore,2529,-34.610625,150.854786
8277,56110,Wyndham College,Nirimba Precinct Eastern Rd,Quakers Hill ,2763,-33.72608922,150.8795746
8381,55388,Bankstown Senior College,Antwerp St,Bankstown ,2200,-33.929121,151.022569
8599,55386,Bradfield College,213 Pacific Highway,St Leonards,2065,-33.820468,151.188457
5428,55118,Field of Mars Environmental Education Centre,Pittwater Rd,East Ryde,2113,-33.816092,151.132849
8272,54742,Coffs Harbour Senior College,363 Hogbin Drive,Coffs Harbour,2450,-30.330173,153.102656
5740,64090,Rumbalara Environmental Education Centre,Donnison St,Gosford ,2250,-33.428082,151.347464
5116,49421,Glen Innes West Infants School,Coronation Ave,Glen Innes ,2370,-29.738734,151.723882
5133,49308,Stanford Merthyr Infants School,Maitland St,Stanford Merthyr ,2327,-32.823423,151.495438
5458,64093,Awabakal Environmental Education Centre,412 SANDGATE RD,SHORTLAND,2307,-32.876107,151.696132
5247,49146,New Lambton Heights Infants School,NEW LAMBTON HEIGHTS INFANTS SC 176 LOOKOUT ROAD,NEW LAMBTON HEIGHTS,2305,-32.934855,151.688027
8880,49115,Callaghan College Jesmond Senior Campus,Janet St,Jesmond ,2299,-32.900971,151.696335
5738,49036,Kotara School,Seaview & Park Aves,Kotara ,2289,-32.94283,151.700379
5513,67657,St George Hospital School,Paediatric Ward Lvl 1 East,Kogarah,2217,-33.96671,151.13399
5195,48633,Hurstville Grove Infants School,81 Landsdowne St,Penshurst ,2222,-33.973128,151.090536
5148,48591,Bardwell Park Infants School,4 Crewe Lane,Bardwell Park ,2207,-33.933428,151.12555
5246,48576,Bankstown South Infants School,Stacey St,Bankstown ,2200,-33.93123,151.038402
5241,48558,Mount Lewis Infants School,Noble Ave,Greenacre ,2190,-33.916084,151.04976
5188,48150,Sefton Infants School,180-194 Rodd St,Sefton ,2162,-33.889237,151.009588
5562,48142,Fowler Road School,Cnr Fowler Rd & Matthew St,Merrylands,2160,-33.841497,150.975533
5120,47775,Yeo Park Infants School,Victoria St,Ashfield,2131,-33.902692,151.130055
5751,67665,The Childrens Hospital School,Hawkesbury Rd & Hainsworth St,Westmead ,2145,-33.802243,150.991834
8568,47710,Northern Beaches Secondary College Freshwater Senior Campus,153 Harbord Road,FRESHWATER,2096,-33.76751,151.279975
5112,47607,Taverners Hill Infants School,Elswick St,Petersham ,2049,-33.888955,151.157199
5132,47601,Russell Lea Public School,Whittall Street,Russell Lea,2046,-33.861418,151.142572
1042,44930,Annandale North Public School,206 Johnston St,Annandale ,2038,-33.877905,151.171835
5104,47590,Australia Street Infants School,Australia St,Newtown ,2042,-33.895783,151.177607
8539,6496,Sydney Secondary College Blackwattle Bay Campus,Taylor St,Glebe ,2037,-33.875142,151.188357
8374,46489,Brisbane Water Secondary College Woy Woy Campus,25 EDWARD STREET,WOY WOY,2256,-33.492687,151.323582
8870,46426,St Marys Senior High School,Kalang Ave,St Marys,2760,-33.763119,150.770024
8325,46407,Moree Secondary College,Albert St,Moree ,2400,-29.46645,149.842344
8473,46360,Chifley College Senior Campus,67 North Parade,MOUNT DRUITT,2770,-33.769305,150.829855
8600,86659,Secondary College of Languages,"Level 11, 105 Phillip Street",Parramatta,2150,-33.8137843,151.0086802
5423,,John Brotchie Nursery School,1361 Botany Rd,Botany ,2019,-33.942627,151.196138
5750,63688,Red Hill Environmental Education Centre,Saunders Ave,Gulgong ,2852,-32.364632,149.536274
5515,63661,Stewart House School,22 Ellen St,Harbord ,2096,-33.77349,151.29131
5504,62858,Royal Far West School,22 Wentworth St,Manly ,2095,-33.798519,151.288476
5757,58125,Lincoln School,Westview St,Dubbo ,2830,-32.2313,148.5784
5650,57889,Palm Avenue School,Dragonfly Drive,Westmead,2145,-33.80257496,150.9851858
5583,57888,Verona School,135B Fairfield St,Fairfield East ,2165,-33.868235,150.9709
1512,48594,Carlton Public School,60 Cameron St,Bexley ,2207,-33.963496,151.12246
5582,57887,Wakefield School,School Rd,Wakefield ,2278,-32.956712,151.56443
8110,57696,Dubbo College Senior Campus,Tony McGrane Place,Dubbo,2830,-32.23506778,148.6285578
1573,45317,Clovelly Public School,Arden St,Waverley ,2024,-33.907431,151.26028
5516,57695,Centennial Park School,78A Avoca Street,Randwick,2031,-33.910564,151.243184
5756,57434,Induna School,57 Swallow Rd,South Grafton ,2460,-29.722447,152.94639
5680,63762,Thalgarrah Environmental Education Centre,Rockvale Rd,Armidale ,2350,-30.447933,151.82475
5679,64077,Bournda Environmental Education Centre,Bournda National Park,Kalaru ,2550,-36.7908,149.92712
5694,64078,Brewongle Environmental Education Centre,587 Chapel Hill Road,SACKVILLE NORTH,2756,-33.48167,150.891511
5731,64080,Cascade Environmental Education Centre,Coramba Rd,Cascade,2453,-30.233457,152.789665
5683,64081,Dorroughby Environmental Education Centre,2101 Dunoon Rd,Dorroughby ,2480,-28.656556,153.35174
5714,64083,Gibberagong Environmental Education Centre,Bobbin Head Picnic Area,North Turramurra,2074,-33.65937821,151.1586004
5690,64085,Longneck Lagoon Environmental Education Centre,Whitmore Rd,Maraylya ,2765,-33.576219,150.892806
5745,64086,Observatory Hill Environmental Education Centre,Level 4  40 Gloucester Street,THE ROCKS,2000,-33.860863,151.204832
5752,64087,Penrith Lakes Environmental Education Centre,89-151 Old Castlereagh Road,CASTLEREAGH,2749,-33.728553,150.686511
5734,64088,Riverina Environmental Education Centre,Cnr Sturt & Olympic Highway,Wagga Wagga ,2650,-35.12974837,147.3093131
5691,64089,Royal National Park Environmental Education Centre,159 Farnell Avenue,ROYAL NATIONAL PARK,2232,-34.06282,151.057682
5681,64091,Wambangalang Environmental Education Centre,Obley Rd,Dubbo ,2830,-32.48798,148.554792
2117,45499,Haberfield Public School,Denman Ave,Haberfield ,2045,-33.879467,151.134002
2036,51084,Goolma Public School,Gollan Rd,Goolma ,2852,-32.3688,149.26901
3077,50988,Sofala Public School,Turon Terrace,Sofala ,2795,-33.082242,149.695172
2245,50663,Jugiong Public School,Flyde St,Jugiong,2726,-34.820203,148.335447
4214,50550,Narrandera East Infants School,Elizabeth St,Narrandera ,2700,-34.750279,146.565792
5732,64092,Warrumbungle National Park Environmental Education Centre,Warrumbungle National Park,Coonabarabran ,2357,-31.25459,148.981077
5667,64094,Wooglemai Environmental Education Centre,Sheehys Creek Rd,Oakdale ,2570,-34.134567,150.499162
2308,48592,Bexley North Public School,116 Kingsland Rd N,Bexley ,2207,-33.940838,151.120374
5764,65792,Woodberry Learning Centre,Cnr Woodberry Rd & Lawson Ave,Woodberry,2322,-32.791554,151.671217
8588,66878,NSW School of Languages,35 West Street,Petersham,2049,-33.894807,151.150285
5543,67658,Royal Prince Alfred Hospital School,83-117 Parramatta Road,CAMPERDOWN,2050,-33.889314,151.180245
5544,67659,Royal North Shore Hospital School,"Level 7, Clinical Services Building, Royal North Shore Hospital",St Leonards,2065,-33.820685,151.19079
5545,67660,Sydney Childrens Hospital School,Level 0 High St,Randwick,2031,-33.919053,151.239067
5546,67661,Sutherland Hospital School,Child Adolescent Unit Level 3,Caringbah,2229,-34.038034,151.114597
5548,67662,Bankstown Hospital School,Paediatric Unit Gallipoli St,Bankstown,2200,-33.933446,151.021069
5551,67663,Illawarra Hospital School,Children's Ward Level 3,Wollongong,2500,-34.424793,150.883935
5558,67664,John Hunter Hospital School,Ward J2 Lookout Road,New Lambton Heights,2305,-32.921378,151.697398
5556,67669,Liverpool Hospital School,Elizabeth St,Liverpool ,2170,-33.919912,150.931084
1001,44402,Abbotsford Public School,350 Great North Rd,Abbotsford ,2046,-33.852728,151.131206
1041,45497,Annandale Public School,25 Johnston St,Annandale ,2038,-33.885782,151.169599
1064,47773,Ashbury Public School,34-76 Trevenar St,Ashbury,2193,-33.898833,151.11944
1065,47774,Ashfield Public School,Liverpool Rd,Ashfield ,2131,-33.889723,151.12821
1121,46390,Banksmeadow Public School,Trevelyan & Wiggins Sts,Botany ,2019,-33.953739,151.20661
1179,45338,Bellevue Hill Public School,Victoria Rd,Bellevue Hill ,2023,-33.886986,151.259785
1215,48601,Beverly Hills Public School,Stoney Ck & King Georges Rds,Beverly Hills,2209,-33.953449,151.085209
1240,45798,Birchgrove Public School,Birchgrove Rd,Balmain ,2041,-33.853009,151.177045
1255,56167,Blakehurst Public School,Dewrang St,Blakehurst ,2221,-33.98298,151.115779
1292,44421,Bondi Beach Public School,Campbell Pde,Bondi Beach ,2026,-33.8883,151.276821
1358,56179,Brighton-Le-Sands Public School,35 Crawford Road,BRIGHTON-LE-SANDS,2216,-33.962357,151.148929
1372,46923,Bronte Public School,13 Hewlett St,BRONTE,2024,-33.900605,151.262011
1483,47591,Camdenville Public School,Laura St,Newtown ,2042,-33.906146,151.175741
1497,48561,Canterbury Public School,Church St,Canterbury ,2193,-33.908761,151.122306
1508,48651,Caringbah Public School,Port Hacking Rd,Caringbah ,2229,-34.053433,151.122988
1513,48629,Carlton South Public School,65-69 Jubilee Ave,CARLTON,2218,-33.973045,151.128287
1566,48588,Clemton Park Public School,185 Bexley Rd,Earlwood,2206,-33.929708,151.108423
1605,44400,Como Public School,Genoa St,Como ,2226,-34.001832,151.069127
1613,48632,Connells Point Public School,2 Riverview Ave, Connells Point,2221,-33.984689,151.100306
1616,47053,Coogee Public School,Byron St & Coogee Bay Rd,Coogee ,2034,-33.920819,151.249846
1682,48656,Cronulla Public School,18-24 Burraneer Bay Rd,Cronulla ,2230,-34.054077,151.14773
1735,45323,Darlington Public School,Golden Grove St,Chippendale ,2008,-33.892638,151.18939
1768,46925,Double Bay Public School,William St,Double Bay ,2028,-33.874856,151.240894
1774,47603,Drummoyne Public School,Rawson Ave,Drummoyne ,2047,-33.856073,151.153035
1807,48589,Earlwood Public School,Homer St,Earlwood ,2206,-33.928982,151.12238
1845,44420,Engadine Public School,Waratah Rd,Engadine ,2233,-34.06335,151.012431
1920,47599,Five Dock Public School,13/33 Henry St,Five Dock ,2046,-33.866859,151.127318
3797,44409,Oatley West Public School,Oatley Park Ave,Oatley,2223,-33.979006,151.065459
1932,46141,Forest Lodge Public School,Bridge Rd,Forest Lodge ,2037,-33.882169,151.181597
1937,57425,Fort Street Public School,Observatory Hill 2 Upper Fort Street,Millers Point,2000,-33.860427,151.204871
3830,48627,Ramsgate Public School,Chuter Ave,Ramsgate ,2217,-33.981431,151.143549
2009,45334,Glenmore Road Public School,Glenmore Rd,Paddington ,2021,-33.881385,151.230233
2116,48645,Gymea Bay Public School,205A Gymea Bay Road,Gymea Bay,2227,-34.046905,151.082825
2149,44404,Heathcote Public School,Oliver St,Heathcote ,2233,-34.086704,151.007321
2197,44405,Hurstville Public School,50 Forest Road,HURSTVILLE,2220,-33.964695,151.110728
2198,44406,Hurstville South Public School,Maher St,Hurstville ,2220,-33.972516,151.099252
2270,47585,Kegworth Public School,60 Tebbutt St,Leichhardt ,2040,-33.886514,151.14693
2283,45335,Kensington Public School,77-79 Doncaster Avenue,KENSINGTON,2033,-33.909604,151.224965
2307,48598,Kingsgrove Public School,Kingsgrove Rd,Kingsgrove ,2208,-33.947822,151.10156
2319,48625,Kogarah Public School,Gladstone St,Kogarah ,2217,-33.962028,151.136618
2341,48662,Kurnell Public School,Dampier & Torres Sts,Kurnell ,2231,-34.010156,151.203773
2373,47567,La Perouse Public School,Yarra Rd,La Perouse ,2036,-33.978352,151.235423
2454,47568,Malabar Public School,231-239 Franklin Street,MALABAR,2036,-33.962214,151.248559
2482,47561,Maroubra Bay Public School,Duncan St,Maroubra ,2035,-33.944236,151.253017
2499,44920,Mascot Public School,King St,Mascot ,2020,-33.928577,151.192485
2502,47569,Matraville Public School,310 BUNNERONG ROAD,MATRAVILLE,2036,-33.955064,151.229111
2520,48670,Menai Public School,4R Hall Drive,Menai ,2234,-34.01213,151.006587
2574,48647,Miranda Public School,3 Sylva Avenue,MIRANDA,2228,-34.034645,151.097405
4075,44918,Kirrawee Public School,146-156 BATH ROAD,KIRRAWEE,2232,-34.033467,151.07749
2624,48636,Mortdale Public School,Colebourne Ave,Mortdale ,2223,-33.972901,151.080995
2744,47592,Newtown North Public School,Carillon Ave,Newtown ,2042,-33.891821,151.185392
2749,47589,Nicholson Street Public School,Nicholson St,Balmain East ,2041,-33.855744,151.193188
2796,48637,Oatley Public School,51-63 Letitia Street,OATLEY,2223,-33.983741,151.080332
2812,47587,Orange Grove Public School,Perry St,Leichhardt ,2040,-33.872278,151.158678
2849,48607,Peakhurst Public School,Bonds Rd,PEAKHURST,2210,-33.955402,151.062306
2861,48137,Penshurst Public School,Arcadia St,Penshurst ,2222,-33.962636,151.087702
2930,56263,Rainbow Street Public School,90-98 Rainbow Street,RANDWICK,2031,-33.924647,151.237164
2973,48623,Rockdale Public School,Lord St,Rockdale ,2216,-33.952626,151.141681
2988,46926,Rose Bay Public School,ROSE BAY PUBLIC SCHOOL 6-10 ALBEMARLE AVENUE,ROSE BAY,2029,-33.873011,151.270962
3032,47595,St Peters Public School,Church St,St Peters ,2044,-33.912993,151.176696
1323,46494,Botany Public School,1076 Botany Rd,Botany ,2019,-33.94316,151.194687
3129,44414,Summer Hill Public School,Moonbie St,Summer Hill ,2130,-33.895815,151.135853
3136,44411,Sutherland Public School,38-54 Eton Street,Sutherland,2232,-34.033001,151.059149
3143,57484,Sylvania Public School,48 PRINCES HIGHWAY,SYLVANIA,2224,-34.008118,151.112077
3168,48655,Taren Point Public School,93 Woodlands Rd,Taren Point,2229,-34.01808,151.12269
3305,45318,Ultimo Public School,Quarry St,Ultimo ,2007,-33.877674,151.195607
3310,48590,Undercliffe Public School,Bayview Ave,Earlwood,2206,-33.924086,151.138601
3325,45310,Vaucluse Public School,Cambridge Ave,Vaucluse ,2030,-33.850478,151.281166
3396,48668,Waterfall Public School,McKell Ave,Waterfall ,2233,-34.137598,150.995977
3453,48587,Athelstane Public School,Athelstane Ave,Arncliffe ,2205,-33.937445,151.138362
3593,48640,Oyster Bay Public School,Short St,Oyster Bay ,2225,-34.00779,151.080693
3668,44401,Cronulla South Public School,Ewos Pde,Cronulla ,2230,-34.06611,151.154201
3703,47052,South Coogee Public School,Moverly Rd,South Coogee,2034,-33.933333,151.25409
3735,48665,Woronora River Public School,Prices Circuit,WORONORA,2232,-34.026575,151.041114
3765,46139,Bundeena Public School,48R Scarborough St,Bundeena,2230,-34.086792,151.152422
3794,46131,Bald Face Public School,Stuart St,Blakehurst ,2221,-33.996752,151.106905
5109,48562,Canterbury South Public School,High St,Canterbury ,2193,-33.917776,151.116013
5114,48582,Ferncourt Public School,Premier St,Marrickville ,2204,-33.921393,151.151497
3796,48605,Lugarno Public School,Old Forest Rd,Lugarno,2210,-33.984956,151.044676
5460,62743,Yudi Gunyi School,237 Botany Rd,Waterloo ,2017,-33.904025,151.203108
3822,48664,Sutherland North Public School,Auburn St,Sutherland ,2232,-34.026785,151.067084
3829,48644,Jannali Public School,107-121 Sutherland Road,JANNALI,2226,-34.017945,151.060909
3873,47598,Dobroyd Point Public School,89 Waratah Street,Haberfield,2045,-33.874416,151.140692
3886,48568,McCallums Hill Public School,35-51 McCallum Street,Roselands,2196,-33.934891,151.084758
3896,44929,Como West Public School,Wolger & Warraba Sts,Como ,2226,-34.004744,151.060505
3905,46922,Pagewood Public School,Page St,Botany ,2019,-33.942104,151.214172
5647,56161,Bates Drive School,Bates Drive,Kareela ,2232,-34.022243,151.08527
3914,45325,Grays Point Public School,109 Angle Rd,Grays Point ,2232,-34.058656,151.0723
3935,45326,Crown Street Public School,356 Crown Street,Surry Hills ,2010,-33.882253,151.21522
3948,47597,Tempe Public School,Unwins Bridge Rd,Tempe ,2044,-33.920935,151.160994
3951,48584,Marrickville West Public School,Livingstone Rd,Marrickville ,2204,-33.914468,151.145073
3952,48583,Marrickville Public School,Chapel St,Marrickville ,2204,-33.906705,151.162658
3953,45823,Waverley Public School,Bronte Rd,Waverley ,2024,-33.898174,151.251539
7408,45324,Bourke Street Public School,590 Bourke St,Surry Hills ,2010,-33.890534,151.215737
3957,48660,Woolooware Public School,Wills Rd,Cronulla ,2230,-34.045454,151.146233
7412,47778,Croydon Park Public School,Georges River Rd,Croydon Park,2133,-33.894695,151.108395
3972,45899,Caringbah North Public School,125 Cawarra Rd,Caringbah ,2229,-34.036574,151.123079
4004,48642,Jannali East Public School,Box Rd,Jannali ,2226,-34.019152,151.07232
4013,45800,Peakhurst West Public School,Ogilvy St,Peakhurst ,2210,-33.962021,151.049429
7419,47583,Glebe Public School,Derwent St,Glebe ,2037,-33.883685,151.19097
4024,48638,Sylvania Heights Public School,Lisbon Street,SYLVANIA,2224,-34.012724,151.097344
4051,56260,Penshurst West Public School,Forest Rd & Scott St,Mortdale ,2223,-33.962115,151.072176
4067,47570,Matraville Soldiers Settlement Public School,Menin Rd,Matraville ,2036,-33.958039,151.239995
4077,45501,Illawong Public School,Fowler Rd,Illawong ,2234,-33.999133,151.042689
4084,48654,Lilli Pilli Public School,Lilli Pilli Point Rd,Lilli Pilli ,2229,-34.066592,151.118387
4122,48646,Miranda North Public School,162B The Boulevarde,Miranda ,2228,-34.031992,151.11273
7442,46134,Woollahra Public School,Forth St,Woollahra ,2025,-33.886379,151.24119
4124,48649,Yowie Bay Public School,Wonga Rd,Yowie Bay ,2228,-34.048155,151.102761
4147,47594,Erskineville Public School,Swanson St,Erskineville ,2043,-33.900881,151.186112
4221,48661,Loftus Public School,Tenth Ave,Loftus ,2232,-34.046979,151.048886
8138,45329,Sydney Girls High School,Moore Park,Surry Hills ,2010,-33.894191,151.220371
4230,48653,Laguna Street Public School,204 Caringbah Road,Caringbah ,2229,-34.04634,151.11285
4250,45315,Randwick Public School,78 Avoca Street,RANDWICK,2031,-33.910645,151.241714
4259,48658,Burraneer Bay Public School,161-165 Burraneer Bay Rd,Cronulla ,2230,-34.051026,151.132781
4292,44926,Engadine West Public School,Woronora Rd,Engadine ,2233,-34.059519,151.002566
4298,44408,Yarrawarrah Public School,Old Bush Rd,Engadine ,2233,-34.056574,151.026137
4299,47566,Chifley Public School,Mitchell St,Malabar,2036,-33.96583,151.242158
3038,48630,Sans Souci Public School,Rocky Point Rd,Sans Souci ,2219,-33.99499,151.12923
4369,47606,Lewisham Public School,49 THE BOULEVARDE,LEWISHAM,2049,-33.897746,151.146076
4389,56310,Gymea North Public School,Ruby Rd,Gymea ,2227,-34.026457,151.088321
8241,48624,Moorefield Girls High School,Princes Hwy,Kogarah ,2217,-33.968311,151.137739
4431,46140,Marton Public School,107 Kingswood Rd,Engadine ,2233,-34.046492,151.024232
4488,46130,Kareela Public School,53 FREYA STREET,KAREELA,2232,-34.012894,151.081991
4496,45515,Dulwich Hill Public School,Kintore St,Dulwich Hill ,2203,-33.906163,151.140287
4502,47608,Petersham Public School,25 Hunter St,Petersham ,2049,-33.895647,151.150175
4507,46138,Bonnet Bay Public School,34R Tudar Road,BONNET BAY,2226,-34.012607,151.056257
4516,45801,Eastlakes Public School,Florence Ave,Eastlakes ,2018,-33.928065,151.213836
4536,48669,Bangor Public School,130 Menai Road,BANGOR,2234,-34.019534,151.029118
8320,46337,Kogarah High School,Gladstone St,Kogarah ,2217,-33.961161,151.134227
4543,56293,Wilkins Public School,Park Rd,Marrickville ,2204,-33.901967,151.155086
4551,45332,Plunkett Street Public School,Forbes St,Woolloomooloo ,2011,-33.870879,151.22024
4573,47900,Tharawal Public School,Gerald Rd,Menai ,2234,-34.003289,151.025929
4586,56279,Sydney Distance Education Primary School,1 Collins Street,Surry Hills,2010,-33.88627,151.212706
4605,56155,Alfords Point Public School,Brushwood Drive,Alfords Point ,2234,-33.992403,151.02399
5272,44417,Heathcote East Public School,Mimosa St,Heathcote ,2233,-34.082071,151.020259
5527,45852,St George School,Marshall St,Kogarah ,2217,-33.969055,151.137532
5575,57881,Cook School,Rawson Ave,Loftus ,2232,-34.041709,151.052545
5606,56183,Cairnsfoot School,58A Francis Avenue,BRIGHTON-LE-SANDS,2216,-33.95457,151.152168
5609,56298,Woniora Road School,83-85 Woniora Rd,Hurstville ,2220,-33.971003,151.103173
5616,56247,Minerva School,Eton St,Sutherland ,2232,-34.034965,151.058739
5631,56291,Wairoa School,Brighton Blvd,Bondi Beach ,2026,-33.886632,151.278496
5703,56201,Carinya School,Colebourne Ave,Mortdale ,2223,-33.973766,151.082222
5737,56227,Edgeware School,Burnett St & Tennett Pde,Hurlstone Park ,2193,-33.913582,151.131342
7401,48585,Arncliffe Public School,Princes Hwy,Arncliffe ,2205,-33.94054,151.14755
8556,46425,Alexandria Park Community School,Park Rd,Alexandria ,2015,-33.901164,151.196518
7404,47588,Balmain Public School,1 Eaton Street,BALMAIN,2041,-33.859166,151.183417
8587,56692,Sydney Distance Education High School,Forbes St,Woolloomooloo ,2011,-33.871053,151.22098
7406,48593,Bexley Public School,Forest Rd,Bexley ,2207,-33.947687,151.128861
7407,46924,Bondi Public School,Wellington St,Bondi ,2026,-33.892625,151.264753
7411,47777,Croydon Public School,39 Young St,Croydon ,2132,-33.879793,151.114887
8833,56198,Dulwich High School of Visual Arts and Design,Seaview St,Dulwich Hill ,2203,-33.904038,151.144871
7413,45322,Daceyville Public School,Joffre Cres,Daceyville ,2032,-33.929548,151.227984
8857,8634,Georges River College Penshurst Campus,2 Austral St,Penshurst ,2222,-33.964071,151.08601
8882,48626,James Cook Boys High School,Princes Hwy,Kogarah ,2217,-33.96648,151.13709
7414,45327,Darlinghurst Public School,Womerah Ave,Potts Point ,2011,-33.878599,151.223432
7418,46132,Gardeners Road Public School,420-422 Gardeners Road,ROSEBERY,2018,-33.920643,151.198034
7423,47586,Leichhardt Public School,Marion St LEICHHARDT NSW 2040,,2040,-33.88427,151.15814
7427,47564,Maroubra Junction Public School,Storey St,Maroubra ,2035,-33.93702706,151.2397289
7431,47593,Newtown Public School,1 Norfolk St,Newtown ,2042,-33.899991,151.179405
7432,45221,Paddington Public School,Oxford St,Paddington ,2021,-33.887603,151.230188
7435,47584,Rozelle Public School,Darling St,Rozelle ,2039,-33.862581,151.169749
7436,47604,Stanmore Public School,Cnr Cambridge and Holt St,Stanmore ,2048,-33.895506,151.165283
1379,47709,Brookvale Public School,Old Pittwater Rd,Brookvale ,2100,-33.761678,151.270787
1485,47611,Cammeray Public School,Palmer St,Cammeray ,2062,-33.820422,151.211542
8107,46392,Canterbury Boys High School,Holden St,Canterbury ,2193,-33.904178,151.123884
8136,48628,St George Girls High School,Victoria St,Kogarah ,2217,-33.959073,151.136035
8137,45328,Sydney Boys High School,556 Cleveland Street,MOORE PARK,2021,-33.892165,151.218904
8141,48595,Sydney Technical High School,686 Forest Rd,Bexley ,2207,-33.963075,151.114342
8147,45319,Conservatorium High School, Macquarie Street,Sydney,2000,-33.863407,151.21408
8152,47776,Burwood Girls High School,95 Queen Street,CROYDON,2132,-33.875318,151.113036
8161,46463,Randwick Boys High School,Rainbow & Avoca Sts,Randwick ,2031,-33.924712,151.238771
8220,46464,Randwick Girls High School,Cnr Avoca and Barker St,Randwick,2031,-33.921832,151.23944
8221,48597,Kingsgrove North High School,2-10 St Albans Road,KINGSGROVE,2208,-33.93398,151.097628
8230,48648,Port Hacking High School,637 Kingsway,MIRANDA,2228,-34.032395,151.097257
4323,48608,Peakhurst South Public School,45A Pindari Road,PEAKHURST HEIGHTS,2210,-33.972923,151.055986
2012,56231,Glenorie Public School,Old Northern Rd,Glenorie ,2157,-33.599444,151.008082
8240,48650,Caringbah High School,85 Willarong Rd,Caringbah,2229,-34.034901,151.120399
8246,48667,Heathcote High School,Wilson Pde,Heathcote,2233,-34.082295,151.01441
8247,48596,Kingsgrove High School,Kingsgrove Rd,Kingsgrove,2208,-33.948519,151.101653
8249,46423,Matraville Sports High School,Anzac Pde,Chifley ,2036,-33.964747,151.244548
2284,47868,Kenthurst Public School,111 Kenthurst Road,KENTHURST,2156,-33.665603,151.004575
8261,48657,Cronulla High School,Captain Cook Drive,Cronulla ,2230,-34.038439,151.159056
8263,46422,J J Cahill Memorial High School,Sutherland St,Mascot,2020,-33.927435,151.201835
2404,47627,Lindfield East Public School,90 Tyron Road,East Lindfield,2070,-33.767479,151.18429
8271,54684,Lucas Heights Community School,132 Old Illawarra Rd,Barden Ridge ,2234,-34.035778,151.004817
8288,57890,Central Sydney Intensive English High School,57-77 Mitchell Road,Alexandria,2015,-33.900033,151.19308
2543,47688,Middle Harbour Public School,8 Hale Rd,Mosman ,2088,-33.82282,151.2327
8386,46414,Gymea Technology High School,Princes Hwy and Hotham Road,Gymea,2227,-34.029985,151.08338
8404,48652,Endeavour Sports High School,Taren Pt Rd & The Boulevarde,Caringbah ,2229,-34.030083,151.117251
8408,8606,Georges River College Peakhurst Campus,Samuel & Rona Sts,Peakhurst ,2210,-33.966882,151.056013
8432,48666,Engadine High School,2 Porter Rd,Engadine ,2233,-34.062141,151.019341
8433,48659,Woolooware High School,2R Woolooware Rd,Woolooware ,2230,-34.039811,151.145595
2761,44410,Northbridge Public School,296a Sailors Bay Rd,Northbridge ,2063,-33.813034,151.218597
8437,48663,Kirrawee High School,21-29 Hunter St,Kirrawee ,2232,-34.04348,151.073475
8463,48639,Sylvania High School,17-23 Bellingara Road,Sylvania,2224,-34.017367,151.103529
8484,46493,Sydney Secondary College Balmain Campus,Terry St,Rozelle ,2039,-33.858506,151.170052
8504,47605,Fort Street High School,620 PARRAMATTA ROAD,PETERSHAM,2049,-33.890196,151.1529
8506,46424,Tempe High School,Unwins Bridge Rd,Tempe ,2044,-33.91975,151.16094
8507,6497,Sydney Secondary College Leichhardt Campus,Balmain Rd,Leichhardt ,2040,-33.879463,151.159003
8530,46498,Newtown High School of Performing Arts,King St,Newtown ,2042,-33.899534,151.178338
8540,46394,Marrickville High School,Northcote St,Marrickville ,2204,-33.905781,151.155995
3023,47743,West Ryde Public School,Endeavour St,West Ryde ,2114,-33.808363,151.085097
8545,47565,South Sydney High School,2-36 O'Sullivan Avenue,MAROUBRA,2035,-33.944154,151.234397
8555,46928,Rose Bay Secondary College,34A Hardy St,Dover Heights,2030,-33.878347,151.276121
8583,46137,Menai High School,40 Gerald Rd,Menai ,2234,-34.002904,151.023851
8806,46393,Canterbury Girls High School,Church St,Canterbury ,2193,-33.907264,151.122631
8813,8631,Georges River College Hurstville Campus,Kenwyn St,Hurstville ,2220,-33.962826,151.109808
8832,45966,Ashfield Boys High School,117 Liverpool Rd,Ashfield ,2131,-33.889547,151.129219
8852,57488,The Jannali High School,Sutherland Rd,Jannali ,2226,-34.021612,151.061927
1048,57392,Arcadia Public School,140 Arcadia Road,ARCADIA,2159,-33.623487,151.051031
1061,47612,Artarmon Public School,McMillan Rd,Artarmon ,2064,-33.811249,151.186001
3792,47718,Avalon Public School,Old Barrenjoey Rd,Avalon Beach,2107,-33.639377,151.326739
1070,45797,Asquith Public School,3 Dudley St,Asquith,2077,-33.685729,151.112177
1104,47691,Seaforth Public School,37 Kempbridge Avenue,Seaforth ,2092,-33.793262,151.251235
1166,47758,Beecroft Public School,98 Beecroft Rd,Beecroft ,2119,-33.752085,151.06462
1205,47676,Berowra Public School,Hillcrest Rd,Berowra,2081,-33.618522,151.148996
1320,47730,Boronia Park Public School,113 Pittwater Rd,HUNTERS HILL,2110,-33.821414,151.135558
1377,48694,Brooklyn Public School,106 Brooklyn Rd,Brooklyn ,2083,-33.548414,151.214992
1529,47865,Castle Hill Public School,Les Shore Place,Castle Hill ,2154,-33.727887,151.004663
3906,47713,Narrabeen North Public School,Namona St,NORTH NARRABEEN,2101,-33.699095,151.298134
1668,48693,Cowan Public School,Chandler Ave,Cowan ,2081,-33.588808,151.168843
1744,47703,Dee Why Public School,Regent St,Dee Why ,2099,-33.749025,151.285209
1799,48135,Dural Public School,622 Old Northern Rd,Dural ,2158,-33.686057,151.026394
1850,44925,Epping Public School,2-16 Norfolk Road,EPPING,2121,-33.770727,151.087878
1851,47769,Epping West Public School,96 Carlingford Rd,EPPING,2121,-33.772789,151.068048
3950,44413,Manly Village Public School,Darley Rd,Manly ,2095,-33.7994,151.287627
1860,47741,Ermington Public School,Winbourne St,West Ryde ,2114,-33.804749,151.071574
1946,47682,Frenchs Forest Public School,Ann St,Frenchs Forest ,2086,-33.751516,151.224695
3971,47708,Beacon Hill Public School,Tristram Rd,Beacon Hill ,2100,-33.75163,151.260584
1952,48139,Galston Public School,School Rd,Galston ,2159,-33.648197,151.04517
1990,44419,Gladesville Public School,Victoria Rd,Gladesville ,2111,-33.832977,151.125699
2003,47867,Glenhaven Public School,Glenhaven Rd,Glenhaven ,2156,-33.700792,151.002882
8236,44403,Blakehurst High School,270A Woniora Rd,Blakehurst ,2221,-33.980406,151.11324
2133,47698,Harbord Public School,Wyadra Avenue,Freshwater,2096,-33.772164,151.286531
2164,48134,Hillside Public School,Cattai Ridge Rd,Glenorie ,2157,-33.601784,150.976151
2189,47728,Hunters Hill Public School,17 Alexandra St,Hunters Hill ,2110,-33.835121,151.151254
2368,47616,Lane Cove Public School,Austin St & Longueville Rd,Lane Cove ,2066,-33.816514,151.169134
2403,47626,Lindfield Public School,218 PACIFIC HIGHWAY,LINDFIELD,2070,-33.78075,151.168917
2469,47697,Manly West Public School,Griffith St,Balgowlah ,2093,-33.791875,151.268753
2542,48136,Middle Dural Public School,Old Northern Rd,Middle Dural ,2158,-33.64496,151.023178
2593,47715,Mona Vale Public School,Waratah St,Mona Vale ,2103,-33.676998,151.300404
2706,47714,Narrabeen Lakes Public School,1299 Pittwater Rd,Narrabeen ,2101,-33.720323,151.297413
2730,45502,Neutral Bay Public School,Ben Boyd Rd,Neutral Bay ,2089,-33.83261,151.219605
4249,47700,Wheeler Heights Public School,Veterans Pde,Collaroy Plateau ,2097,-33.72779,151.284764
2740,47717,Newport Public School,Stuart St,Newport ,2106,-33.660561,151.312237
2760,47667,Normanhurst Public School,Normanhurst Rd,Normanhurst ,2076,-33.723332,151.098026
2764,56252,North Rocks Public School,359 North Rocks Rd,North Rocks,2151,-33.768425,151.025148
4276,47766,Thornleigh West Public School,Giblett Ave,Thornleigh ,2120,-33.723864,151.072163
2766,45500,North Sydney Public School,Bay Rd,Waverton ,2060,-33.834819,151.203685
2857,47763,Pennant Hills Public School,Ramsay & Weemala Rds,Pennant Hills ,2120,-33.7358,151.068058
4294,47757,Roselea Public School,549 NORTH ROCKS ROAD,CARLINGFORD,2118,-33.765259,151.05252
2858,47764,West Pennant Hills Public School,Church St,West Pennant Hills ,2125,-33.746075,151.050491
2913,47733,Putney Public School,Morrison Rd,Ryde ,2112,-33.824562,151.110973
2994,47625,Roseville Public School,Archbold Rd,Roseville ,2069,-33.781883,151.188666
3021,47735,Ryde Public School,Pope St,Ryde,2112,-33.812552,151.108015
3022,47738,North Ryde Public School,Coxs Rd,North Ryde ,2113,-33.794766,151.120042
4386,47685,Killarney Heights Public School,10 Tralee Ave,KILLARNEY HEIGHTS,2087,-33.774942,151.216151
3190,47678,Terrey Hills Public School,Cooyong Rd,Terrey Hills ,2084,-33.685723,151.222619
3288,44921,Turramurra North Public School,237 Bobbin Head Rd,North Turramurra ,2074,-33.714724,151.147816
3334,47668,Waitara Public School,64-68 Edgeworth David Avenue,WAHROONGA,2076,-33.708119,151.111586
4433,47677,Wideview Public School,Wideview Rd,Berowra Heights,2082,-33.608499,151.14151
3390,45900,Warrawee Public School,1486 Pacific Highway,Turramurra,2074,-33.729484,151.121236
4515,46129,Kambora Public School,Woolrych Ave,Davidson ,2085,-33.740137,151.1945
4572,56220,John Purchase Public School,Purchase Rd,Cherrybrook ,2126,-33.718798,151.038895
3449,47623,Willoughby Public School,30-34 Oakville Road,WILLOUGHBY,2068,-33.802197,151.200123
4604,55115,Oakhill Drive Public School,Oakhill Drive,Castle Hill ,2154,-33.721563,151.022997
5191,44917,Hornsby South Public School,Clarke Rd,Hornsby ,2077,-33.713499,151.095148
3719,47863,Annangrove Public School,Annangrove Rd,Annangrove ,2156,-33.667417,150.95255
3736,47693,Balgowlah Heights Public School,Lewis St,Balgowlah ,2093,-33.805985,151.258754
3748,47679,Belrose Public School,Ralston Ave,Belrose ,2085,-33.727235,151.216645
3777,44922,Pymble Public School,Crown Road,Pymble,2073,-33.732269,151.141089
3827,47705,Narraweena Public School,72-78 MCINTOSH ROAD,NARRAWEENA,2099,-33.7492,151.273639
3833,44923,Wahroonga Public School,71 Burns Rd,Wahroonga ,2076,-33.715583,151.128476
3846,46136,Melrose Park Public School,110 Wharf Rd,West Ryde ,2114,-33.814849,151.071939
5670,56222,Karonga School,Karonga Close (via Dent St),Epping ,2121,-33.770806,151.06064
5675,44924,Sir Eric Woodward Memorial School,75 Ayres Road,St Ives ,2075,-33.719579,151.179755
3855,47635,Turramurra Public School,Kissing Point Rd,Turramurra ,2074,-33.745258,151.114305
7416,47770,Eastwood Public School,Rowe St,Eastwood ,2122,-33.792743,151.078474
3862,47740,Denistone East Public School,Lovell Rd,Eastwood ,2122,-33.7943,151.096571
3863,88102,Meadowbank Public School,6 Rhodes St,MEADOWBANK,2114,-33.8129,151.0921
3885,47674,Mount Colah Public School,Telopea St,Mount Colah ,2079,-33.672947,151.115695
3908,47617,Lane Cove West Public School,Avalon Ave,Lane Cove,2066,-33.809886,151.152003
8159,47622,Willoughby Girls High School,Mowbray Rd,Willoughby ,2068,-33.803128,151.199957
3918,47630,Killara Public School,Ridgeland Ave,Killara ,2071,-33.765473,151.148436
3919,47624,Castle Cove Public School,Kendall Rd,Castle Cove ,2069,-33.783375,151.201973
3925,45799,Curl Curl North Public School,Playfair Rd,North Curl Curl ,2099,-33.764639,151.289314
8222,47673,Asquith Girls High School,Stokes Ave,Asquith ,2077,-33.689716,151.11275
3943,47632,Gordon West Public School,146 Ryde Road,Pymble,2073,-33.760318,151.139223
3956,47628,Beaumont Road Public School,17 Beaumont Road,Killara ,2071,-33.774289,151.146271
3970,47699,Collaroy Plateau Public School,Plateau Rd,Collaroy Plateau ,2097,-33.73297,151.29344
8245,47672,Asquith Boys High School,Jersey St,Asquith ,2077,-33.692276,151.103016
3984,47694,Balgowlah North Public School,10 Manning Street,North Balgowlah,2093,-33.783267,151.246457
3985,47631,Gordon East Public School,Rosedale Rd,Gordon ,2072,-33.74582,151.156203
4015,47618,Mowbray Public School,635 Mowbray Road,Lane Cove,2066,-33.803943,151.155895
4019,47684,Forestville Public School,7 Melwood Ave,Forestville ,2087,-33.761582,151.212803
2076,44418,Greenwich Public School,32 Kingslangley Rd,Greenwich,2065,-33.82587,151.183252
4038,47767,Epping Heights Public School,Kent St,Epping ,2121,-33.762695,151.07408
8416,47633,Ku-ring-gai High School,Bobbin Head Rd,NORTH TURRAMURRA,2074,-33.690973,151.153809
4041,44927,Eastwood Heights Public School,Lincoln St,Eastwood,2122,-33.781914,151.095463
4049,47675,Mount Kuring-gai Public School,Leeming St,Mount Kuring-gai ,2080,-33.657474,151.135604
8438,47762,Pennant Hills High School,Laurence St,Pennant Hills ,2120,-33.733692,151.061087
4160,47771,Kent Road Public School,126 Kent Rd,Marsfield,2122,-33.787415,151.108936
4164,47739,Truscott Street Public School,Truscott St,North Ryde ,2113,-33.794097,151.130918
4165,47768,Epping North Public School,Boundary Rd,North Epping ,2121,-33.757643,151.095425
4199,47711,Elanora Heights Public School,43 Elanora Road,Elanora Heights ,2101,-33.703672,151.284751
4200,47706,Allambie Heights Public School,165 Allambie Road,ALLAMBIE HEIGHTS,2100,-33.76615,151.249208
4241,47702,Cromer Public School,Carcoola Rd,Cromer ,2099,-33.738009,151.274661
4257,47737,Ryde East Public School,12 Twin Rd,North Ryde ,2113,-33.807139,151.125864
8512,47712,Narrabeen Sports High School,10 Namona St,NORTH NARRABEEN,2101,-33.700941,151.298401
8567,7704,Northern Beaches Secondary College Manly Campus,138 Abbott Rd,North Curl Curl ,2099,-33.762388,151.281355
4274,46133,Hornsby Heights Public School,Somerville Rd,Hornsby ,2077,-33.670114,151.097989
4275,47761,Normanhurst West Public School,Dartford Rd,Thornleigh ,2120,-33.721061,151.088436
8851,7692,Northern Beaches Secondary College Balgowlah Boys Campus,Maretimo St,Balgowlah ,2093,-33.796405,151.254607
4283,45496,West Pymble Public School,Apollo Ave,West Pymble ,2073,-33.763937,151.124401
1045,50197,Appin Public School,97 Appin Road,APPIN,2560,-34.198417,150.78766
4293,46135,St Ives North Public School,87 Memorial Ave,St Ives ,2075,-33.718672,151.163635
4331,56317,St Ives Public School,Horace St,St Ives ,2075,-33.738199,151.1665
4359,47726,Bilgola Plateau Public School,Plateau Rd,Bilgola Plateau ,2107,-33.644021,151.313406
1123,48557,Greenacre Public School,89-105 Waterloo Rd Greenacre NSW 2190,,2190,-33.911161,151.057581
4365,47670,Hornsby North Public School,52 Ida St,Hornsby ,2077,-33.682646,151.098865
4368,47680,Wakehurst Public School,Glen St,Belrose ,2085,-33.738527,151.218101
4377,47853,Baulkham Hills North Public School,2A Girralong Ave,Baulkham Hills ,2153,-33.751927,150.999957
4400,56316,St Ives Park Public School,Woodbury & Acron Rds,St Ives ,2075,-33.724082,151.178775
1186,48560,Belmore South Public School,Nelson Ave & Canterbury Rd,Belmore ,2192,-33.925735,151.091985
4401,47756,Murray Farm Public School,Tracey Ave,Carlingford ,2118,-33.766119,151.040173
4432,45796,Mimosa Public School,Blackbutts Rd & Mimosa St,Frenchs Forest ,2086,-33.743343,151.205909
1321,48551,Bossley Park Public School,Marconi Rd,Bossley Park ,2176,-33.858524,150.883076
1360,48547,Bringelly Public School,101 Wentworth Rd,BRINGELLY,2556,-33.93791,150.730266
4440,47760,Cherrybrook Public School,131 New Line Rd,Cherrybrook ,2126,-33.731277,151.042056
4574,55112,Samuel Gilbert Public School,Ridgecrop Drive,Castle Hill ,2154,-33.713106,150.992027
5212,44412,Beauty Point Public School,17 Medusa St,Mosman ,2088,-33.812008,151.241883
5405,56228,Fisher Road School,115 Fisher Rd,Dee Why ,2099,-33.746131,151.287466
5407,56209,Cromehurst School,8 Nelson Rd,Lindfield ,2070,-33.773952,151.172207
5578,57884,Naremburn School,250 Willoughby Rd,Naremburn ,2065,-33.819372,151.200343
5579,45853,The Beach School,Malinya Rd,Allambie ,2100,-33.772011,151.262488
5655,56206,Clarke Road School,48-58 Clarke Road,Hornsby,2077,-33.712072,151.095647
5656,56156,Arranounbai School,5 Aquatic Drive,Frenchs Forest ,2086,-33.756784,151.241291
7409,47620,Chatswood Public School,5 Centennial Ave,Chatswood ,2067,-33.798242,151.17759
7430,46126,Mosman Public School,27 Belmont Rd,Mosman ,2088,-33.828052,151.241198
8120,47669,Hornsby Girls High School,Edgeworth David Ave,Hornsby ,2077,-33.706627,151.101083
8132,47614,North Sydney Boys High School,127 Falcon Street,North Sydney,2060,-33.829336,151.207734
8133,47615,North Sydney Girls High School,Pacific Hwy,Crows Nest ,2065,-33.830244,151.203447
8207,47727,Hunters Hill High School,Reiby Rd,Hunters Hill ,2110,-33.832696,151.148509
8208,47759,Cheltenham Girls High School,Beecroft Rd & The Promenade,Beecroft ,2119,-33.75627,151.074096
8211,47666,Normanhurst Boys High School,Pennant Hills Rd,Normanhurst,2076,-33.721475,151.101466
8225,88103,Marsden High School,8 Rhodes St,MEADOWBANK,2114,-33.812981,151.092237
8232,47619,Chatswood High School,24-58 Centennial Ave,CHATSWOOD,2067,-33.800013,151.175324
2066,46473,Granville South Public School,Woodville Rd,Guildford ,2161,-33.848289,150.995883
8243,54236,Riverside Girls High School,Huntleys Point Rd,Gladesville,2111,-33.840079,151.141467
8326,47689,Mosman High School,Military Rd,MOSMAN,2088,-33.829677,151.243425
8372,47683,The Forest High School,135 Frenchs Forest Rd,Frenchs Forest ,2086,-33.750298,151.2298
8379,47716,Pittwater High School,Pittwater Rd & Mona St,Mona Vale ,2103,-33.668259,151.302664
8382,47864,Castle Hill High School,Castle St,Castle Hill ,2154,-33.726635,150.999534
2187,48546,Hoxton Park Public School,99 Pacific Palms Circuit,HOXTON PARK,2171,-33.931881,150.849626
8400,47638,St Ives High School,Yarrabung Rd,St Ives ,2075,-33.740147,151.167078
4021,47696,Manly Vale Public School,Sunshine St,Manly Vale ,2093,-33.783497,151.25976
8422,47686,Killarney Heights High School,Starkey St,Killarney Heights ,2087,-33.771925,151.215215
8435,47634,Turramurra High School,Maxwell St,South Turramurra,2074,-33.757307,151.114786
8447,47751,Carlingford High School,547 North Rocks Rd,Carlingford ,2118,-33.765412,151.050764
8454,47719,Barrenjoey High School,Coonanga Road,Avalon ,2107,-33.63117,151.333926
8457,47629,Killara High School,Koola Ave,Killara ,2071,-33.756575,151.174102
8479,47681,Davidson High School,Mimosa St,Frenchs Forest ,2086,-33.74468,151.205465
8481,48138,Galston High School,403 Galston Rd,Galston ,2159,-33.660931,151.042348
8498,47847,Muirfield High School,Barclay Rd,North Rocks,2151,-33.764695,151.022294
8511,7701,Northern Beaches Secondary College Cromer Campus,South Creek Rd,Cromer ,2099,-33.737765,151.284453
8592,55111,Cherrybrook Technology High School,28/44 Purchase Rd,CHERRYBROOK,2126,-33.719852,151.037583
8831,7695,Northern Beaches Secondary College Mackellar Girls Campus,Campbell Pde & Quirk Rd,Manly Vale ,2093,-33.782109,151.272401
8884,54237,Epping Boys High School,213 Vimiera Rd,Eastwood ,2122,-33.769453,151.099645
1073,47799,Auburn North Public School,100 Adderley St,Auburn ,2144,-33.841669,151.038618
1075,47801,Auburn West Public School,Chiswick Rd,Auburn ,2144,-33.860931,151.019764
1077,48545,Austral Public School,219 Edmondson Avenue,AUSTRAL,2179,-33.934487,150.812638
1124,48574,Bankstown North Public School,322 Hume Hwy,Bankstown ,2200,-33.904888,151.038043
1134,50234,Bargo Public School,Southern Rd,Bargo ,2574,-34.292889,150.58274
1148,48571,Bass Hill Public School,611 Hume Hwy,Bass Hill ,2197,-33.905902,151.005779
1185,48559,Belmore North Public School,Burwood Rd,Belmore ,2192,-33.909885,151.084885
1199,45498,Berala Public School,Harrow Rd,Berala,2141,-33.869714,151.028244
1257,47791,Blaxcell Street Public School,352 Blaxcell Street,Granville,2142,-33.858068,151.006125
1455,47779,Burwood Public School,1-3 Conder Street,BURWOOD,2134,-33.8768,151.098987
1460,50229,Buxton Public School,Hassall Rd,Buxton ,2571,-34.246971,150.544826
1472,48163,Cabramatta Public School,Levuka St,Cabramatta ,2166,-33.895823,150.942629
1482,50220,Camden Public School,25 JOHN STREET,CAMDEN,2570,-34.051998,150.693236
1486,50203,Campbelltown Public School,Lithgow St,Campbelltown ,2560,-34.070109,150.815634
1488,48564,Campsie Public School,Evaline St,Campsie,2194,-33.911863,151.104846
1494,48517,Canley Vale Public School,Canley Vale Rd,Canley Vale ,2166,-33.88676,150.937632
1537,50222,Cawdor Public School,CAWDOR PUBLIC SCHOOL 685 CAWDOR ROAD,CAWDOR,2570,-34.109711,150.673727
1560,48534,Chipping Norton Public School,4 Central Ave,Chipping Norton ,2170,-33.909108,150.96085
1580,50223,Cobbitty Public School,306 Cobbitty Road,COBBITTY,2570,-34.0159,150.685938
1607,47782,Concord Public School,Burwood Rd,Concord ,2137,-33.863224,151.106944
1608,47786,Concord West Public School,Concord Rd,Concord West ,2138,-33.839613,151.087317
1770,50218,Douglas Park Public School,111 Camden Rd,Douglas Park ,2569,-34.179484,150.713038
3789,48580,Condell Park Public School,Augusta St,CONDELL PARK,2200,-33.925486,151.013674
1809,48619,Panania Public School,21A Lawler Street,PANANIA,2213,-33.965972,150.99946
1844,47780,Enfield Public School,Beaumaris St,Enfield ,2136,-33.888598,151.094528
1895,48157,Fairfield Public School,68-82 Smart St,Fairfield ,2165,-33.866847,150.955409
1896,48158,Fairfield West Public School,Palmerston Rd,Fairfield West ,2165,-33.868037,150.924762
2001,48521,Glenfield Public School,Railway Pde,Glenfield ,2167,-33.971005,150.896584
3924,48617,East Hills Public School,2 Lucas Rd,Panania ,2213,-33.957953,150.991975
2064,47793,Granville Public School,Lena St,Granville ,2142,-33.834264,151.004671
2075,48528,Green Valley Public School,Green Valley Rd,Green Valley ,2168,-33.90074,150.868972
2093,54952,Guildford Public School,Apia St,Guildford ,2161,-33.855821,150.981983
2128,56193,Hammondville Public School,Walder Rd,Hammondville ,2170,-33.947273,150.954525
2173,47788,Homebush Public School,Rochester St,Homebush ,2140,-33.867319,151.08523
3983,48516,Canley Heights Public School,Cambridge St,Canley Heights ,2166,-33.884812,150.922611
3986,48162,Yennora Public School,Ellis Pde,Yennora ,2161,-33.866826,150.970993
2182,48153,Horsley Park Public School,1759 The Horsley Drive,HORSLEY PARK,2175,-33.840414,150.852683
2206,44415,Ingleburn Public School,Oxford Rd,Ingleburn ,2565,-34.000332,150.866612
2285,50207,Kentlyn Public School,Georges River Rd,Campbelltown ,2560,-34.073132,150.858576
8415,47731,Ryde Secondary College,Malvina St,Ryde,2112,-33.813316,151.119176
2394,47790,Lidcombe Public School,Mills Street,Lidcombe ,2141,-33.861019,151.046926
4058,50208,Leumeah Public School,Burrendong Rd,Leumeah ,2560,-34.049425,150.840373
2531,57451,Merrylands Public School,Fowler Rd,Merrylands ,2160,-33.840516,150.976047
2560,48622,Milperra Public School,Pozieres Ave,Milperra ,2214,-33.942077,150.979779
2572,50215,Minto Public School,MINTO PUBLIC SCHOOL 1 REDFERN ROAD,MINTO,2566,-34.029979,150.847266
2625,47784,Mortlake Public School,Brays Rd,Concord,2137,-33.849829,151.103861
2640,50226,Mount Hunter Public School,165 Burragorang Rd,Camden ,2570,-34.07177,150.63643
4126,50202,Campbelltown North Public School,Thomas St & Rudd Rd,Campbelltown ,2560,-34.061201,150.826589
2648,57697,Mount Pritchard Public School,Meadows Rd,Mount Pritchard ,2170,-33.899845,150.900007
2704,50217,Narellan Public School,Camden Valley Way,Narellan,2567,-34.042764,150.733769
4161,48538,Liverpool West Public School,79-81 Hoxton Park Rd,Liverpool ,2170,-33.927101,150.907691
4198,48533,Casula Public School,De Meyrick Ave,Casula ,2170,-33.944218,150.9092
2789,50227,Oakdale Public School,Burragorang Rd,Oakdale ,2570,-34.078907,150.508197
4217,48555,Banksia Road Public School,65 Banksia Rd,Greenacre ,2190,-33.906898,151.05011
2793,50228,The Oaks Public School,5 Burragorang Street,THE OAKS,2570,-34.078385,150.571724
4278,48540,Marsden Road Public School,Marsden Rd,Liverpool ,2170,-33.916491,150.912841
2801,48145,Old Guildford Public School,Woodville Rd,Guildford ,2161,-33.867484,150.986508
2826,48612,Padstow Park Public School,Segers Ave,Padstow,2211,-33.954955,151.030882
4289,48539,Lurnea Public School,West & Reilly Sts,Lurnea ,2170,-33.932082,150.891925
2867,50231,Picton Public School,Lumsdaine St,Picton ,2571,-34.17624,150.609346
2901,48543,Prestons Public School,Kurrajong & Box Rds,Prestons ,2170,-33.94642,150.889961
2910,48569,Punchbowl Public School,1333 Canterbury Road,PUNCHBOWL,2196,-33.930613,151.055905
2926,48548,Leppington Public School,144 Rickard Rd,Leppington,2179,-33.959269,150.810901
2950,47798,Regents Park Public School,1 Auburn Rd,Regents Park ,2143,-33.885518,151.024693
2958,48613,Revesby Public School,Victoria St,Revesby ,2212,-33.944449,151.017145
2999,56268,Rossmore Public School,631 BRINGELLY ROAD,ROSSMORE,2557,-33.946493,150.770857
4338,48530,Miller Public School,Miller Rd & Shropshire St,Miller ,2168,-33.921454,150.876881
3029,48553,St Johns Park Public School,Sandringham St,St Johns Park ,2176,-33.887204,150.899278
3073,48154,Smithfield Public School,20 O'Connell Street,SMITHFIELD,2164,-33.853583,150.933495
3123,47785,Strathfield North Public School,251 Concord Rd,North Strathfield ,2137,-33.854531,151.09204
4360,48527,Cartwright Public School,Willan Drive,Cartwright,2168,-33.925284,150.890943
3124,45503,Strathfield South Public School,457 Liverpool Road,STRATHFIELD,2135,-33.89078,151.084702
3148,50233,Tahmoor Public School,Bronzewing St,Tahmoor ,2573,-34.227663,150.588951
3200,50232,Thirlmere Public School,Oaks Rd,Thirlmere ,2572,-34.204832,150.569311
3328,48152,Carramar Public School,The Horsley Drive,Carramar ,2163,-33.885512,150.969204
3537,50235,Yanderra Public School,16 Yanderra Rd,Yanderra ,2574,-34.320475,150.571244
3615,56238,Kemps Creek Public School,100 Cross Street,KEMPS CREEK,2178,-33.882805,150.790299
3632,48156,Fairfield Heights Public School,Station St,FAIRFIELD,2165,-33.866094,150.940272
3678,48544,Warwick Farm Public School,Lawrence Hargrave Rd,Warwick Farm,2170,-33.909642,150.929409
3698,48149,Chester Hill Public School,CHESTER HILL PUBLIC SCHOOL 88 PROCTOR PARADE,CHESTER HILL,2162,-33.885597,151.00161
3702,48572,Georges Hall Public School,Pennington Ave,Georges Hall ,2198,-33.912435,150.9922
3743,48609,Riverwood Public School,Union St,Riverwood ,2210,-33.947208,151.046586
3808,48556,Chullora Public School,Norfolk & Waterloo Rds,Greenacre ,2190,-33.895371,151.060249
3831,56203,Chalmers Road School,Chalmers Rd,Strathfield ,2135,-33.879569,151.081613
4490,56199,Campbellfield Public School,Townson Ave,Minto ,2566,-34.037684,150.847422
3869,48573,Yagoona Public School,425 Hume Hwy,Yagoona ,2199,-33.909174,151.026716
3871,56646,Wattle Grove Public School,Cressbrook Drive,Wattle Grove ,2173,-33.958654,150.937482
4494,48566,Hampden Park Public School,39-79 Hampden Road,Lakemba,2195,-33.914957,151.074029
3875,48603,Narwee Public School,Broadarrow Rd,Narwee ,2209,-33.948186,151.06865
3944,48600,Beverly Hills North Public School,Shorter Ave & King Georges Rd,Beverly Hills ,2209,-33.940606,151.074837
3958,48610,Padstow Heights Public School,Chamberlain Rd,Padstow ,2211,-33.966519,151.030001
4510,50204,Claymore Public School,Dobell Rd,Claymore ,2559,-34.043125,150.809517
3977,48151,Villawood East Public School,Lowana St,Villawood ,2163,-33.890154,150.986013
3980,48164,Cabramatta West Public School,Broad St,Cabramatta ,2166,-33.897515,150.922985
3981,48148,Chester Hill North Public School,Campbell Hill Rd,Chester Hill ,2162,-33.872352,151.001039
4000,48146,Guildford West Public School,Palmer St,Guildford West ,2161,-33.847672,150.966496
4009,48159,Fairvale Public School,Wolseley St,Fairfield ,2165,-33.876939,150.940718
4012,48618,Panania North Public School,Bransgrove Rd,Panania ,2213,-33.944499,150.999631
4016,56265,Revesby South Public School,Mars St,Revesby ,2212,-33.960526,151.017335
2360,48567,Lakemba Public School,Alice St,Lakemba ,2195,-33.923615,151.070046
4059,48581,Wattawa Heights Public School,The Avenue,Bankstown ,2200,-33.914921,151.012095
4064,50213,Macquarie Fields Public School,Fields Rd,Macquarie Fields ,2564,-33.995325,150.882486
4065,48160,Villawood North Public School,95 Bligh St,Fairfield East,2165,-33.877111,150.972454
4088,48611,Padstow North Public School,Halcyon Ave,Padstow,2211,-33.945302,151.031421
4092,48604,Hannans Road Public School,Hannans Rd,Riverwood ,2210,-33.945271,151.057599
4142,48578,Bankstown West Public School,William St,Bankstown,2200,-33.915528,151.019639
4594,54674,Bonnyrigg Heights Public School,Wilson Rd,Bonnyrigg Heights ,2177,-33.88935,150.867681
4151,48621,Tower Street Public School,74 Tower St,Panania ,2213,-33.956383,151.007373
4210,48542,Mount Pritchard East Public School,Townview Rd,Mount Pritchard ,2170,-33.905097,150.912044
4277,50200,Campbelltown East Public School,Waminda Ave,Campbelltown ,2560,-34.072299,150.831753
4286,50221,Camden South Public School,Hume Hwy,Camden ,2570,-34.069741,150.69563
4288,48549,Holsworthy Public School,36 INFANTRY PARADE,HOLSWORTHY,2173,-33.956342,150.953353
4625,56627,Currans Hill Public School,Tramway Drive,Currans Hill ,2567,-34.04785,150.769197
4311,48550,Bardia Public School,Macdonald Rd,Bardia,2565,-33.97528,150.857923
4628,56641,Harrington Park Public School,2 Sir Warwick Fairfax Drive,HARRINGTON PARK,2567,-34.027145,150.738527
4312,47811,Ringrose Public School,Ringrose Ave,Greystanes ,2145,-33.820181,150.959399
4314,48518,Harrington Street Public School,13-25 Harrington Street,Cabramatta,2166,-33.888595,150.908725
4319,48531,Sadleir Public School,Insignia St,Sadleir ,2168,-33.915843,150.891029
4328,48143,Sherwood Grange Public School,Bruce St,Merrylands ,2160,-33.836784,150.960103
5118,48565,Harcourt Public School,First Ave,Campsie ,2194,-33.90897,151.095803
5126,48140,Merrylands East Public School,Myee St,Merrylands ,2160,-33.841954,150.98929
5220,48520,Lansvale Public School,LANSVALE PUBLIC SCHOOL 37-45 CHANCERY STREET,CANLEY VALE,2166,-33.890977,150.953555
5236,47792,Granville East Public School,210 The Trongate,Granville ,2142,-33.84827,151.009981
5251,47789,Homebush West Public School,20 Exeter Road,HOMEBUSH WEST,2140,-33.866461,151.06671
5401,56229,Glenfield Park School,Roy Watts Rd,Glenfield,2167,-33.967931,150.878601
5508,56163,Beverley Park School,Beverley Rd,Campbelltown ,2560,-34.062208,150.824219
5529,45851,Broderick Gillawarna School,36-48 Victoria St,Revesby ,2212,-33.942493,151.015897
4336,48529,Heckenberg Public School,Jindabyne St,HECKENBERG,2168,-33.908784,150.890543
4337,48525,Busby Public School,South Liverpool Rd,Busby ,2168,-33.911561,150.881313
4342,48620,Picnic Point Public School,12 Prince & 9 Thomas Sts,Picnic Point,2213,-33.969119,151.010243
4344,48524,Ashcroft Public School,4-28 Sheriff St,Ashcroft,2168,-33.916395,150.89839
5632,56246,Lawrence Hargrave School,Station St,Warwick Farm ,2170,-33.908215,150.935355
5633,56189,Holroyd School,Willara Ave,Merrylands ,2160,-33.828906,150.981664
5652,56202,Caroline Chisholm School,Napoli St,Padstow ,2211,-33.936108,151.02521
5654,56313,Rivendell School,Thomas Walker Est  Hospital Rd,Concord West ,2138,-33.832948,151.09845
5712,48541,Les Powell School,108 Townview Road,Mount Pritchard,2170,-33.90434,150.91237
5713,56218,Lucas Gardens School,Cnr Queens Rd & Walker St,Canada Bay,2046,-33.868438,151.113666
4355,48155,Smithfield West Public School,Wetherill St,Wetherill Park,2164,-33.857608,150.91788
5735,56168,Campbell House School,Roy Watts Rd,Glenfield,2167,-33.968196,150.882009
5748,56152,Ajuga School,Quarter Sessions Road,Glenfield,2167,-33.969521,150.878033
5753,56642,Lomandra School,Beverley Rd,Campbelltown ,2560,-34.06173,150.824344
4391,48519,Lansvale East Public School,Riverside Rd,Cabramatta,2166,-33.897993,150.964109
7403,47800,Auburn Public School,Auburn Rd & Beatrice St,Auburn,2144,-33.854,151.032953
7405,48575,Bankstown Public School,61 Restwell St,Bankstown ,2200,-33.921122,151.034168
7424,48537,Liverpool Public School,Railway Street,Liverpool,2170,-33.923572,150.925924
4396,48526,Busby West Public School,50 Starling St,GREEN VALLEY,2168,-33.906099,150.87445
4403,50198,Bradbury Public School,Jacaranda Ave,Bradbury ,2560,-34.085998,150.81269
4420,56253,Nuwarra Public School,McKay Ave,Moorebank ,2170,-33.933241,150.951499
4458,50199,Briar Road Public School,Briar Rd,CAMPBELLTOWN,2560,-34.089103,150.827673
4460,50211,Curran Public School,Melaleuca Drive,Macquarie Fields ,2564,-33.993145,150.899426
4461,50212,Guise Public School,Eucalyptus Drive,Macquarie Fields ,2564,-33.987448,150.89692
4466,50225,Mawarra Public School, 68 MacArthur Rd,Elderslie,2570,-34.061245,150.7122
4467,56241,King Park Public School,Humphries Rd,St Johns Park ,2176,-33.879147,150.910701
4474,47815,Widemere Public School,Nemesia St,Greystanes ,2145,-33.834174,150.939897
8209,46383,Cabramatta High School,Aladore Ave,Cabramatta ,2166,-33.901422,150.928913
8213,47795,Birrong Boys High School,Rodd St,Birrong ,2143,-33.894047,151.025024
4479,50206,John Warby Public School,Deans Rd,Airds ,2560,-34.082225,150.834434
4481,50216,St Andrews Public School,89 Ballantrae Drive,St Andrews,2566,-34.022532,150.831362
4489,56269,Ruse Public School,Junction Rd,Ruse ,2560,-34.066949,150.841573
8227,48141,Merrylands High School,Bristol St,Merrylands ,2160,-33.840847,150.96957
8250,48614,Sir Joseph Banks High School,37-64 Turvey Street,Revesby ,2212,-33.939698,151.020907
4491,56272,Sackville Street Public School,22 Sackville St,INGLEBURN,2565,-34.011068,150.863607
4492,50210,Woodland Road Public School,20 Woodland Road,ST HELENS PARK,2560,-34.097072,150.815078
4499,56251,Newbridge Heights Public School,6 Lewin Cres,CHIPPING NORTON,2170,-33.926068,150.952069
4505,50196,Ambarvale Public School,Copperfield Drive,Ambarvale ,2560,-34.086423,150.798192
4509,46511,Sarah Redfern Public School,5 Monaghan Street,Minto,2566,-34.02765,150.85091
8262,50214,Ingleburn High School,Oxford Rd,Ingleburn ,2565,-34.005121,150.87152
4518,56286,The Grange Public School,8 Benham Road,MINTO,2566,-34.022051,150.857358
4529,48522,Glenwood Public School,Belmont Rd,Glenfield ,2167,-33.974542,150.903028
4535,56166,Blairmount Public School,Badgally Rd,Blairmount ,2559,-34.048007,150.802444
8286,57057,Mount Annan High School,248 Welling Drive,Mount Annan ,2567,-34.057371,150.760739
4537,50209,Rosemeadow Public School,Anthony & Copperfield Drives,Rosemeadow ,2560,-34.104647,150.794537
8377,46336,Picnic Point High School,61 Kennedy Street,PICNIC POINT,2213,-33.964344,151.011457
4539,56289,Thomas Acres Public School,Crispsparkle Drive,Ambarvale ,2560,-34.093621,150.789247
4545,48554,Bonnyrigg Public School,BONNYRIGG PUBLIC SCHOOL 58-62 TARLINGTON PARADE,BONNYRIGG,2177,-33.887728,150.888962
4553,55123,Wiley Park Public School,Denman Ave,Wiley Park ,2195,-33.924753,151.068761
4554,48552,Prairievale Public School,Prairievale & Mimosa Rds,Bossley Park ,2176,-33.866464,150.890898
8398,48579,Condell Park High School,Third Ave,Condell Park,2200,-33.923579,151.001755
4057,47797,Birrong Public School,132 Auburn Rd,Birrong ,2143,-33.895596,151.02007
8424,47808,Holroyd High School,7 Cumberland Rd,Greystanes ,2145,-33.832906,150.951137
8436,48144,Granville South Creative and Performing Arts High School,53 Rowley Road,Guildford,2161,-33.860626,150.997598
4563,56295,William Stimson Public School,Lily St,Wetherill Park ,2164,-33.854623,150.905782
4567,56232,Governor Philip King Public School,61 ALLAMBIE ROAD,EDENSOR PARK,2176,-33.873793,150.879107
4569,56170,Robert Townson Public School,Shuttleworth Ave,Raby ,2566,-34.016173,150.818892
4583,54944,Edensor Park Public School,Swan & Gwandalan Rds,Edensor Park ,2176,-33.882056,150.876121
4593,55087,Kearns Public School,St Lawrence Ave,Kearns ,2558,-34.021486,150.804446
4597,55113,Mount Annan Public School,Stenhouse Drive,Mount Annan ,2567,-34.061714,150.760497
4603,54662,St Helens Park Public School,Kellerman Drive,St Helens Park ,2560,-34.110232,150.804035
4613,54744,Hinchinbrook Public School,Hinchinbrook Dr & Keppel Ct,Hinchinbrook,2168,-33.912986,150.85892
8531,46387,St Johns Park High School,Mimosa Rd,St Johns Park ,2176,-33.873073,150.892002
4621,55820,Narellan Vale Public School,Waterworth Drive,Narellan Vale ,2567,-34.056129,150.744718
4624,56111,Greenway Park Public School,Wyattville Drive,Carnes Hill ,2171,-33.938001,150.837554
4627,56628,Newington Public School,Newington Boulevarde,Newington ,2127,-33.841151,151.055228
4634,58071,Dalmeny Public School,Dalmeny Drive,Prestons ,2170,-33.947297,150.871393
4635,57592,Cecil Hills Public School,Leopold Place,Cecil Hills ,2171,-33.888597,150.851731
4646,68165,Elderslie Public School,170 Lodges Road,Elderslie,2570,-34.054473,150.721773
4647,68166,Middleton Grange Public School,50 Hall Circuit,Middleton Grange,2171,-33.917335,150.848199
5563,56259,Passfield Park School,39 Durham Street,Minto,2566,-34.023862,150.850907
5568,46396,Wangee Park School,12 Second Avenue,Campsie,2194,-33.908248,151.095881
5581,57886,Karningul School,1A Auburn Rd,Regents Park ,2143,-33.88501,151.023804
5630,56216,Mainsbridge School,70 Williamson Crescent,Warwick Farm,2170,-33.90964,150.928233
5721,56213,Mary Brooksbank School,Anthony & Cleopatra Drives,Rosemeadow ,2560,-34.09782,150.792742
8589,54975,Thomas Reddall High School,Cnr Woodhouse Dr & Jaggers Pl,Ambarvale,2560,-34.082029,150.801488
8804,46391,Belmore Boys High School,Burwood Rd,Belmore ,2192,-33.910796,151.085575
8811,46472,Granville Boys High School,14 Mary St,Granville ,2142,-33.834618,151.008817
8854,47796,Birrong Girls High School,14 Cooper Rd,Birrong ,2143,-33.88948,151.025708
8888,46338,Wiley Park Girls High School,The Boulevarde,Punchbowl ,2196,-33.924357,151.066545
5759,63770,Canterbury Vale School,24 Wangee Rd,Lakemba ,2195,-33.915685,151.074514
8121,48523,Hurlstone Agricultural High School,Roy Watts Rd,Glenfield ,2167,-33.970383,150.893629
8151,46427,Homebush Boys High School,Bridge Rd,Homebush ,2140,-33.866059,151.077132
8169,46428,Strathfield Girls High School,Albert Rd,Strathfield ,2135,-33.873901,151.084571
8176,48536,Liverpool Girls High School,Forbes St,Liverpool ,2170,-33.917986,150.931475
8180,50201,Campbelltown Performing Arts High School,Beverley Rd,Campbelltown ,2560,-34.060108,150.822959
8184,46341,Punchbowl Boys High School,Kelly St,Punchbowl ,2196,-33.924027,151.052954
8186,48535,Liverpool Boys High School,18 Forbes Street,LIVERPOOL,2170,-33.917157,150.93154
8187,48616,East Hills Girls Technology High School,2a Lucas Rd,Panania ,2213,-33.956866,150.992016
1808,50788,Eastern Creek Public School,200 Rooty Hill Road South,EASTERN CREEK,2766,-33.787013,150.852624
8206,48615,East Hills Boys High School,1 Lucas Rd,Panania ,2213,-33.957229,150.994115
1841,50695,Emu Plains Public School,Emerald St,Emu Plains ,2750,-33.755617,150.657739
8215,50230,Picton High School,480 Argyle St,Picton ,2571,-34.194467,150.608418
1944,50742,Freemans Reach Public School,395 Kurmond Road,FREEMANS REACH,2756,-33.558697,150.799309
8217,50219,Camden High School,300 Cawdor Rd,Camden ,2570,-34.0793994,150.6777325
1994,50832,Glenbrook Public School,Woodville St,Glenbrook ,2773,-33.7656978,150.6177045
8223,48570,Bass High School,10 Arundle Rd,Bass Hill,2197,-33.897941,150.989379
8252,47781,Strathfield South High School,Hedges Ave,Enfield ,2136,-33.885382,151.071235
8253,46471,Auburn Girls High School,Hunter St & Braemar Ave,Auburn ,2144,-33.84288,151.033681
8254,46340,Bankstown Girls High School,Mona St,Bankstown,2200,-33.920754,151.032138
8255,56164,Beverly Hills Girls High School,Broadarrow & King Georges Rds,Beverly Hills ,2209,-33.948461,151.078627
2342,50768,Kurrajong Public School,1111 Grose Vale Rd,Kurrajong ,2758,-33.555196,150.662653
8260,46381,Bonnyrigg High School,Elizabeth Drive,Bonnyrigg ,2177,-33.894982,150.893167
8265,46470,Sefton High School,41-43 Hector Street,SEFTON,2162,-33.879538,151.008799
8269,46469,Chester Hill High School,123 Miller Road,Chester Hill,2162,-33.874032,150.995411
2391,50868,Leura Public School,Mount Hay Rd & Willow Park Ave,Leura,2780,-33.711151,150.336733
8273,54747,Cecil Hills High School,Spencer Rd,Cecil Hills ,2171,-33.895704,150.852043
8290,63659,John Edmondson High School,64 Horningsea Park Drive,HORNINGSEA PARK,2171,-33.946,150.843226
8384,48161,Westfields Sports High School,406A Hamilton Road,FAIRFIELD WEST,2165,-33.866933,150.920432
8393,46466,Canley Vale High School,Prospect Rd,Canley Vale ,2166,-33.884644,150.951658
2472,50783,Maraylya Public School,Neich Rd,Maraylya ,2765,-33.592681,150.916264
2480,50747,Maroota Public School,4540 Old Northern Road,MAROOTA,2756,-33.455283,150.99365
8394,46385,Miller High School,60 Cabramatta Avenue,MILLER,2168,-33.923589,150.881139
8397,46380,Ashcroft High School,108-130 Maxwells Ave,Ashcroft,2168,-33.920414,150.897272
2515,50875,Megalong Public School,Megalong Valley,Megalong ,2785,-33.715301,150.232582
8401,46509,Lurnea High School,2 Hillview Parade,LURNEA,2170,-33.941743,150.896043
4558,56196,Eschol Park Public School,Eschol Park Drive,Eschol Park ,2558,-34.02834,150.810838
2763,47851,Northmead Public School,52a Moxhams Road,NORTHMEAD,2152,-33.786511,150.990753
2794,50785,Oakville Public School,46 Ogden Rd,Oakville,2765,-33.620452,150.87054
8460,46382,James Busby High School,Brolga Cresc,Green Valley ,2168,-33.908964,150.874039
8476,46505,Casula High School,Myall Rd,Casula ,2170,-33.95123,150.8937
2840,47845,Parramatta Public School,177 Macquarie Street,PARRAMATTA,2150,-33.816821,151.008374
8485,46384,Hoxton Park High School,40 Wilson Rd,Hinchinbrook ,2168,-33.92,150.86162
8493,46504,Airds High School,Briar Rd,Campbelltown,2560,-34.086883,150.827109
8497,46507,James Meehan High School,Harold St,Macquarie Fields ,2564,-33.988351,150.892287
8501,46386,Moorebank High School,Bangalow Ave,Moorebank ,2170,-33.925772,150.958685
8521,50224,Elderslie High School,40-48 Hilder Street,NARELLAN,2567,-34.052603,150.715295
8532,46508,Leumeah High School,Junction Rd,Leumeah ,2560,-34.054339,150.84737
2951,50717,Regentville Public School,28-34 Schoolhouse Rd,Regentville ,2745,-33.77728,150.668311
2965,50736,Richmond North Public School,Grose Vale Rd,NORTH RICHMOND,2754,-33.580591,150.716871
8535,47783,Concord High School,Stanley St,Concord ,2137,-33.864062,151.109271
8550,46467,Fairfield High School,The Horsley Drive,Fairfield ,2165,-33.865214,150.958647
3020,47746,Rydalmere Public School,397 Victoria Road,RYDALMERE,2116,-33.814317,151.044705
8551,56314,Sarah Redfern High School,1 Monaghan Street,Minto,2566,-34.026782,150.85088
8553,46510,Macquarie Fields High School,2 Harold St,Macquarie Fields ,2564,-33.996784,150.884901
8560,54946,Prairiewood High School,203-215 Restwell Road,PRAIRIEWOOD,2176,-33.85948,150.901709
8564,56185,Holsworthy High School,Huon Cres,Holsworthy,2173,-33.955528,150.95232
8569,46506,Eagle Vale High School,Drysdale Rd,Eagle Vale,2558,-34.039942,150.803543
8570,54941,Ambarvale High School,Thomas Rose Drive,Rosemeadow ,2560,-34.099984,150.801938
8575,56171,Robert Townson High School,Thunderbolt Drive,Raby ,2566,-34.01533,150.817995
8582,54943,Bossley Park High School,Prairievale Rd,Bossley Park ,2176,-33.870958,150.875379
3423,47813,Wentworthville Public School,70-100 Fullagar Road,WENTWORTHVILLE,2145,-33.814004,150.968613
8584,55114,Elizabeth Macarthur High School,Waterworth Drive,Narellan ,2567,-34.057072,150.740091
1228,50761,Bilpin Public School,Bells Line of Road,Bilpin ,2758,-33.497331,150.516765
1246,50873,Blackheath Public School,Leichhardt St,Blackheath ,2785,-33.639284,150.285831
3744,45440,Warragamba Public School,2-4 Fourth Street,WARRAGAMBA,2752,-33.890924,150.60539
3840,47843,Parramatta East Public School,Brabyn St,Parramatta ,2150,-33.806081,151.017766
3854,50859,Hazelbrook Public School,Great Western Hwy,Hazelbrook ,2779,-33.726554,150.459399
1258,45309,Blaxland Public School,Baden Place,Blaxland,2774,-33.737103,150.603489
1346,50739,Colo Heights Public School,3018 Putty Road,Colo Heights,2756,-33.372972,150.739776
1433,56153,Burnside Public School,1 Masons Drive,North Parramatta ,2151,-33.79258,151.018316
3993,47810,Pendle Hill Public School,27-29 Pendle Way,Wentworthville,2145,-33.810297,150.953964
1535,50738,Cattai Public School,487 Cattai Rd,Cattai ,2756,-33.558762,150.906904
1596,50796,Colyton Public School,Nelson St,Mount Druitt ,2770,-33.777199,150.81316
1604,50762,Comleroy Road Public School,McMahons Rd,Kurrajong,2758,-33.506475,150.69763
1760,50791,Doonside Public School,367 KILDARE RD,DOONSIDE,2767,-33.764557,150.870497
4056,50789,Rooty Hill Public School,Westminster St,Rooty Hill ,2766,-33.769292,150.840435
1813,50740,Ebenezer Public School,SCHOOL RESIDENCE 531 SACKVILLE ROAD,EBENEZER,2756,-33.530917,150.876774
4061,47829,Blacktown North Public School,1 Bessemer St,Blacktown ,2148,-33.75879,150.913134
4066,50757,Windsor South Public School,77A Church Street,SOUTH WINDSOR,2756,-33.618221,150.804036
4071,47748,Oatlands Public School,Belmore St East,Oatlands ,2117,-33.800088,151.023521
1890,47866,Excelsior Public School,Rondelay Drive,Castle Hill ,2154,-33.740444,150.990408
1988,47805,Girraween Public School,Bando Rd,Girraween ,2145,-33.799711,150.950356
4123,47745,Rydalmere East Public School,Spurway St,Ermington ,2115,-33.817144,151.05818
4125,47744,Ermington West Public School,Vignes St,Ermington ,2115,-33.805894,151.058368
2021,50744,Glossodia Public School,Golden Valley Drive,Glossodia ,2756,-33.530504,150.765471
2086,47807,Greystanes Public School,Merrylands Rd,Greystanes ,2145,-33.828043,150.941111
2274,47858,Kellyville Public School,35A Windsor Road,KELLYVILLE,2155,-33.711052,150.957887
4162,47824,Seven Hills West Public School,Lucas Rd & Sackville St,Seven Hills ,2147,-33.765987,150.921605
2312,45849,Kingswood Public School,Second Ave,Kingswood ,2747,-33.765884,150.726509
2340,50759,Kurmond Public School,494 Bells Line of Road,Kurmond ,2757,-33.549715,150.692309
2343,50764,Kurrajong East Public School,891 East Kurrajong Road,EAST KURRAJONG,2758,-33.511172,150.77726
4193,47830,Blacktown South Public School,183 Flushcombe Rd,Blacktown ,2148,-33.780193,150.905175
2344,50766,Kurrajong North Public School,Stone Terrace,KURRAJONG HILLS,2758,-33.541815,150.639446
2381,50871,Lawson Public School,Adelaide Street,Lawson,2783,-33.721217,150.428243
4212,55298,Quakers Hill East Public School,14 Chase Drive,Acacia Gardens ,2763,-33.732484,150.914359
4222,47803,Darcy Road Public School,98A Darcy Road,WENTWORTHVILLE,2145,-33.801954,150.96599
2413,50771,Llandilo Public School,Seventh Avenue,Llandilo,2747,-33.707237,150.751783
4258,47833,Lynwood Park Public School,87 Turner Street,BLACKTOWN,2148,-33.754408,150.926373
2421,50728,Londonderry Public School,Londonderry Rd,Londonderry ,2753,-33.647454,150.736905
2431,45331,Luddenham Public School,24 Jamison Street,LUDDENHAM,2745,-33.881331,150.691523
4285,50770,Bennett Road Public School,100-114 Bennett Rd,Colyton ,2760,-33.783499,150.792462
2439,48696,Macdonald Valley Public School,1331 St Albans Road,CENTRAL MACDONALD,2775,-33.321271,150.971993
4310,55108,Walters Road Public School,158 Walters Rd,Blacktown ,2148,-33.784758,150.892148
4313,50836,Blaxland East Public School,77 Old Bathurst Road,Blaxland,2774,-33.746937,150.623632
4327,47836,Marayong South Public School,McClean St,Blacktown ,2148,-33.760128,150.885236
4339,50702,Kingswood South Public School,Smith St,Kingswood ,2747,-33.769287,150.711849
4346,50700,Kingswood Park Public School,24 Caloola Avenue,Penrith,2750,-33.741191,150.711457
4354,50842,Faulconbridge Public School,2-24 GROSE ROAD,FAULCONBRIDGE,2776,-33.691022,150.544693
4364,47816,Toongabbie West Public School,Ballandella Rd,Toongabbie ,2146,-33.792593,150.957238
4366,47812,Toongabbie East Public School,Harris Rd,Constitution Hill,2145,-33.797274,150.980274
4378,50827,Whalan Public School,Karangi Rd,Whalan ,2770,-33.752917,150.809664
2489,50784,Marsden Park Public School,363 Garfield Road West,MARSDEN PARK,2765,-33.696425,150.833642
2510,47825,The Meadows Public School,Fuller St,Seven Hills ,2147,-33.781365,150.942567
4393,47753,Carlingford West Public School,Felton Rd,Carlingford ,2118,-33.78237,151.03717
4402,50822,Tregear Public School,Wilkes Cres,Tregear,2770,-33.745883,150.794321
2652,50881,Mount Victoria Public School,Great Western Hwy,Mount Victoria ,2786,-33.591334,150.253883
2659,50705,Mulgoa Public School,1189-1193 Mulgoa Road,Mulgoa,2745,-33.836505,150.650344
8456,46468,Fairvale High School,Thorney Rd & Maude St,Fairfield West ,2165,-33.873614,150.929459
2838,54743,Parklea Public School,Glenwood Park Drive,GLENWOOD,2768,-33.725885,150.93476
2842,47849,Parramatta North Public School,Albert St,NORTH PARRAMATTA,2151,-33.803951,151.004694
2843,47846,Parramatta West Public School,Auburn & Young Sts,Parramatta ,2150,-33.824472,150.990968
2859,50714,Penrith Public School,51 High St,Penrith ,2750,-33.755926,150.70439
4441,47856,Crestwood Public School,38 Peel Rd,Baulkham Hills ,2153,-33.749141,150.972197
2884,50749,Pitt Town Public School,Buckingham St,Pitt Town ,2756,-33.583887,150.859638
2887,46357,Plumpton Public School,Bottles Rd,Plumpton ,2761,-33.749158,150.838556
2918,50782,Quakers Hill Public School,Medlow Drive,Quakers Hill ,2763,-33.737467,150.885265
2970,50786,Riverstone Public School,Elizabeth St,Riverstone,2765,-33.678387,150.871019
3008,47860,Rouse Hill Public School,Clower Ave,Rouse Hill ,2155,-33.679219,150.920985
3031,50774,St Marys Public School,Princess Mary St,St Marys ,2760,-33.768364,150.770634
4453,50794,Blackett Public School,47-59 Boldrewood Rd,Blackett ,2770,-33.739605,150.815858
3046,50780,Schofields Public School,60 St Albans Road,SCHOFIELDS,2762,-33.693115,150.875247
3053,47822,Seven Hills North Public School,45 Beethoven St,Seven Hills ,2147,-33.759976,150.955041
4473,50777,Werrington Public School,Heavey St,Werrington ,2747,-33.755125,150.745293
3095,50844,Springwood Public School,Burns Rd,Springwood ,2777,-33.704613,150.573472
3240,56290,Toongabbie Public School,Fitzwilliam Rd,Toongabbie ,2146,-33.787181,150.966667
4480,50792,Bidwill Public School,45 Bunya Rd,Bidwill,2770,-33.733547,150.825934
3329,50787,Vineyard Public School,4 Bandon Rd,Vineyard ,2765,-33.647352,150.857935
3346,50721,Wallacia Public School,1573-1585 Mulgoa Rd,Wallacia,2745,-33.862695,150.641613
4484,56184,Cambridge Gardens Public School,Trinity Drive,Cambridge Park ,2747,-33.737224,150.722008
4493,50818,Noumea Public School,Noumea St,Shalvey ,2770,-33.732606,150.809892
4504,50790,Crawford Public School,Power St,Doonside ,2767,-33.75479,150.868825
3422,50869,Wentworth Falls Public School,Falls Rd,Wentworth Falls ,2782,-33.714112,150.373525
4526,45505,Matthew Pearce Public School,Astoria Park Rd,Baulkham Hills ,2153,-33.758183,150.963554
3441,50751,Wilberforce Public School,Macquarie Rd,Wilberforce ,2756,-33.558704,150.839763
4528,47819,Kings Langley Public School,68 Isaac Smith Pde,Kings Langley ,2147,-33.745131,150.924433
4531,55121,St Clair Public School,4 Timesweep Drive,ST CLAIR,2759,-33.796324,150.786899
4541,50776,Werrington County Public School,John Batman Ave,Werrington ,2747,-33.74513,150.747554
4544,50696,Jamisontown Public School,Thurwood Ave,SOUTH PENRITH,2750,-33.77306,150.683083
3459,50755,Windsor Public School,Dight St,Windsor ,2756,-33.610366,150.816413
4559,56176,Blackwell Public School,Blackwell Ave,St Clair ,2759,-33.806328,150.783052
3470,48698,Wisemans Ferry Public School,Old Northern Rd,Wisemans Ferry ,2775,-33.385958,150.984133
4568,56210,Ellison Public School,Ellison Rd,Springwood ,2777,-33.69035,150.585327
3883,47814,Westmead Public School,Hawkesbury Rd,Westmead,2145,-33.810171,150.985291
4576,54985,William Dean Public School,Yarramundi Drive,Dean Park ,2761,-33.734259,150.858693
3931,47823,Seven Hills Public School,2A Lucas Road,SEVEN HILLS,2147,-33.770031,150.937488
3987,45313,Katoomba North Public School,Barton St,Katoomba ,2780,-33.699128,150.315134
4585,54949,Bligh Park Public School,64 Alexander Street,Bligh Park,2756,-33.639133,150.794565
3997,56237,Hilltop Road Public School,Hilltop Rd,Merrylands ,2160,-33.826331,150.973319
4591,55389,Glenmore Park Public School,33-41 The Lakes Drive,Glenmore Park ,2745,-33.783388,150.681117
3999,50732,Richmond Public School,115 WINDSOR STREET,RICHMOND,2753,-33.598937,150.757514
4599,54672,Barnier Public School,120 Barnier Drive,QUAKERS HILL,2763,-33.72051,150.901824
4029,47747,Dundas Public School,85 Kissing Point Road,Dundas,2117,-33.804424,151.036399
4055,50772,Oxley Park Public School,Adelaide St,St Marys ,2760,-33.771451,150.788894
4615,57593,Caddies Creek Public School,21 GLENWOOD PARK DR,GLENWOOD,2768,-33.736255,150.926227
4060,50687,Cambridge Park Public School,35 Oxford St,Cambridge Park ,2747,-33.747017,150.725939
4622,55984,Claremont Meadows Public School,124-164 Sunflower Drive,Claremont Meadows,2747,-33.774178,150.747014
4103,47749,Telopea Public School,Chestnut Avenue,Telopea,2117,-33.797032,151.04364
4116,47832,Blacktown West Public School,Lancaster St,Blacktown ,2148,-33.770441,150.893057
4138,50715,Penrith South Public School,172-190 Jamison Rd,Penrith,2750,-33.763901,150.700637
4639,58174,Kellyville Ridge Public School,Cnr Singleton Ave GREENWICH St,Kellyville Ridge,2155,-33.705413,150.924005
4148,50690,Castlereagh Public School,87-101 Post Office Rd,Castlereagh,2749,-33.667028,150.675968
4645,67583,Ropes Crossing Public School,52 PULLEY DRIVE,ROPES CROSSING,2760,-33.7334423,150.7830912
4157,47750,Yates Avenue Public School,Yates Ave,Dundas Valley,2117,-33.795608,151.058398
5411,45850,Rowland Hassall School,18B Parkham Street,CHESTER HILL,2162,-33.867715,150.989018
5459,62759,Tallowood School,44-68 Redden Dr,Kellyville ,2155,-33.707054,150.95217
5559,56312,Redbank School,6 Dragonfly Drive WESTMEAD NSW 2145,,2145,-33.800809,150.987659
4166,47835,Marayong Public School,Davis Rd,Blacktown ,2148,-33.756609,150.895304
4191,47820,Lalor Park Public School,Heffron Rd,Lalor Park ,2147,-33.760504,150.93125
5621,55390,Kurrambee School,11 Werrington Rd Werrington  NSW 2747,,2747,-33.766355,150.757118
4192,47821,Bert Oldfield Public School,Oldfield Rd,Seven Hills,2147,-33.777505,150.924537
4195,50841,Warrimoo Public School,Florabella St,Warrimoo ,2774,-33.728056,150.600217
4205,50773,St Marys North Public School,24-40 Willow Road,North St Marys,2760,-33.756231,150.782596
4248,47826,Vardys Road Public School,20 Vardys Rd,SEVEN HILLS,2147,-33.757148,150.942765
4279,50775,St Marys South Public School,96 Monfarville St,St Marys ,2760,-33.780052,150.776385
4282,47834,Marayong Heights Public School,Guerie St,Marayong,2148,-33.742667,150.896425
4290,50815,Mount Druitt Public School,51 Belmore Avenue,MOUNT DRUITT,2770,-33.763984,150.812509
4381,47839,Shelley Public School,21 Hadrian Ave,Blacktown ,2148,-33.789161,150.917863
4382,47857,Jasper Road Public School,Jasper Rd,Baulkham Hills ,2153,-33.761316,150.982269
8150,50862,Katoomba High School,Martin St,Katoomba ,2780,-33.727402,150.314399
4405,47802,Beresford Road Public School,Beresford Rd,Greystanes ,2145,-33.814864,150.942945
4408,50805,Lethbridge Park Public School,Copeland Rd,Lethbridge Park,2770,-33.737964,150.800109
8224,47828,Blacktown Girls High School,Fifth Ave,Blacktown ,2148,-33.761976,150.910792
4417,47862,Winston Hills Public School,Hillcrest Rd,Winston Hills ,2153,-33.773464,150.981106
8231,6399,Seven Hills High School,Johnson Ave,Seven Hills,2147,-33.762705,150.94487
2815,50711,Orchard Hills Public School,79-101 Kingswood Rd,Orchard Hills ,2748,-33.783029,150.721365
8244,47827,Blacktown Boys High School,Sunnyholt Rd & Fifth Ave,Blacktown ,2148,-33.762057,150.912543
8268,63673,Glenwood High School,Forman Ave & Glenwood Park Dr,Glenwood ,2768,-33.733029,150.937429
4424,50834,Lapstone Public School,Explorers Rd,Glenbrook ,2773,-33.772117,150.631327
8291,66004,Rouse Hill High School,240 Withers Rd,ROUSE HILL,2155,-33.6864,150.9317
8383,50709,Nepean Creative and Performing Arts High School,Great Western Hwy,Emu Plains ,2750,-33.747745,150.668882
8385,47806,Greystanes High School,Beresford Rd,Greystanes ,2145,-33.812495,150.940352
4435,50839,Mount Riverview Public School,Rusden Rd,MOUNT RIVERVIEW,2774,-33.72951,150.632585
4436,50845,Winmalee Public School,1-15 Leslie Street,WINMALEE,2777,-33.670272,150.610783
8399,46397,Doonside High School,Power St,Doonside ,2767,-33.754708,150.874186
8403,47837,Mitchell High School,52 KEYWORTH DRIVE,BLACKTOWN,2148,-33.784795,150.915971
4442,50693,Emu Heights Public School,65A Wedmore Rd,EMU HEIGHTS,2750,-33.736652,150.648818
8420,46355,Evans High School,166 Walters Road,BLACKTOWN,2148,-33.786512,150.889725
4444,47817,Metella Road Public School,117-131 Metella Road,TOONGABBIE,2146,-33.793967,150.934756
4446,50799,Dawson Public School,Stuart Rd,Dharruk ,2770,-33.745369,150.816017
8458,50698,Kingswood High School,Bringelly Rd,Kingswood ,2747,-33.770416,150.715263
4447,50802,Hebersham Public School,Andover Cres,Hebersham ,2770,-33.748103,150.825924
8464,47852,Baulkham Hills High School,Windsor Rd,Baulkham Hills ,2153,-33.750227,150.991499
8477,57208,Kellyville High School,York Rd,Kellyville ,2155,-33.707777,150.969921
4449,50812,Madang Avenue Public School,Mimika Avenue,Whalan,2770,-33.759958,150.804846
8496,10820,Chifley College Shalvey Campus,Noumea St,Shalvey ,2770,-33.730804,150.80574
4452,50726,Hobartville Public School,Valder Ave,Hobartville ,2753,-33.603649,150.742281
8500,47804,Girraween High School,110 Gilba Rd,GIRRAWEEN,2145,-33.79989,150.944577
4470,50829,Willmot Public School,Discovery Ave,Willmot,2770,-33.725747,150.794401
4471,47861,Winston Heights Public School,Buckley Rd,Winston Hills ,2153,-33.77485,150.967894
4475,50704,Leonay Public School,Buring Ave,Emu Plains ,2750,-33.76432,150.650498
4476,50821,Shalvey Public School,Laver St,Shalvey,2770,-33.726605,150.809439
4482,50722,York Public School,Evan St,SOUTH PENRITH,2750,-33.777111,150.698124
8552,47855,Crestwood High School,17 Chapel Lane,Baulkham Hills ,2153,-33.743607,150.975672
8559,56211,Jamison High School,222 Evans St,SOUTH PENRITH,2750,-33.775335,150.698118
8565,54984,Hawkesbury High School,1 Hibberts Lane,Freemans Reach ,2756,-33.559541,150.798039
8571,50719,St Clair High School,6 Endeavour Avenue,ST CLAIR,2759,-33.794217,150.786794
4483,50724,Grose View Public School,Grose Wold Rd,Grose Vale ,2753,-33.594468,150.66485
4525,50683,Braddock Public School,Laycock St,Cranebrook ,2749,-33.722492,150.708382
4527,50769,Clairgate Public School,Colorado Drive,St Clair ,2759,-33.796329,150.799228
4546,50866,Katoomba Public School,Merriwa St,Katoomba ,2780,-33.718645,150.313708
8822,47842,Macarthur Girls High School,1-19 Macarthur Street,Parramatta,2150,-33.813086,151.012499
8892,46461,Arthur Phillip High School,102-116 Macquarie Street,Parramatta,2150,-33.815715,151.007474
4560,56273,Samuel Terry Public School,93-107 Grays Lane,CRANEBROOK,2749,-33.713307,150.708745
4571,56160,Banks Public School,182 Banks Drive,ST CLAIR,2759,-33.793717,150.773098
4577,54955,Minchinbury Public School,McFarlane Drive,Minchinbury ,2770,-33.78862,150.832427
4579,54948,James Erskine Public School,Peppertree Drive,Erskine Park ,2759,-33.805167,150.803884
4590,54664,Hambledon Public School,Bali Drive,Quakers Hill,2763,-33.71645,150.887211
4598,54688,Hassall Grove Public School,Buckwell Drive,Hassall Grove ,2761,-33.73548,150.838504
1040,49126,Anna Bay Public School,191 Gan Gan Rd,Anna Bay ,2316,-32.77637,152.089912
4608,54689,Glendenning Public School,135 Armitage Drive,Glendenning,2761,-33.74223,150.852638
4614,55822,Windsor Park Public School,156 Rifle Range Road,SOUTH WINDSOR,2756,-33.640641,150.813492
4619,55391,Henry Fulton Public School,Vincent Road,Cranebrook,2749,-33.70473,150.709665
4630,56691,Beaumont Hills Public School,The Parkway,Beaumont Hills ,2155,-33.697809,150.945659
4631,57058,Surveyors Creek Public School,St Andrews Drive,Glenmore Park,2745,-33.787277,150.689173
4638,62886,Ironbark Ridge Public School,1 Ironbark Ridge Road,Rouse Hill,2155,-33.687371,150.933259
1201,49183,Beresfield Public School,Cnr Anderson Dr & Lawson Ave,Beresfield,2322,-32.803964,151.654863
4640,62754,Sherwood Ridge Public School,34 Rosebery Rd,Kellyville ,2155,-33.706672,150.975587
1247,49186,Black Hill Public School,408 Black Hill Rd,Black Hill ,2322,-32.838523,151.617131
1256,49340,Blandford Public School,New England Hwy,Blandford ,2338,-31.778585,150.892725
4648,67584,John Palmer Public School,85 The Ponds Boulevard The Ponds  NSW 2769,,2769,-33.707397,150.911525
5574,57880,Casuarina School,Garfield Rd E & Piccadilly St,Riverstone,2765,-33.677516,150.866346
5614,58047,William Rose School,Cnr Morris St & Lucas Rd,Seven Hills ,2147,-33.769095,150.937493
5637,56173,Coreen School,Hereward Hwy,Blacktown ,2148,-33.77315,150.911039
5642,46413,Halinda School,Mimika Ave,Whalan,2770,-33.75902,150.807065
5643,46348,Niland School,Niland Cres,Blackett ,2770,-33.736791,150.813357
5688,56287,The Hills School,Mary St,Northmead ,2152,-33.779745,151.003951
5754,50779,Plumpton House School,327 Rooty Hill Road North,Plumpton ,2761,-33.75029,150.840732
1527,49312,Cassilis Public School,Coolah Rd,Cassilis,2329,-32.004552,149.978075
1542,49278,Cessnock Public School,Rawson St,Cessnock ,2325,-32.840405,151.363808
5761,67706,Penrith Valley Learning Centre,3 Werrington Road Werrington NSW 2747,,2747,-33.766554,150.758761
7302,47752,Carlingford Public School,Rickard St,Carlingford ,2118,-33.780094,151.055153
7444,47794,Rosehill Public School,31 Virginia st,ROSEHILL,2142,-33.824229,151.018376
1564,49164,Clarence Town Public School,Queen St,Clarence Town ,2321,-32.588731,151.777207
8135,47844,Parramatta High School,Great Western Hwy & Pitt St,Parramatta ,2150,-33.817883,150.996083
1749,49309,Denman Public School,Paxton St,Denman ,2328,-32.385734,150.686009
1762,48734,Dora Creek Public School,Cooranbong Rd,Dora Creek ,2264,-33.07902,151.499217
8163,50712,Penrith High School,158-240 High St,Penrith,2750,-33.756721,150.706537
8178,50730,Richmond High School,Lennox St,Richmond ,2753,-33.600535,150.746715
8229,47850,Northmead Creative and Performing Arts High School,Campbell St,Northmead ,2152,-33.788092,150.999661
8235,47755,James Ruse Agricultural High School,Felton Rd,Carlingford ,2118,-33.780624,151.043204
4422,50801,Emerton Public School,Hindemith Ave,Emerton ,2770,-33.744738,150.805478
8395,47809,Pendle Hill High School,Knox St,Wentworthville ,2145,-33.793877,150.962194
1849,48729,The Entrance Public School,Oakland Ave,The Entrance ,2261,-33.346741,151.493009
8396,50753,Windsor High School,Mulgrave & Windsor Rds,McGraths Hill ,2756,-33.618653,150.833554
8412,47818,The Hills Sports High School,Best Rd,Seven Hills ,2147,-33.782184,150.938834
8443,46353,Colyton High School,37-53 Carpenter St,St Marys,2760,-33.777602,150.797336
8446,50843,Springwood High School,111 Grose Road,Faulconbridge,2776,-33.685057,150.550608
8459,6356,Chifley College Mount Druitt Campus,Stuart St,Mount Druitt ,2770,-33.744657,150.812884
8488,6354,Chifley College Dunheved Campus,Maple Rd,North St Marys,2760,-33.749646,150.783093
8499,47859,Model Farms High School,81 Gooden Drive,Baulkham Hills,2153,-33.76943,150.971394
8514,57849,Plumpton High School,Hyatts Rd,Plumpton ,2761,-33.748126,150.835498
8516,50685,Cambridge Park High School,Harrow Rd,Cambridge Park ,2747,-33.752164,150.732892
2084,49330,Greta Public School,2A Wyndham Street,GRETA,2334,-32.680083,151.38721
8522,50838,Blaxland High School,Coughlan Rd,Blaxland ,2774,-33.754247,150.60859
8526,50734,Colo High School,218 Bells Line of Road,NORTH RICHMOND,2754,-33.569359,150.708204
2177,49162,Telarah Public School,Raymond St,Maitland,2320,-32.7252,151.532379
8528,17407,Chifley College Bidwill Campus,Bunya Rd,Bidwill ,2770,-33.733854,150.827271
8573,54956,Winmalee High School,High School Drive,Winmalee ,2777,-33.676047,150.615138
8580,55109,Cranebrook High School,Hosking Street,Cranebrook,2749,-33.721662,150.709812
8590,54957,Erskine Park High School,78/82 Swallow Dr,Erskine Park ,2759,-33.807899,150.802962
8594,14696,Quakers Hill High School,70 Lalor Road,QUAKERS HILL,2763,-33.729813,150.89645
8905,47754,Cumberland High School,183 Pennant Hills Road,CARLINGFORD,2118,-33.785205,151.036898
2246,49101,The Junction Public School,Union St,Merewether ,2291,-32.939964,151.758644
8907,6398,Riverstone High School,71 McCulloch Street,RIVERSTONE,2765,-33.678883,150.875744
8908,46358,Rooty Hill High School,54 North Parade,ROOTY HILL,2766,-33.770841,150.838148
1002,49333,Aberdeen Public School,Segenhoe St,Aberdeen,2336,-32.166098,150.888095
1003,49299,Abermain Public School,Goulburn St,Abermain ,2326,-32.80892,151.426499
2314,49332,Kirkton Public School,797 Standen Drive,BELFORD,2335,-32.609773,151.290092
1008,49043,Adamstown Public School,Bryant St,Adamstown ,2289,-32.932213,151.730971
2334,48692,Kulnura Public School,9 Williams Rd,Kulnura ,2250,-33.232582,151.216011
1082,56159,Avoca Beach Public School,The Round Drive,Avoca Beach,2251,-33.471154,151.430745
1084,48964,Awaba Public School,Mulbring Street,Awaba,2283,-33.010554,151.538068
1138,49127,Barnsley Public School,Cliffbrook St,Barnsley ,2278,-32.933094,151.594552
2374,49179,Largs Public School,1-5 Hunter St,Largs ,2320,-32.700491,151.60564
1177,49208,Bellbird Public School,Doyle Street,BELLBIRD,2325,-32.859421,151.316705
2417,49180,Lochinvar Public School,New England Hwy,Lochinvar ,2321,-32.700305,151.451988
2451,49192,Maitland East Public School,William St,EAST MAITLAND,2323,-32.748991,151.585256
1182,49335,Belltrees Public School,Moonan Flat Rd,Belltrees ,2337,-31.988753,151.129487
2492,49311,Martindale Public School,670 Martindale Rd,Martindale,2328,-32.458834,150.665723
1183,57401,Belmont Public School,Livingstone St,Belmont ,2280,-33.030134,151.662203
1203,48706,Berkeley Vale Public School,Pindarri Avenue,Berkeley Vale,2261,-33.350515,151.435888
1271,49128,Bobs Farm Public School,764 Marsh Rd,Bobs Farm,2316,-32.766796,152.010937
2512,45543,Medowie Public School,Ferodale Rd,Medowie,2318,-32.738245,151.85406
1286,49156,Bolwarra Public School,Bolwarra Rd,Bolwarra ,2320,-32.706994,151.573008
1302,48988,Boolaroo Public School,Main Rd & Second St,Boolaroo ,2284,-32.951196,151.622765
2532,48733,Bonnells Bay Public School,Morisset Park Rd,Bonnells Bay ,2264,-33.114489,151.516783
1341,49331,Branxton Public School,12 King Street,BRANXTON,2335,-32.659391,151.350682
1367,49314,Broke Public School,Cochrane St,Broke ,2330,-32.744976,151.104334
1498,48671,Brisbania Public School,1 High Street,Saratoga,2251,-33.478822,151.357294
2571,49022,Minmi Public School,Woodford St,Minmi ,2287,-32.876125,151.617471
1505,49003,Cardiff Public School,Macquarie Rd,Cardiff ,2285,-32.945779,151.657754
2623,49182,Morpeth Public School,High St,Morpeth ,2321,-32.725663,151.632128
1518,49108,Carrington Public School,Young St,Carrington ,2294,-32.912446,151.765328
2647,49318,Mount Pleasant Public School,Goorangoola Rd,SINGLETON,2330,-32.408483,151.188781
1543,49053,Cessnock East Public School,Old Maitland Rd,Cessnock ,2325,-32.827606,151.369746
1545,49281,Cessnock West Public School,Wollombi & Campbell Sts,Cessnock ,2325,-32.838387,151.344863
1550,49050,Charlestown Public School,Frederick St,Charlestown ,2290,-32.965494,151.697486
2703,48684,Narara Public School,Newling St,Lisarow ,2250,-33.387915,151.362616
1635,48737,Cooranbong Public School,Government Rd,Cooranbong ,2265,-33.0805,151.441793
2736,49123,Newcastle East Public School,Tyrrell St,Newcastle ,2300,-32.930285,151.776915
2738,49148,New Lambton Public School,Regent St,New Lambton ,2305,-32.922604,151.712784
8276,55821,Glenmore Park High School,Glenmore Parkway,Glenmore Park,2745,-33.791012,150.672564
1856,48674,Erina Heights Public School,Serpentine Rd,Erina Heights ,2260,-33.428028,151.413585
2820,48705,Ourimbah Public School,121 Pacific Hwy,Ourimbah ,2258,-33.354916,151.368168
2844,49521,Paterson Public School,Webbers Creek Rd,Paterson ,2421,-32.602294,151.612319
2846,49296,Paxton Public School,20 Anderson Ave,Paxton ,2325,-32.900993,151.284621
1857,48676,Woodport Public School,The Entrance Rd,Erina ,2250,-33.439347,151.37849
2855,49305,Pelaw Main Public School,Abermain St,Pelaw Main ,2327,-32.831923,151.484743
1864,48703,Ettalong Public School,Karingi St,Ettalong Beach ,2257,-33.513539,151.332702
1904,48969,Fassifern Public School,9 Miller Road,FASSIFERN,2283,-32.983398,151.582769
1974,49329,Sandy Hollow Public School,1581 Golden Highway,Sandy Hollow,2333,-32.336471,150.569007
3035,49125,Salt Ash Public School,4 Salt Ash Avenue,SALT ASH,2318,-32.787841,151.903848
3048,49205,Seaham Public School,Still St,Seaham ,2324,-32.662095,151.729362
3065,49152,Shortland Public School,Sandgate Rd,Shortland ,2307,-32.881435,151.695063
3070,49323,Singleton Public School,8 HUNTER STREET,SINGLETON,2330,-32.563135,151.171752
1982,49170,Gillieston Public School,Corner Northview Street  Road,Gillieston Heights ,2321,-32.75232,151.530713
2020,49172,Glen William Public School,Glen William & Dungog Rds,Clarence Town ,2321,-32.525391,151.79794
2049,48679,Gosford Public School,Faunce St West,West Gosford,2250,-33.42075,151.33449
3147,48713,Tacoma Public School,Hillcrest Ave,Tacoma ,2259,-33.28298,151.458936
2083,49931,Gresford Public School,Durham Rd,Gresford ,2311,-32.427628,151.538335
2167,49174,Hinton Public School,Paterson St,Hinton ,2321,-32.716733,151.650674
2171,44416,Holgate Public School,RMB 5255 Wattle Tree Rd,Holgate ,2250,-33.405106,151.407722
2193,48976,Rathmines Public School,20 Secret Corner Rd Rathmines NSW 2283,,2283,-33.042628,151.5899
2211,49177,Iona Public School,860 Paterson Rd,Woodville,2321,-32.665063,151.604218
2212,49112,Islington Public School,Hubbard St,Islington ,2296,-32.911412,151.744091
2231,49315,Jerrys Plains Public School,Doyle St,Jerrys Plains ,2330,-32.49723,150.905944
2234,49117,Jesmond Public School,Ralph St,Jesmond ,2299,-32.903841,151.695427
3321,49522,Vacy Public School,786 Gresford Rd,Vacy ,2421,-32.54218,151.577555
2236,48709,Jilliby Public School,Jilliby Rd,Wyong ,2259,-33.239937,151.380052
2259,48710,Kanwal Public School,Craigie Ave,Kanwal ,2259,-33.262456,151.484884
2263,49197,Karuah Public School,18 Bundabah St,Karuah ,2324,-32.654344,151.966595
2267,49287,Kearsley Public School,130 Caledonia Street,KEARSLEY,2325,-32.857249,151.395921
3384,48962,Warners Bay Public School,88 Mills Street,WARNERS BAY,2282,-32.979971,151.648614
2304,48681,Kincumber Public School,Avoca Drive,Kincumber ,2251,-33.468184,151.394355
2315,49288,Kitchener Public School,38 Richmond Street,KITCHENER,2325,-32.87782,151.369977
2356,49290,Laguna Public School,3738 The Great North Road,Laguna,2325,-32.992121,151.130526
2362,48711,Lake Munmorah Public School,Carters Rd,Lake Munmorah,2259,-33.1882,151.575559
2366,49121,Lambton Public School,18-30 Croudace St,LAMBTON,2299,-32.911705,151.704134
2407,48682,Lisarow Public School,17 MacDonalds Road,LISAROW,2250,-33.381283,151.376296
3762,46491,Wiripaang Public School,Pacific Hwy,Gateshead ,2290,-32.984172,151.691355
3795,49094,Hamilton South Public School,Kenrick St,Merewether ,2291,-32.93344,151.753489
2476,48959,Pelican Flat Public School,Karog St,PELICAN,2281,-33.074333,151.648248
3851,49032,Wallsend South Public School,Smith Rd,Wallsend ,2287,-32.920075,151.675241
3874,49091,Kahibah Public School,Frith St,Kahibah ,2290,-32.964902,151.713608
2493,49520,Martins Creek Public School,Cook St,Martins Creek ,2420,-32.565996,151.623453
2506,49144,Mayfield East Public School,32 Crebert Street,Mayfield East ,2304,-32.89536,151.748666
3895,49005,Cardiff South Public School,9 Lake Avenue,Cardiff South,2285,-32.953106,151.66521
2507,49145,Mayfield West Public School,Gregson Ave,Mayfield ,2304,-32.888697,151.730116
2525,49099,Merewether Public School,6 Henry Street,MEREWETHER,2291,-32.937547,151.742152
2528,49313,Merriwa Central School,Bow Street,MERRIWA,2329,-32.145113,150.352867
3927,48740,Belmont North Public School,9 Nikkin Street,BELMONT NORTH,2280,-33.019974,151.671344
3932,45544,Waratah West Public School,Leonora Pde,Waratah West ,2298,-32.897979,151.716258
3939,49092,Mount Hutton Public School,12 Dunkley Pde,Mount Hutton ,2290,-32.977049,151.66862
3949,49157,Maitland Public School,70 Elgin Street,MAITLAND,2320,-32.73546,151.553306
2550,49317,Milbrodale Public School,2615 Putty Road,MILBRODALE,2330,-32.696789,151.005819
2554,49198,Millers Forest Public School,127 Martins Wharf Road,MILLERS FOREST,2324,-32.752067,151.703724
3988,48965,Biraban Public School,Beckley St,Toronto ,2283,-33.008389,151.576296
2555,49292,Millfield Public School,Wollombi Rd,Millfield ,2325,-32.889837,151.250774
2621,48736,Morisset Public School,6 Terrigal Street,MORISSET,2264,-33.103543,151.489583
2641,49200,Mount Kanwary Public School,753 Hinton Rd,Osterley,2324,-32.724187,151.699146
4022,48968,Coal Point Public School,Coal Point Rd,Coal Point ,2283,-33.040828,151.610798
2658,49194,Mulbring Public School,Water St,Mulbring ,2323,-32.901304,151.478563
4050,48687,Point Clare Public School,Takari Ave,Point Clare ,2250,-33.443519,151.327734
2686,49341,Murrurundi Public School,135 Mayne Street,Murrurundi,2338,-31.762783,150.832187
2688,49325,Muswellbrook Public School,Roger St,Muswellbrook ,2333,-32.25843,150.896369
4117,48716,Warnervale Public School,179-201 Warnervale Rd,Hamlyn Terrace,2259,-33.251778,151.469227
2723,55819,Tomaree Public School,Salamander Way,Salamander Bay,2317,-32.737699,152.113091
4132,48963,Arcadia Vale Public School,Glade St,Arcadia Vale,2283,-33.060231,151.582044
4136,49035,Garden Suburb Public School,Prospect Rd,Garden Suburb ,2289,-32.947882,151.682275
4155,49010,Edgeworth Heights Public School,Ridley St,Edgeworth,2285,-32.924431,151.609209
4163,54965,Elermore Vale Public School,Jubilee Rd,Wallsend ,2287,-32.915589,151.666815
1778,44645,Dudley Public School,Ocean & Boundary Sts,Dudley ,2290,-32.989387,151.716816
1792,49519,Dungog Public School,9 Chapman St,Dungog ,2420,-32.405233,151.757709
1822,49283,Congewai Public School,605 Congewai Road,CONGEWAI,2325,-32.958736,151.273875
4197,48956,Blacksmiths Public School,Amaroo St,Blacksmiths,2281,-33.071303,151.654011
1826,49285,Ellalong Public School,32 Helena Street,ELLALONG,2325,-32.914749,151.311974
4206,45542,Biddabah Public School,Medcalf St,Warners Bay ,2282,-32.966054,151.641812
4207,46128,Glendale East Public School,8 Margot Ave,Glendale ,2285,-32.927568,151.65441
1830,49336,Ellerston Public School,School Road,Ellerston,2337,-31.81773,151.304369
1839,48699,Empire Bay Public School,234 Empire Bay Drive,EMPIRE BAY,2257,-33.504316,151.362889
4263,49188,Tarro Public School,Eastern Ave,Tarro ,2322,-32.810607,151.664754
4316,48712,Mannering Park Public School,Vales Rd,Mannering Park ,2259,-33.150794,151.536785
4318,49059,Hillsborough Public School,HILLSBOROUGH PUBLIC SCHOOL 83 WARATAH AVENUE,CHARLESTOWN,2290,-32.959966,151.68003
4320,48708,Gwandalan Public School,Kanangra Drive,Gwandalan ,2259,-33.135468,151.582444
4324,49052,Charlestown South Public School,9 Patricia Ave,CHARLESTOWN,2290,-32.96765,151.688181
4329,48702,Woy Woy South Public School,The School Mall,Woy Woy ,2256,-33.503577,151.321429
4367,48958,Caves Beach Public School,Park Ave,Caves Beach,2281,-33.103178,151.638184
4370,49044,Belair Public School,Carolyn St,Adamstown,2289,-32.946197,151.711766
2852,48686,Peats Ridge Public School,1231 Peats Ridge Road,PEATS RIDGE,2250,-33.325841,151.23275
2902,48700,Pretty Beach Public School,4 Pretty Beach Road,PRETTY BEACH,2257,-33.528039,151.350019
4397,48690,Wyoming Public School,Maidens Brush Rd,Wyoming ,2250,-33.408202,151.355782
2943,49203,Raymond Terrace Public School,Adelaide St,Raymond Terrace ,2324,-32.767016,151.74001
2946,49135,Redhead Public School,Hutchinson St,Redhead ,2290,-33.011646,151.711425
4426,48726,Killarney Vale Public School,Hendricks Rd,Killarney Vale ,2261,-33.365221,151.456103
3078,48688,Somersby Public School,Wisemans Ferry Rd,Gosford ,2250,-33.358368,151.291312
4459,49190,Woodberry Public School,cnr Lawson Ave & Kookaburra Pde,Woodberry,2322,-32.79221,151.670508
4469,48743,Jewells Primary School,Lepton Pde,Jewells ,2280,-33.015735,151.687459
4486,49321,Singleton Heights Public School,Dorsman Drive,Singleton Heights,2330,-32.549203,151.163955
3110,49110,Stockton Public School,10 Clyde St,Stockton ,2295,-32.910956,151.781095
3141,48960,Swansea Public School,Rawson St Swansea NSW 2263,,2263,-33.084061,151.636301
3180,49195,Tenambit Public School,70 MAIZE ST,TENAMBIT,2323,-32.742528,151.604859
4520,48725,Bateau Bay Public School,2A Waratah Street,BATEAU BAY,2261,-33.391771,151.476143
3183,48997,Teralba Public School,York St,Teralba ,2284,-32.962493,151.605976
3191,48723,Terrigal Public School,Havenview Rd,Terrigal ,2260,-33.442449,151.438197
4542,56204,Chittaway Bay Public School,101 Chittaway Road,CHITTAWAY BAY,2261,-33.325978,151.43201
4547,54746,Tanilba Bay Public School,1a King Albert Ave,Tanilba Bay ,2319,-32.730055,152.005845
4548,56208,Copacabana Public School,Pueblo St,Copacabana ,2251,-33.485042,151.436848
3204,49189,Thornton Public School,Government Rd,Thornton ,2322,-32.779381,151.639454
4564,56297,Wirreanda Public School,43 Brocklesby Road,Medowie,2318,-32.743911,151.875219
3213,49113,Tighes Hill Public School,Elizabeth St,Tighes Hill ,2297,-32.908099,151.751254
3247,48982,Toronto Public School,Renwick St,Toronto ,2283,-33.00826,151.594778
3250,48732,Toukley Public School,Main Rd,Toukley ,2263,-33.267795,151.550307
4589,56276,Shoal Bay Public School,Rigney St,Shoal Bay ,2315,-32.729062,152.173933
3269,48714,Tuggerah Public School,1 Pacific Hwy,Tuggerah,2259,-33.312999,151.415571
4609,54675,Grahamstown Public School,Hastings Drive,Raymond Terrace ,2324,-32.759083,151.774477
4620,55818,Glendore Public School,Maryland Drive,Maryland ,2287,-32.873641,151.649712
3357,49030,Wallsend Public School,26 Martindale Street,WALLSEND,2287,-32.908099,151.671582
4637,64010,Woongarrah Public School,63-73 Mataram Rd,Woongarrah ,2259,-33.242434,151.484133
3358,49017,West Wallsend Public School,Brown St,West Wallsend ,2286,-32.904606,151.580707
3373,48738,Wangi Wangi Public School,Dobell Drive,Wangi Wangi ,2267,-33.072298,151.582994
3377,44644,Waratah Public School,Lambton Rd,WARATAH,2298,-32.905046,151.722576
5627,56230,Glenvale School,Narara Creek Rd,Narara ,2250,-33.40658,151.335729
5686,48741,Lakeside School,40-44 Coral Crescent,Gateshead,2290,-32.97528552,151.6824283
5687,56280,Hunter River Community School,17 Melaleuca Drive,METFORD,2323,-32.765018,151.612507
5701,56194,Newcastle Middle School,Christo Rd,Waratah,2298,-32.90943,151.720351
3431,49301,Weston Public School,20 Sixth Street,WESTON,2326,-32.809043,151.461023
5723,57532,Five Islands School,14 Marmong Street,BOORAGUL,2284,-32.974054,151.611684
5755,62788,HopeTown School,177 Pollock Ave,Wyong ,2259,-33.280982,151.448585
5760,63769,North Gosford Learning Centre,20 Jarrett Street,North Gosford,2250,-33.416874,151.35037
3522,48717,Wyee Public School,Wyee St,Wyee ,2259,-33.174833,151.482961
3527,48720,Wyong Public School,Cutler Drive,Wyong ,2259,-33.271886,151.426188
3528,48718,Wyong Creek Public School,583 Yarramalong Road,WYONG CREEK,2259,-33.267129,151.34807
3564,49008,Edgeworth Public School,Minmi Rd,Edgeworth,2285,-32.922892,151.620387
3696,49137,Soldiers Point Public School,Cromarty Rd,Soldiers Point,2317,-32.709978,152.065351
3798,49149,New Lambton South Public School,St James Rd,New Lambton ,2305,-32.931487,151.717578
3876,49327,Muswellbrook South Public School,Maitland St,Muswellbrook ,2333,-32.274182,150.891943
3893,49151,Windale Public School,Kilfera St,Windale ,2306,-32.992372,151.678338
8127,55124,Maitland Grossmann High School,Cumberland & Dixon Sts,East Maitland,2323,-32.743453,151.591504
3897,49103,Hamilton North Public School,30 Jackson St,Hamilton North,2292,-32.917442,151.734207
8166,46373,Wyong High School,53 Alison Road,WYONG,2259,-33.281328,151.417918
8177,46345,Kurri Kurri High School,Stanford & Deakin Sts,Kurri Kurri ,2327,-32.810142,151.486294
3898,48744,Marks Point Public School,Findon St,Marks Point ,2280,-33.057486,151.650131
3904,48985,Argenton Public School,148 Montgomery Street,ARGENTON,2284,-32.938493,151.629533
3966,48966,Blackalls Park Public School,Charles St,Blackalls Park ,2283,-32.998435,151.577743
3968,48995,Speers Point Public School,Bell St,Speers Point ,2284,-32.958943,151.621641
8233,49056,Hunter Sports High School,Pacific Hwy,Gateshead ,2290,-32.985494,151.691142
3995,45901,Umina Beach Public School,Sydney Ave,Umina Beach ,2257,-33.52511,151.314055
8274,15387,Tuggerah Lakes Secondary College Tumbi Umbi Campus,Bellevue Rd,Tumbi Umbi ,2261,-33.395596,151.454054
8278,56643,Wadalba Community School,Orchid Way,Wadalba,2259,-33.264769,151.467432
3996,49130,Fern Bay Public School,Vardon St,Fern Bay ,2295,-32.871657,151.794739
4017,48993,Booragul Public School,1 ASPINALL STREET,BOORAGUL,2284,-32.973933,151.61151
8513,8704,Brisbane Water Secondary College Umina Campus,Veron Rd,Umina ,2257,-33.507421,151.308139
4034,44646,Eleebana Public School,70 Ian St,Eleebana ,2282,-32.990502,151.64262
8390,49093,Whitebridge High School,Lonus Ave,Whitebridge ,2290,-32.972025,151.712234
4097,48715,Tuggerawong Public School,Cadonia Rd,Tuggerawong ,2259,-33.279824,151.485605
8409,46401,Scone High School,Gundy Rd,Scone ,2337,-32.05813,150.873111
8411,46442,West Wallsend High School,20 Appletree Road,WEST WALLSEND,2286,-32.910565,151.581083
4110,48672,Central Mangrove Public School,1708 Wisemans Ferry Rd,Central Mangrove,2250,-33.295626,151.244425
4129,46440,Heaton Public School,Janet St,Jesmond ,2299,-32.899751,151.695069
8439,46421,Francis Greenway High School,Lawson Ave,Beresfield ,2322,-32.79698,151.66077
4183,48730,Budgewoi Public School,Lukela Ave,Budgewoi,2262,-33.225718,151.549312
2759,49134,Nords Wharf Public School,Marine Parade,NORDS WHARF,2281,-33.135817,151.605087
4185,48955,Valentine Public School,2 Tallawalla Road,VALENTINE,2280,-33.009147,151.642517
8467,48680,Henry Kendall High School,Faunce St,Gosford ,2250,-33.420757,151.334496
8472,49518,Dungog High School,126 Eloiza Street,DUNGOG,2420,-32.396819,151.750417
4194,49048,Charlestown East Public School,James St,Charlestown ,2290,-32.971176,151.704693
4203,49038,Kotara South Public School,150 Rae Crescent,KOTARA SOUTH,2289,-32.946528,151.694255
8508,6441,Callaghan College Waratah Campus,Turton Rd,Waratah ,2298,-32.904742,151.729165
4208,48972,Fennell Bay Public School,Bay Rd,Fennell Bay ,2283,-32.991749,151.601866
8510,49105,Merewether High School,Chatham St,Broadmeadow,2303,-32.929684,151.734749
8515,46371,Gorokan High School,43 Goobarabah Avenue,LAKE HAVEN,2263,-33.242182,151.508233
8533,48722,Terrigal High School,Charles Kay Drive,Terrigal ,2260,-33.442167,151.429342
4218,48677,Gosford East Public School,Cnr York & Webb Sts,EAST GOSFORD,2250,-33.437558,151.348883
2771,49294,Nulkaba Public School,5 O'Connors Road,NULKABA,2325,-32.810691,151.34781
4379,48742,Floraville Public School,78 Floraville Road,BELMONT,2280,-33.014211,151.663835
4398,48673,Chertsey Primary School,Willow Rd,Springfield ,2250,-33.429911,151.369267
4416,49097,Merewether Heights Public School,Cedar Cres,Merewether Heights ,2291,-32.946716,151.737458
8574,54958,Mount View High School,MOUNT VIEW HIGH SCHOOL 106 MOUNT VIEW ROAD,CESSNOCK,2325,-32.827955,151.333246
8585,54954,Kincumber High School,Bungoona Rd,Kincumber,2251,-33.464894,151.382516
8591,54694,Narara Valley High School,Cnr Fountains & Pandala Rds,Narara ,2250,-33.398422,151.334064
4427,48685,Niagara Park Public School,Narara Valley Drive,Niagara Park ,2250,-33.384122,151.351096
8903,48999,Cardiff High School,Boronia St,Cardiff ,2285,-32.951363,151.670299
8909,46347,Toronto High School,Field Ave,Toronto,2283,-33.008794,151.582022
4508,48689,Valley View Public School,Chamberlain Rd,Wyoming ,2250,-33.400215,151.361943
4514,49316,King Street Public School,King St,Singleton ,2330,-32.569546,151.175266
4517,48731,Gorokan Public School,Dudley St,Gorokan ,2263,-33.252454,151.510205
1129,49515,Banora Point Public School,Pioneer Pde,Banora Point ,2486,-28.222422,153.543702
4521,56212,Metford Public School,Melaleuca Drive,Metford,2323,-32.765067,151.612716
4522,48724,Wamberal Public School,1/13 Lea Ave,Wamberal ,2260,-33.412197,151.448258
4561,56271,Rutherford Public School,Weblands St,Rutherford,2320,-32.710925,151.52839
4566,55110,Brooke Avenue Public School,Brooke Ave,KILLARNEY VALE,2261,-33.37611,151.466133
1178,49608,Bellbrook Public School,Main St,Bellbrook,2440,-30.819094,152.508698
1181,49676,Bellingen Public School,William St,Bellingen ,2454,-30.45349,152.891887
4580,54680,Kariong Public School,Langford Drive,Kariong ,2250,-33.441014,151.289632
4588,55120,Northlakes Public School,69 Goorama Avenue,SAN REMO,2262,-33.214542,151.514788
4600,54690,Maryland Public School,John T Bell Drive,Maryland,2287,-32.881427,151.658808
4623,55983,Blue Haven Public School,37 Colorado Drive,Blue Haven ,2262,-33.212499,151.502826
4642,66003,Ashtonfield Public School,Norfolk St,Ashtonfield ,2323,-32.772442,151.600798
5260,49002,Cardiff North Public School,Wansbeck Valley Rd,Cardiff ,2285,-32.937812,151.665723
5511,56288,Newcastle Senior School,66 Harriet Street,WARATAH,2298,-32.909171,151.723388
1297,49630,Bonville Public School,11 Gleniffer Road,BONVILLE,2450,-30.379782,153.032316
5704,56192,Newcastle Junior School,64 Hillsborough Rd,Hillsborough ,2290,-32.95885,151.680211
7308,49025,Plattsburg Public School,1 Ranclaud St,Wallsend,2287,-32.896354,151.669186
7311,49339,Scone Public School,Liverpool St,Scone ,2337,-32.049446,150.863855
7420,45311,Hamilton Public School,Tudor St,Hamilton ,2303,-32.924141,151.74331
7422,49304,Kurri Kurri Public School,Lang St,Kurri Kurri ,2327,-32.821099,151.478156
7445,48701,Woy Woy Public School,Blackwall & Park Rds,Woy Woy ,2256,-33.491705,151.328247
8108,46420,Cessnock High School,Aberdare St,Cessnock ,2325,-32.842954,151.368528
1470,49903,Byron Bay Public School,17 Kingsley St,Byron Bay ,2481,-28.647416,153.614826
8115,48678,Gosford High School,Racecourse Rd,Gosford ,2250,-33.417183,151.341388
1492,49783,Caniaba Public School,Caniaba Rd,Lismore ,2480,-28.830799,153.231317
8126,49191,Maitland High School,20-32 High Street,EAST MAITLAND,2323,-32.747365,151.597333
8164,46400,Muswellbrook High School,1 King Street,MUSWELLBROOK,2333,-32.268737,150.897592
1551,56257,Pacific Palms Public School,91 Boomerang Dr,BOOMERANG BEACH,2428,-32.341023,152.539306
8202,49322,Singleton High School,75-81 York Street,SINGLETON,2330,-32.569684,151.177593
8203,48739,Belmont High School,424 Pacific Highway,BELMONT,2280,-33.027147,151.660114
1574,49785,Clunes Public School,Walker St,Clunes ,2480,-28.724778,153.408852
8210,48991,Lake Macquarie High School,Marmong St,Booragul ,2284,-32.975553,151.613863
8219,46433,Hunter River High School,Elkin Ave,Heatherbrae ,2324,-32.781835,151.732798
8259,9028,Callaghan College Wallsend Campus,Macquarie St,Wallsend ,2287,-32.89295,151.669289
1601,49540,Comboyne Public School,Hill St,Comboyne ,2429,-31.605308,152.472736
8279,56629,Lake Munmorah High School,Carters Rd,Lake Munmorah,2259,-33.189743,151.573699
8292,68626,Kariong Mountains High School,Festival Drive,Kariong,2250,-33.43039,151.296076
8389,46492,Swansea High School,Park Ave,Caves Beach ,2281,-33.104232,151.639823
8405,48675,Erina High School,152 The Entrance Rd,Erina ,2250,-33.440279,151.381503
8413,46346,Morisset High School,Bridge St,Morisset ,2264,-33.104657,151.486629
8423,49046,Kotara High School,Lexington Pde,Adamstown ,2289,-32.947137,151.706868
8440,48961,Warners Bay High School,1 Myles Ave,Warners Bay ,2282,-32.967703,151.653691
8465,48727,Tuggerah Lakes Secondary College The Entrance Campus,The Entrance Rd,Shelly Beach,2261,-33.371256,151.476613
8466,46344,Glendale Technology High School,2A Oaklands St,Glendale ,2285,-32.925928,151.642938
8482,49118,Lambton High School,Womboin & Young Rds,Lambton ,2299,-32.917918,151.722034
1670,49710,Cowper Public School,Clarence & Samuel Sts,Cowper ,2460,-29.56956,153.077731
8502,57492,Tomaree High School,Salamander Way,Salamander Bay ,2317,-32.735884,152.1122
8509,49142,Newcastle High School,160/200 Park Way Ave,HAMILTON,2303,-32.931677,151.758378
8544,54977,Lisarow High School,2 The Ridgeway,LISAROW,2250,-33.385327,151.370354
8547,46372,Northlakes High School,Brava Ave,San Remo ,2262,-33.216762,151.513395
4372,49196,Irrawang Public School,Geer St,Raymond Terrace ,2324,-32.758624,151.756776
8563,14976,Tuggerah Lakes Secondary College Berkeley Vale Campus,Berkeley Rd,Berkeley Vale,2261,-33.341698,151.424751
1740,49738,Leeville Public School,9375 Summerland Way,Leeville ,2470,-28.930843,153.003537
1771,49736,Drake Public School,Allison Street,Drake,2469,-28.928798,152.374099
8572,56270,Rutherford Technology High School,30 Avery Street,RUTHERFORD,2320,-32.711235,151.531424
8819,57545,Hunter School of Performing Arts,Lambton Rd,Broadmeadow ,2292,-32.924826,151.727614
1030,49761,Alstonville Public School,Main St,Alstonville ,2477,-28.838471,153.438172
1797,49795,Dunoon Public School,James St,Dunoon ,2480,-28.686735,153.315495
1112,49765,Ballina Public School,48 Crane St,Ballina ,2478,-28.869724,153.563707
1824,49541,Elands Public School,Wingham-Ellenborough Rd,Elands ,2429,-31.619383,152.292291
1835,49796,Eltham Public School,Boatharbour Rd,Eltham ,2480,-28.763663,153.408541
1840,49766,Empire Vale Public School,River Drive,Empire Vale ,2478,-28.915114,153.506059
1118,49770,Bangalow Public School,Byron St,Bangalow ,2479,-28.68554,153.525743
1136,49751,Barkers Vale Public School,4501 Kyogle Rd,Wadeville ,2474,-28.54902,153.14927
1886,55987,Evans River Community School,Cypress Street,EVANS HEAD,2473,-29.113492,153.424683
1143,49523,Barrington Public School,1 Kenmore St,Barrington ,2422,-31.971159,151.911058
1921,51116,Lord Howe Island Central School,Lagoon Rd,Lord Howe Island ,2898,-31.530072,159.069032
1936,49537,Forster Public School,102 Head St,Forster ,2428,-32.18247,152.524246
1943,49616,Frederickton Public School,Great North Rd,Frederickton ,2440,-31.033583,152.879353
1991,49618,Gladstone Public School,13 Kinchela St,Gladstone ,2440,-31.026485,152.946508
2016,49657,Glenreagh Public School,Bridge & George Sts,Glenreagh ,2450,-30.053582,152.976339
1146,49683,Baryulgil Public School,7135 Clarence Way,Baryulgil ,2460,-29.2235,152.605615
2042,49805,Goonengerry Public School,Goonengerry Road,GOONENGERRY,2482,-28.609512,153.439753
1165,49643,Beechwood Public School,614 Beechwood Road,Wauchope ,2446,-31.435535,152.68094
1217,49778,Bexhill Public School,12 Withers St,Bexhill,2480,-28.766026,153.345835
2071,49620,Green Hill Public School,196 River Street,West Kempsey,2440,-31.059616,152.802757
1224,49923,Bilambil Public School,Bilambil Rd,Bilambil ,2486,-28.223742,153.468431
1227,54695,Ocean Shores Public School,166 Shara Boulevarde,OCEAN SHORES,2483,-28.491203,153.540337
1254,49780,Blakebrook Public School,Rosehill Rd,Blakebrook ,2480,-28.763426,153.229992
1266,49654,Boambee Public School,30 Lindsays Rd,Boambee,2450,-30.334055,153.077009
1269,49539,Bobin Public School,Bulga Rd,Bobin ,2429,-31.712682,152.28388
1290,46443,Bonalbo Central School,Yabbra St,Bonalbo,2469,-28.735472,152.623959
2190,49645,Huntingdon Public School,2876 Oxley Highway,Wauchope ,2446,-31.478214,152.660607
1311,49532,Booral Public School,2800 Bucketts Way,Booral ,2425,-32.471428,151.960736
1336,46363,Bowraville Central School,23 High Street,BOWRAVILLE,2449,-30.645289,152.853898
2235,49807,Jiggi Public School,Jiggi-Nimbin Rd,Jiggi ,2480,-28.677986,153.181368
2260,49658,Karangi Public School,Coffs Harbour-Coramba Rd,Karangi ,2450,-30.252411,153.047767
1361,49747,Broadwater Public School,Pacific Hwy,Broadwater ,2472,-29.002773,153.437279
1389,49909,Brunswick Heads Public School,Fingal St,Brunswick Heads ,2483,-28.541343,153.550848
1402,46431,Bulahdelah Central School,8 Meade Street,Bulahdelah ,2423,-32.413374,152.211848
2303,49624,Kinchela Public School,5 Right Bank Rd,Kinchela ,2440,-30.991064,152.995063
1424,49529,Bungwahl Public School,56 Seal Rocks Road,BUNGWAHL,2423,-32.389144,152.448558
1449,49910,Burringbar Public School,59 Burringbar Road,Burringbar ,2483,-28.436645,153.466738
2349,49755,Kyogle Public School,192 Summerland Way,Kyogle ,2474,-28.625165,153.003916
1471,49762,Cabbage Tree Island Public School,50 Bath St,Wardell,2477,-28.947741,153.458499
1526,49732,Casino Public School,31 Walker St,Casino ,2470,-28.867384,153.048053
1548,49839,The Channon Public School,Standing St,The Channon ,2480,-28.675099,153.280288
1553,49707,Chatsworth Island Public School,Chatsworth Island Rd,CHATSWORTH,2469,-29.387954,153.231645
2379,49714,Lawrence Public School,High St,Lawrence ,2460,-29.491625,153.100368
2409,49819,Lismore South Public School,Phyllis St & Wilson St,South Lismore,2480,-28.809502,153.262056
1558,49912,Chillingham Public School,1420 Numinbah Rd,Chillingham ,2484,-28.311937,153.275569
1583,49786,Coffee Camp Public School,Nimbin Rd,Coffee Camp ,2480,-28.662664,153.220638
1584,49655,Coffs Harbour Public School,7 Salamander Street,COFFS HARBOUR,2450,-30.30196,153.120372
1593,49752,Collins Creek Public School,480 Collins Valley Road,Collins Creek ,2474,-28.489297,153.022547
2511,49651,Medlow Public School,2896 Taylors Arm Road,UPPER TAYLORS ARM,2447,-30.779087,152.69016
2580,49551,Mitchells Island Public School,1222 Manning Point Rd,Mitchells Island,2430,-31.896762,152.614054
1611,49913,Condong Public School,427 Tweed Valley Way,Murwillumbah South,2484,-28.340143,153.399787
2616,49638,Moorland Public School,15 Church Street,MOORLAND,2443,-31.769631,152.651174
2637,49531,Mount George Public School,Nowendoc Rd,Mount George ,2424,-31.880982,152.179633
1627,49530,Coolongolook Public School,Pacific Hwy,Coolongolook ,2423,-32.222798,152.318838
1632,49534,Coopernook Public School,61 Macquarie St,Coopernook ,2426,-31.827512,152.607874
1634,49771,Coorabell Public School,Mango Lane,Coorabell ,2479,-28.625696,153.487492
2695,49606,Nabiac Public School,56 Clarkson St,NABIAC,2312,-32.097544,152.381902
1642,49708,Copmanhurst Public School,COPMANHURST PUBLIC SCHOOL 13 PRESCOTT STREET,COPMANHURST,2460,-29.584663,152.775537
1644,49746,Coraki Public School,Adam St,Coraki ,2471,-28.992589,153.282641
1647,49656,Coramba Public School,6 Short St,Coramba ,2450,-30.221578,153.011513
1654,49680,Corindi Public School,Coral St,Corindi Beach ,2456,-30.021469,153.194234
1656,49790,Corndale Public School,Corndale Rd,Corndale ,2480,-28.71315,153.362489
1666,49709,Coutts Crossing Public School,1570 Armidale Road,COUTTS CROSSING,2460,-29.832063,152.889484
2800,49741,Old Bonalbo Public School,Duck Creek Road,OLD BONALBO,2469,-28.654622,152.597413
2814,49663,Orara Upper Public School,770 Upper Orara Road,UPPER ORARA,2450,-30.289005,153.01324
1674,49791,Crabbes Creek Public School,Crabbes Creek Rd,Crabbes Creek ,2483,-28.456004,153.496575
2841,49724,Wooli Public School,Main St,Wooli ,2462,-29.870923,153.265781
2890,49911,The Pocket Public School,The Pocket Rd,The Pocket,2483,-28.505414,153.479112
1681,49614,Crescent Head Public School,Pacific St,Crescent Head ,2440,-31.188089,152.970345
1685,49631,Crossmaglen Public School,384 Crossmaglen Rd,Bonville,2450,-30.365945,152.981586
1690,56195,Crystal Creek Public School,RMB 321 Numinbah Road,CRYSTAL CREEK,2484,-28.31214,153.32596
2955,49678,Repton Public School,River Street,REPTON,2454,-30.446021,153.029037
2968,49757,The Risk Public School,122 Gradys Creek Road,THE RISK,2474,-28.476943,152.93397
1696,49925,Cudgen Public School,CUDGEN PRIMARY SCHOOL 11 COLLIER STREET,CUDGEN,2487,-28.262592,153.555416
8562,54964,Irrawang High School,Mount Hall Rd,RAYMOND TERRACE,2324,-32.761513,151.766861
1780,49816,Lismore Public School,Pound St,Lismore ,2480,-28.814289,153.2909
3006,49763,Rous Public School,Rous Mill Rd,Alstonville ,2477,-28.870683,153.406624
3042,49669,Sawtell Public School,32-36 Eleventh Ave,Sawtell ,2452,-30.363316,153.09764
3075,49628,Smithtown Public School,Cannane St,Smithtown ,2440,-31.018188,152.941365
1788,49673,Dundurrabin Public School,70 Mount St,Dundurrabin,2453,-30.189493,152.542649
3112,45316,Stokers Siding Public School,Old Pacific Hwy,Stokers Siding ,2484,-28.393823,153.404371
3119,49527,Stratford Public School,Bucketts Way,Stratford ,2422,-32.116885,151.93922
3122,49743,Stratheden Public School,710 Stratheden Rd,Stratheden ,2470,-28.755713,152.937222
3125,49533,Stroud Public School,15-19 Erin St,STROUD,2425,-32.402533,151.964239
1791,49914,Dungay Public School,305 Tomewin Rd,Dungay,2484,-28.289681,153.382374
3145,49744,Tabulam Public School,Clarence St,Tabulam,2469,-28.888649,152.568703
1801,49926,Duranbah Public School,105 Duranbah Rd,Duranbah ,2487,-28.289121,153.516888
1874,49632,Eungai Public School,Main St,Eungai Creek ,2441,-30.832071,152.874284
1879,49798,Eureka Public School,Lismore-Brunswick River Rd,Eureka ,2480,-28.687657,153.439223
1915,49927,Fingal Head Public School,100 Letitia Rd,Fingal Head ,2487,-28.196814,153.565122
2041,49803,Goonellabah Public School,595 Ballina Road,Goonellabah,2480,-28.818329,153.322306
2060,49712,Grafton Public School,Queen St,Grafton ,2460,-29.68499,152.933325
2061,49719,South Grafton Public School,Vere St,South Grafton ,2460,-29.709892,152.937126
2099,49725,Gulmarrad Public School,466 Brooms Head Road,GULMARRAD,2463,-29.489242,153.233572
2131,49934,Hannam Vale Public School,Hannam Vale Rd,Hannam Vale ,2443,-31.712949,152.594024
2139,49536,Harrington Public School,High St,Harrington ,2427,-31.870234,152.688803
2142,49730,Harwood Island Public School,11 Morpeth St,HARWOOD,2465,-29.425605,153.240299
2156,49675,Hernani Public School,Armidale-Grafton Rd,Dorrigo ,2453,-30.294514,152.422727
2157,49932,Herons Creek Public School,5499 Pacific Hwy,HERONS CREEK,2439,-31.580394,152.729988
2204,49713,Iluka Public School,21-27 Charles Street,ILUKA,2466,-29.404676,153.348938
2214,49772,Fernleigh Public School,451 Fernleigh Rd,Fernleigh ,2479,-28.76765,153.498399
2278,49621,Kempsey East Public School,Innes St,Kempsey ,2440,-31.083703,152.846861
3378,49769,Wardell Public School,20 Richmond St,Wardell ,2477,-28.950252,153.468779
2279,49623,Kempsey West Public School,23 Marsh Street,WEST KEMPSEY,2440,-31.078377,152.8301
2280,57869,Kendall Public School,Logans Crossing Rd,Kendall ,2439,-31.627392,152.702756
3445,49629,Willawarrin Public School,85-91 Main Street,Willawarrin,2440,-30.925714,152.625518
3454,49907,Wilsons Creek Public School,Wilsons Creek Rd,Mullumbimby ,2482,-28.570833,153.426178
2330,49659,Kororo Public School,3 Korora School Road,KORORA,2450,-30.254553,153.131921
2333,49542,Krambach Public School,3838 Bucketts Way,Krambach ,2429,-32.046146,152.272293
2370,49549,Lansdowne Public School,16 Macquarie St,Lansdowne,2430,-31.783944,152.532056
2372,49550,Upper Lansdowne Public School,1399 Upper Lansdowne Rd,Upper Lansdowne ,2430,-31.705206,152.467389
2375,49810,Larnook Public School,1282 Cawongla Road,LARNOOK,2480,-28.648612,153.114765
2377,49637,Laurieton Public School,Bold St,Laurieton ,2443,-31.651768,152.797491
2423,49646,Long Flat Public School,5077 Oxley Highway,LONG FLAT,2446,-31.437823,152.48612
3635,49652,Scotts Head Public School,Gloucester St,Scotts Head ,2447,-30.749941,152.995226
2428,49661,Lowanna Public School,Coramba Rd,Lowanna ,2450,-30.20722,152.899923
2444,49650,Macksville Public School,35a Wallace St,Macksville ,2447,-30.707763,152.917145
2464,49822,Manifold Public School,Lismore-Kyogle Rd,Bentley ,2480,-28.749066,153.077066
3909,49555,Taree West Public School,Wingham Rd,Taree ,2430,-31.907599,152.444547
2585,49824,Modanville Public School,Dunoon Rd,Lismore ,2480,-28.730204,153.297192
4014,49546,Chatham Public School,17-19 Chatham Ave,TAREE,2430,-31.899751,152.482235
4054,49928,Kingscliff Public School,Orient Street,KINGSCLIFF,2487,-28.259375,153.579497
2665,49906,Mullumbimby Public School,Morrison Ave,Mullumbimby ,2482,-28.552011,153.505937
2671,49740,Mummulgum Public School,Bruxner Hwy,Mummulgum,2469,-28.848015,152.801645
2687,49917,Murwillumbah Public School,Prince St,Murwillumbah ,2484,-28.329886,153.391139
4149,55985,North Haven Public School,670 Ocean Drive,NORTH HAVEN,2443,-31.633807,152.819763
2696,49653,Nambucca Heads Public School,Ridge St,Nambucca Heads ,2448,-30.641695,153.006338
4184,49767,Lennox Head Public School,25 Byron Street,Lennox Head,2478,-28.794377,153.590695
4196,49622,Kempsey South Public School,21 Queen St,Kempsey ,2440,-31.094959,152.829888
2698,49660,Nana Glen Public School,Coffs Harbour-Grafton Rd,Nana Glen ,2450,-30.135619,153.006206
2741,49774,Newrybar Public School,Pacific Hwy,Newrybar ,2479,-28.717114,153.533055
2751,54978,Nimbin Central School,23a Thorburn St,Nimbin ,2480,-28.595871,153.220891
4428,49768,Southern Cross Public School,Chickiba Drive,EAST BALLINA,2478,-28.851067,153.585664
4503,49666,Tyalla Public School,Joyce St,Coffs Harbour ,2450,-30.283852,153.112362
4506,49665,Toormina Public School,Cavanba Rd,Toormina ,2452,-30.35347,153.08335
2784,49715,Nymboida Public School,Armidale Rd,Nymboida ,2460,-29.947482,152.727964
1708,57412,Cundletown Public School,63d High St,CUNDLETOWN,2430,-31.899733,152.522008
4534,58126,Orama Public School,1098 Darkwood Rd,Thora ,2454,-30.432501,152.691816
4552,56214,Manning Gardens Public School,Mudford Street,Taree ,2430,-31.892305,152.459892
3083,49557,South West Rocks Public School,Gregory Street,SOUTH WEST ROCKS,2431,-30.891502,153.039879
4575,54953,Wingham Brush Public School,Isabella Street,WINGHAM,2429,-31.87024,152.376982
4578,49841,Teven-Tintenbar Public School,28 Fredericks Lane,Tintenbar,2478,-28.794805,153.500671
4581,55119,Frank Partridge VC Public School,Centenary Pde,Nambucca Heads ,2448,-30.641818,152.986257
4601,56175,Aldavilla Public School,Sherwood Rd,Yarravel,2440,-31.055771,152.786972
4602,54673,William Bayldon Public School,Lyons Rd,Sawtell ,2452,-30.363714,153.080348
4606,54691,Mullaway Public School,Old Pacific Hwy,Mullaway ,2456,-30.077958,153.190183
3126,49516,Stroud Road Public School,Bucketts Way,Stroud Road ,2415,-32.347986,151.932369
3167,49554,Taree Public School,Albert St,Taree ,2430,-31.910904,152.462158
3175,49206,Tea Gardens Public School,25 Witt St,TEA GARDENS,2324,-32.667785,152.157991
4632,57209,Bogangar Public School,Coast Rd,Bogangar ,2488,-28.338166,153.572189
4643,64012,North East Public School of Distance Education,School St,Port Macquarie ,2444,-31.42989577,152.91306188457162
3176,49635,Telegraph Point Public School,Pacific Hwy,Telegraph Point ,2441,-31.334143,152.793129
5238,49717,Westlawn Public School,North St,Grafton ,2460,-29.670687,152.929873
3189,49921,Terranora Public School,650 Terranora Rd,Terranora ,2486,-28.240248,153.499272
5689,56296,Wilson Park School,230 Wyrallah Rd,EAST LISMORE,2480,-28.831923,153.293313
3219,49556,Tinonee Public School,2 Manchester St,TINONEE,2430,-31.932855,152.413577
7303,49525,Gloucester Public School,51 Hume St,Gloucester ,2422,-32.010211,151.961099
3236,56217,Main Arm Upper Public School,1129 Main Arm Rd,Upper Main Arm,2482,-28.498479,153.41241
3255,49843,Tregeagle Public School,808 Tregeagle Road,TREGEAGLE,2480,-28.854095,153.354412
8109,86655,Coffs Harbour High School,Cnr Edinburgh & Nile Streets,Coffs Harbour,2450,-30.305319,153.135846
3263,49722,Tucabia Public School,Mookin St,Tucabia ,2462,-29.666698,153.106575
3277,49930,Tumbulgum Public School,Fawcett St,Tumbulgum ,2490,-28.273997,153.463358
3290,49922,Tweed Heads Public School,Stuart Street,Tweed Heads,2485,-28.16951,153.541571
8129,49916,Murwillumbah High School,94 N Arm Rd,Murwillumbah ,2484,-28.336032,153.391648
8140,46430,Taree High School,Albert St,Taree ,2430,-31.909866,152.46386
8154,49731,Casino High School,Queensland Rd,Casino ,2470,-28.845167,153.0437
8162,49649,Macksville High School,40 Boundary St,Macksville,2447,-30.714945,152.91701
3293,49919,Tyalgum Public School,Coolman St,Tyalgum ,2484,-28.354475,153.204978
3298,49920,Uki Public School,1463 Kyogle Road,UKI,2484,-28.415027,153.334263
3303,57495,Ulmarra Public School,2476 Big River Way,Ulmarra,2462,-29.629006,153.030932
3304,49667,Ulong Public School,Hutchison St,Ulong ,2450,-30.243019,152.884857
8214,9834,"The Rivers Secondary College, Richmond River High Campus",1 Military Rd East Lismore NSW 2480,,2480,-28.820846,153.296953
8258,46362,Bellingen High School,1125 Waterfall Way,Bellingen ,2454,-30.455123,152.908442
8280,56625,Camden Haven High School,Valley View Rd,Laurieton ,2443,-31.639394,152.73608
8282,56648,Banora Point High School,Eucalyptus Drive,Banora Point ,2486,-28.215457,153.525324
8289,18072,Great Lakes College Tuncurry Campus,Northern Parkway,Tuncurry,2428,-32.16115166,152.4952945
3316,49759,Urbenville Public School,Welch & Urben Sts,Urbenville ,2475,-28.47348,152.545565
3318,57496,Urunga Public School,Bonville St,Urunga,2455,-30.495206,153.020428
3404,49647,Wauchope Public School,Waugh St,Wauchope ,2446,-31.455935,152.729534
8371,49524,Gloucester High School,Ravenshaw St,Gloucester ,2422,-32.016661,151.959556
3439,49758,Wiangaree Public School,Kunghur Street,WIANGAREE,2474,-28.511356,152.965535
3475,49852,Wollongbar Public School,Simpson Ave,Wollongbar ,2477,-28.82699,153.420113
8414,49545,Chatham High School,St Vincents & Davis Sts,Taree ,2430,-31.89577,152.480875
8453,49671,Dorrigo High School,Waterfall Way,Dorrigo ,2453,-30.339222,152.705492
3490,49748,Woodburn Public School,Woodburn St,Woodburn ,2472,-29.07539,153.339292
8520,9808,"The Rivers Secondary College, Kadina High Campus",Kadina St,Goonellabah ,2480,-28.81788,153.33864
8527,49670,Toormina High School,Armstrong Drive,Toormina ,2452,-30.351016,153.084399
8534,6432,Great Lakes College Forster Campus,2 Cape Hawke Drive,Forster ,2428,-32.215652,152.52788
8548,49682,Woolgoolga High School,Centenary Drive,Woolgoolga ,2456,-30.100448,153.190225
3491,46446,Woodenbong Central School,Unumgar St,Woodenbong ,2476,-28.389728,152.610148
3503,49681,Woolgoolga Public School,Scarborough St,Woolgoolga ,2456,-30.112673,153.196501
3529,44919,Wyrallah Public School,Breckenridge St,Wyrallah ,2480,-28.890407,153.305718
3533,49729,Yamba Public School,39 Angourie Road,YAMBA,2464,-29.439524,153.353157
8579,55392,Kingscliff High School,33 Oxford St,Kingscliff ,2487,-28.266568,153.570474
3578,49929,Pottsville Beach Public School,Tweed Coast Rd,Pottsville ,2489,-28.377625,153.567798
3643,49634,Stuarts Point Public School,Banksia Rd,Stuarts Point ,2441,-30.818842,152.993686
3760,58121,Upper Coopers Creek Public School,Upper Coopers Creek Rd,Upper Coopers Creek ,2480,-28.607149,153.401937
1058,49376,Drummond Memorial Public School,250 Rusden Street,ARMIDALE,2350,-30.511469,151.650715
1066,49412,Ashford Central School,Albury St,Ashford ,2361,-29.321262,151.094638
1071,49369,Attunga Public School,Railway St,Attunga ,2345,-30.930445,150.846575
3856,49902,Wyrallah Road Public School,152 Nielson St,Lismore ,2480,-28.830301,153.293261
3946,49727,Maclean Public School,Woodford St,Maclean,2463,-29.457217,153.201309
4085,44407,Lismore Heights Public School,195 High St,Lismore Heights ,2480,-28.806982,153.300641
4101,49915,Murwillumbah East Public School,Charles St,Murwillumbah ,2484,-28.320856,153.405267
4111,49924,Tweed Heads South Public School,Heffron St,Tweed Heads South ,2486,-28.195346,153.539048
1198,49374,Ben Venue Public School,Erskine St,Armidale ,2350,-30.502884,151.67462
4177,49776,Albert Park Public School,344 Keen Street,East Lismore ,2480,-28.821563,153.272498
2799,49552,Old Bar Public School,22 David St,OLD BAR,2430,-31.972339,152.588536
1252,49362,Blackville Public School,O'Neile St,Blackville ,2343,-31.64044,150.237489
2829,49716,Palmers Island Public School,Maclean-Yamba Rd,Palmers Island,2463,-29.419567,153.28822
2899,49641,Port Macquarie Public School,Grant St,Port Macquarie ,2444,-31.429869,152.913872
1296,56154,Bonshaw Public School,Texas St,Bonshaw ,2361,-29.046366,151.278092
2931,49677,Raleigh Public School,12 NORTH STREET,RALEIGH,2454,-30.450064,153.012586
2937,49742,Rappville Public School,Lyons Street,RAPPVILLE,2469,-29.085815,152.95533
2980,49849,Whian Whian Public School,Whian Whian Rd,Whian Whian ,2480,-28.638212,153.314317
1520,49344,Carroll Public School,David St,Carroll ,2340,-30.986074,150.447096
1547,49375,Chandler Public School,Grafton Rd,Wollomombi,2350,-30.518553,152.053551
2985,49633,Rollands Plains Upper Public School,719 Upper Rollands Plains Rd,Rollands Plains ,2441,-31.239302,152.631805
2987,56267,Rosebank Public School,Lismore-Mullumbimby Rd,Rosebank ,2480,-28.678336,153.388262
4607,54671,Centaur Public School,Eucalyptus Drive,Banora Point ,2486,-28.215705,153.526762
1742,49423,Deepwater Public School,Young St,Deepwater ,2371,-29.442908,151.848086
4611,55385,Hallidays Point Public School,300 Diamond Beach Road,DIAMOND BEACH,2430,-32.041385,152.537553
1793,49345,Dungowan Public School,137 Olgunbil Road,Dungowan,2340,-31.220126,151.13269
1802,49368,Duri Public School,Dungowan Rd,Duri ,2344,-31.221359,150.829939
1814,49674,Ebor Public School,Waterfall Way,Ebor,2453,-30.403293,152.349882
1838,49424,Emmaville Central School,Park Rd,Emmaville ,2371,-29.446152,151.601669
1894,49488,Fairfax Public School,Maules Creek,Maules Creek,2382,-30.493351,150.131265
4617,55393,Tacking Point Public School,Bangalay Drive,Port Macquarie ,2444,-31.472138,152.926418
1978,49399,Gilgai Public School,Woodford Pl,Gilgai ,2360,-29.852694,151.115555
2005,49420,Glen Innes Public School,Church St,Glen Innes ,2370,-29.735142,151.740989
2068,49503,Gravesend Public School,Gwydir St,Gravesend ,2401,-29.585367,150.332417
5166,49733,Casino West Public School,Hotham St,Casino ,2470,-28.85478,153.036779
5573,57879,Caldera School,37 Corporation Circuit,TWEED HEADS SOUTH,2486,-28.207696,153.538777
5763,63775,Coffs Harbour Learning Centre,Linden Avenue,BOAMBEE EAST,2452,-30.347588,153.071794
2209,49407,Inverell Public School,Henderson St,Inverell ,2360,-29.773135,151.123016
7314,49544,Wingham Public School,157 MURRAY ROAD,WINGHAM,2429,-31.863383,152.350225
2273,49377,Kellys Plains Public School,45-47 Kelly's Plains School Rd,Armidale,2350,-30.571911,151.636504
7316,49672,Dorrigo Public School,Hickory St,Dorrigo ,2453,-30.343091,152.71033
2310,49393,Kingstown Public School,4301 Kingstown Road,KINGSTOWN,2358,-30.506681,151.116405
8117,49711,Grafton High School,97 Mary Street,GRAFTON,2460,-29.682105,152.932509
8123,46364,Kempsey High School,Broughton St,Kempsey ,2440,-31.06806,152.824202
8124,49814,"The Rivers Secondary College, Lismore High Campus",Dalley St,Lismore ,2480,-28.820823,153.297294
2618,49501,Moree Public School,Albert St,Moree ,2400,-29.466194,149.837564
2660,49479,Mullaley Public School,Nombi St,Mullaley,2379,-31.098657,149.906668
2675,46408,Mungindi Central School,Wirrah Street,MUNGINDI,2406,-28.9802,148.99085
2708,49494,Narrabri Public School,Barwan St,Narrabri ,2390,-30.324942,149.785252
8173,46365,Wauchope High School,Nelson St,Wauchope ,2446,-31.450894,152.731158
8189,49754,Kyogle High School,Summerland Way,Kyogle ,2474,-28.625772,153.001529
2748,49387,Niangala Public School,Foster Street,Niangala ,2354,-31.298041,151.408619
2765,49511,North Star Public School,Edward St,North Star ,2408,-28.926653,150.392891
2781,46438,Nundle Public School,93-97 Jenkins Street,Nundle ,2340,-31.459684,151.127429
8193,49905,Mullumbimby High School,9 Jubilee Ave,Mullumbimby ,2482,-28.558569,153.494604
2870,49493,Pilliga Public School,Dangar St,Pilliga ,2388,-30.352248,148.889152
2900,49485,Premer Public School,Ellerslie St,Premer ,2381,-31.453553,149.900481
8195,49764,Ballina Coast High School,57 Cherry Street,BALLINA,2478,-28.866603,153.565058
8362,49726,Maclean High School,11 Woombah St,Maclean ,2463,-29.46644,153.20149
8364,49640,"Hastings Secondary College, Port Macquarie Campus",Owen & Burrawan Sts,Port Macquarie ,2444,-31.433295,152.92069
3079,49352,Somerton Public School,Milkmaid St,Somerton ,2340,-30.938432,150.641556
8370,46475,Tweed River High School,4-10 Heffron Street,TWEED HEADS SOUTH,2486,-28.195651,153.541012
8391,49543,Wingham High School,9 Rowley St,Wingham ,2429,-31.867397,152.382261
3157,49354,Tamworth Public School,Napier St,Tamworth ,2340,-31.084712,150.935305
8406,46444,South Grafton High School,Tyson St,South Grafton ,2460,-29.714229,152.929362
3182,49428,The Sir Henry Parkes Memorial Public School,75-79 Wood Street,TENTERFIELD,2372,-29.056081,152.026106
8469,49662,Orara High School,Joyce St,Coffs Harbour ,2450,-30.282811,153.112879
3221,49384,Tintinhull Public School,85 Tintinhull Road,Kootingal ,2352,-31.085665,151.008427
3239,49513,Toomelah Public School,off Old Bruxner Hwy,Boggabilla ,2409,-28.670903,150.478952
8554,15117,"Hastings Secondary College, Westport Campus",Findlay Ave,Port Macquarie,2444,-31.435345,152.895386
8566,49625,Melville High School,Nicholson St,Kempsey ,2440,-31.09002,152.825104
3345,49367,Wallabadah Public School,28 Martyn Street,Wallabadah,2343,-31.541044,150.828256
8577,56182,Byron Bay High School,2 Arakwal Court,Byron Bay,2481,-28.667572,153.616057
8578,54740,Alstonville High School,Cawley Close,Alstonville ,2477,-28.838812,153.433756
8595,54693,Nambucca Heads High School,Centenary Drive,Nambucca Heads,2448,-30.640826,152.984614
1016,49357,Timbumburi Public School,542 Kia Ora Lane,Timbumburi ,2340,-31.203781,150.915629
3451,49343,Willow Tree Public School,2-4 Merriwa Road,WILLOW TREE,2339,-31.656802,150.729034
1057,49372,Armidale City Public School,Faulkner St,Armidale ,2350,-30.519501,151.664056
3506,49359,Woolomin Public School,Tamworth-Nundle Rd,Woolomin ,2340,-31.30177,151.14807
1098,49413,Bald Blair Public School,2132 Greenhills Road,GUYRA,2365,-30.229893,151.785056
1140,49371,Barraba Central School,29 Gotha Street,BARRABA,2347,-30.38239,150.599478
3580,49492,Rowena Public School,Shaw St,Rowena ,2387,-29.81393,148.91249
3690,49350,Oxley Vale Public School,Manilla Rd,Tamworth,2340,-31.058786,150.89498
3717,49517,Croppa Creek Public School,Apsley Cres,Croppa Creek ,2411,-29.125234,150.309397
3864,49395,Uralla Central School,24 Park St,Uralla ,2358,-30.641511,151.494437
3882,49355,Tamworth South Public School,Petra Ave,Tamworth ,2340,-31.105062,150.911701
1175,49496,Bellata Public School,Gurley St,Bellata ,2397,-29.918659,149.796216
4018,49482,Gunnedah South Public School,Winder Place,Gunnedah ,2380,-30.991999,150.250486
1191,49380,Bendemeer Public School,Charles St,Bendemeer ,2355,-30.886984,151.150991
4225,49502,Tulloona Public School,Limebon Road,Tulloona,2400,-28.868872,150.1013
4228,49498,Bullarah Public School,6915 Gwydir Highway,BULLARAH,2400,-29.470905,149.228908
4262,49499,Mallawa Public School,Mallawa Road,MOREE,2400,-29.645473,149.439183
4437,49347,Hillvue Public School,Hillvue Rd,Tamworth ,2340,-31.114449,150.9007
4478,48750,Newling Public School,80 Chapel St,Armidale ,2350,-30.522917,151.677158
4556,56239,Wytaliba Public School,Old Grafton Rd,Glen Innes ,2370,-29.691603,152.110359
5569,56172,Bullimbal School,18-36 Degance Street,SOUTH TAMWORTH,2340,-31.10651,150.9197
5580,57885,Parry School,18 Degance St,Tamworth,2340,-31.10651,150.9211
1196,49414,Ben Lomond Public School,Inn Rd,Ben Lomond ,2365,-30.017024,151.661287
1234,49506,Bingara Central School,Finch St,Bingara ,2404,-29.866705,150.56725
5762,63773,Barwon Learning Centre,Carol Ave,Moree,2400,-29.482103,149.842223
1249,49415,Black Mountain Public School,815 Black Mountain Rd,Black Mountain ,2365,-30.308489,151.657688
4404,49664,Narranga Public School,Robin St,Coffs Harbour ,2450,-30.292216,153.10472
4411,49642,Westport Public School,Widderson St,Port Macquarie ,2444,-31.437349,152.893038
8122,56224,Inverell High School,Brae St,Inverell ,2360,-29.765729,151.110782
4421,49718,Gillwinga Public School,Hyde St,South Grafton,2460,-29.724385,152.933824
8170,46409,Narrabri High School,2 Gibbons Street,NARRABRI,2390,-30.335548,149.78267
8174,46410,Quirindi High School,Hill St,Quirindi ,2343,-31.501631,150.680087
8188,49480,Gunnedah High School,Marquis St,Gunnedah,2380,-30.982637,150.248768
8270,56292,Wee Waa High School,105-107 MITCHELL ST,WEE WAA,2388,-30.22268,149.442286
4524,56234,Hastings Public School,85 Yarranabee Road,PORT MACQUARIE,2444,-31.453116,152.9182
8455,49349,Oxley High School,Piper St,NORTH TAMWORTH,2340,-31.077903,150.939078
4533,49538,Tuncurry Public School,22 Tuncurry St,TUNCURRY,2428,-32.171593,152.495134
1275,54959,Boggabilla Central School,South St,Boggabilla ,2409,-28.616586,150.361593
1276,49487,Boggabri Public School,Merton St,Boggabri ,2382,-30.705682,150.043053
1009,50667,Adelong Public School,50 Gilmore Street,ADELONG,2729,-35.312333,148.062802
1017,50441,Albury Public School,481 David St,Albury ,2640,-36.082454,146.919253
1307,49508,Boomi Public School,Werrina Street,Boomi ,2405,-28.724129,149.577268
1415,49397,Bundarra Central School,Bowline Street,BUNDARRA,2359,-30.168353,151.077625
1447,49491,Burren Junction Public School,Alma St,Burren Junction ,2386,-30.102686,148.964703
1115,46377,Balranald Central School,We St,Balranald,2715,-34.635575,143.564769
1589,46403,Collarenebri Central School,High St,COLLARENEBRI,2833,-29.543823,148.578086
1135,50672,Barham Public School,Wakool St,Barham,2732,-35.626915,144.127977
1137,50527,Barmedman Public School,Robertson St,Barmedman ,2668,-34.148277,147.385078
1139,50460,Barooga Public School,Hughes St,Barooga ,3644,-35.912963,145.695985
4557,56274,Sandy Beach Public School,19 SAYE CLOSE,SANDY BEACH,2456,-30.153584,153.186496
1167,50539,Beelbangera Public School,Rankins Springs Rd,Beelbangera ,2680,-34.252836,146.101067
1747,49507,Delungra Public School,Wallangra St,Delungra ,2403,-29.650936,150.830977
1230,50282,Binalong Public School,Dickinson Street,BINALONG,2584,-34.670108,148.625718
1956,49509,Garah Public School,Ashley & Benarba Sts,Garah ,2405,-29.077177,149.634928
1261,50637,Blighty Public School,Blighty School Rd,Blighty ,2713,-35.580094,145.349272
1293,50666,Bongongo Public School,Adjungbilly Rd,Adjungbilly,2727,-35.08463,148.399517
1318,50494,Boree Creek Public School,Lockhart-Morundah Rd,Boree Creek ,2652,-35.105937,146.606338
2100,49403,Gum Flat Public School,958 Copeton Dam Rd,Gum Flat ,2360,-29.779563,150.979221
1363,50451,Brocklesby Public School,65 Main St,Brocklesby,2642,-35.823911,146.677989
2109,49481,Gunnedah Public School,Bloomfield St,Gunnedah ,2380,-30.977491,150.256335
1425,50674,Bunnaloo Public School,Fitzroy St,Bunnaloo,2731,-35.786399,144.597923
1453,50452,Burrumbuttock Public School,Howlong Rd,Burrumbuttock ,2642,-35.837489,146.800049
1499,50506,Uranquinty Public School,Pearson Street,URANQUINTY,2652,-35.188793,147.249486
1606,50622,Conargo Public School,Deniliquin-Wagga Wagga Rd,Conargo ,2710,-35.305269,145.17886
2114,49416,Guyra Central School,Marne Street,GUYRA,2365,-30.222577,151.677369
1636,50291,Cootamundra Public School,Cooper St,Cootamundra,2590,-34.638914,148.026809
1658,50465,Corowa Public School,244 Honour Avenue,Corowa ,2646,-35.992545,146.3949
2223,57437,Jennings Public School,31 Brushabers Road,JENNINGS,4383,-28.927243,151.934357
2286,49386,Kentucky Public School,Noalimba Ave,Kentucky ,2354,-30.759618,151.449162
1736,50619,Darlington Point Public School,2 Hay Road,DARLINGTON POINT,2706,-34.572807,145.993878
1867,51108,Euabalong West Public School,Uabba Street,EUABALONG WEST,2877,-33.05583,146.397128
1883,50516,Eurongilly Public School,1323 Eurongilly Road,EURONGILLY,2663,-34.91017,147.780957
1930,50480,Forest Hill Public School,3450 Sturt Hwy,Forest Hill,2651,-35.147875,147.467
1954,50553,Ganmain Public School,25-41 Langham St,Ganmain,2702,-34.796923,147.040034
1969,50453,Gerogery Public School,Coach Road,GEROGERY,2642,-35.83213,146.998143
2327,49381,Kootingal Public School,Denman Avenue,KOOTINGAL,2352,-31.053487,151.053682
2494,49378,Martins Gully Public School,Bona Vista Rd,Armidale ,2350,-30.523938,151.637256
2087,50543,Griffith Public School,Coolah St,Griffith ,2680,-34.291396,146.036252
2608,49383,Moonbi Public School,New England Hwy,Moonbi ,2353,-31.019752,151.073573
2709,49495,Narrabri West Public School,6 Cooma Rd,Narrabri ,2390,-30.344469,149.763906
2725,49348,Nemingha Public School,145 Nundle Rd,Nemingha ,2340,-31.126524,151.004156
2145,50633,Hay Public School,201-217 Lachlan Street,HAY,2711,-34.506048,144.84541
2827,49497,Pallamallawa Public School,Centre Street,PALLAMALLAWA,2399,-29.473894,150.141464
2948,49422,Red Range Public School,34-40 PARKES ST,RED RANGE,2370,-29.776132,151.897373
2170,56191,Holbrook Public School,146 Albury St,HOLBROOK,2644,-35.717853,147.318953
2186,50459,Howlong Public School,121 Hawkins St,HOWLONG,2643,-35.979939,146.636764
2188,50498,Humula Public School,School St,Humula ,2652,-35.483339,147.760583
2203,50293,Illabo Public School,1 Layton Street,Illabo,2590,-34.814002,147.741165
2226,50641,Jerilderie Public School,31 Bolton St,Jerilderie ,2716,-35.354598,145.728865
2239,50454,Jindera Public School,Dight Street,Jindera ,2642,-35.959036,146.886741
2983,49394,Rocky River Public School,Uralla-Bundarra Rd,Uralla ,2358,-30.612856,151.491788
2997,49411,Ross Hill Public School,31/39 Andrew St,Inverell,2360,-29.770176,151.103091
3091,49365,Spring Ridge Public School,Darby Rd,Spring Ridge ,2343,-31.392399,150.254649
2357,50484,Lake Albert Public School,Main St,Lake Albert ,2650,-35.173563,147.37924
2359,46483,Lake Cargelligo Central School,65 Canada Street,LAKE CARGELLIGO,2672,-33.294836,146.373966
2363,50545,Lake Wyangan Public School,Boorga Rd,Lake Wyangan ,2680,-34.248183,146.034238
3156,49486,Tambar Springs Public School,Mullaley-Coolah Rd,Tambar Springs ,2381,-31.348351,149.827874
3158,49356,Tamworth West Public School,Bridge St,West Tamworth ,2340,-31.09158,150.920563
2418,50509,Lockhart Central School,Halliday St,Lockhart ,2656,-35.222753,146.714747
2429,50468,Lowesdale Public School,Riverina Hwy,Lowesdale ,2646,-35.856229,146.368662
2448,50296,Maimuru Public School,Jack Masling Dr,Maimuru ,2594,-34.243066,148.214319
3218,49418,Tingha Public School,54 Ruby St,Tingha ,2369,-29.959145,151.213606
2500,50628,Mathoura Public School,18-20 Frome Street,Mathoura,2710,-35.816079,144.902097
2501,50502,Matong Public School,5649 Canola Way,MATONG,2652,-34.770061,146.927303
2508,50629,Mayrung Public School,Mayrung Rd,Deniliquin ,2710,-35.464317,145.30879
3340,46439,Walcha Central School,154E North St,Walcha ,2354,-30.981805,151.604194
2599,50297,Monteagle Public School,Murringo St,Monteagle ,2594,-34.192994,148.34725
3343,49366,Walhallow Public School,Mooki River,CAROONA,2343,-31.39507,150.426226
3382,49505,Warialda Public School,Hope St,Warialda ,2402,-29.541831,150.573638
3416,46412,Wee Waa Public School,WEE WAA PUBLIC SCHOOL 41 COWPER STREET,WEE WAA,2388,-30.223621,149.442587
2685,50286,Murrumburrah Public School,Albury Street,MURRUMBURRAH,2587,-34.550826,148.359862
2699,50659,Nangus Public School,2 Tenandra Street,NANGUS,2722,-35.053902,147.909106
3425,49360,Werris Creek Public School,68 Dewhurst Street,WERRIS CREEK,2341,-31.348938,150.651466
2710,50551,Narrandera Public School,Adam St,Narrandera ,2700,-34.744466,146.547854
2791,46513,Oaklands Central School,Coreen St,Oaklands,2646,-35.552669,146.171768
2886,50511,Pleasant Hills Public School,Crawford Street,Pleasant Hills,2658,-35.46651,146.798512
3428,49358,Westdale Public School,Gunnedah Rd,Westdale ,2340,-31.093714,150.873927
3501,49389,Woolbrook Public School,Church St,Woolbrook ,2354,-30.970234,151.344607
2976,50508,The Rock Central School,Ford St,The Rock ,2655,-35.266335,147.115239
2996,50504,Rosewood Public School,73 Carabost Street,ROSEWOOD,2652,-35.670202,147.860832
3547,49390,Yarrowitch Public School,Chandlers Rd,Yarrowitch ,2354,-31.25059,151.94821
3559,49514,Yetman Public School,Warialda St,Yetman ,2410,-28.902219,150.776261
3165,50505,Tarcutta Public School,Centenary Ave,Tarcutta ,2652,-35.279294,147.738339
3178,50525,Temora Public School,119 De Boos Street,TEMORA,2666,-34.444843,147.535265
3195,50546,Tharbogang Public School,148 White Road,Tharbogang ,2680,-34.26162,145.984922
3947,49364,Quirindi Public School,Munro St,Quirindi ,2343,-31.497558,150.678035
4118,49500,Moree East Public School,Adelaide St,Moree ,2400,-29.476982,149.840238
5696,56109,Sandon Public School,Erskine & Niagara Sts,Armidale ,2350,-30.497063,151.65599
7305,49370,Manilla Central School,Wilga Ave,Manilla ,2346,-30.750947,150.728435
3275,50507,Tumbarumba Public School,Murray St,Tumbarumba ,2653,-35.77635,148.013814
3278,50651,Tumut Public School,175-181 Wynyard St,Tumut,2720,-35.302393,148.218556
8111,49346,Farrer Memorial Agricultural High School,585 Calala Lane,Calala,2340,-31.138453,150.979996
3314,46515,Urana Public School,62 William Street,Urana ,2645,-35.32746,146.267129
3330,50492,Wagga Wagga Public School,Gurwood St,Wagga Wagga ,2650,-35.10783,147.365841
8114,49419,Glen Innes High School,Edwards St,Glen Innes ,2370,-29.744294,151.742487
8139,49353,Tamworth High School,Willis St,South Tamworth,2340,-31.105768,150.916936
3336,50630,Wakool Burraboi Public School,49 Flinders St,Wakool,2710,-35.46632,144.393127
8358,49427,Tenterfield High School,89 High Street,TENTERFIELD,2372,-29.053727,152.016829
1712,49484,Curlewis Public School,Goran St,Curlewis ,2381,-31.117149,150.263304
1714,49361,Currabubula Public School,Bolton St,Currabubula ,2342,-31.262787,150.735709
1238,50523,Binya Public School,16 Stephensons Rd,Binya,2665,-34.228678,146.353034
1354,50295,Bribbaree Public School,Weedallion St,Bribbaree ,2594,-34.12042,147.874699
3438,50618,Whitton-Murrami Public School,Melbergen St,Whitton ,2705,-34.518934,146.181248
3482,50287,Wombat Public School,Rose St,Wombat ,2587,-34.426627,148.245202
1387,56180,Brungle Public School,2 Brungle School Rd,Brungle ,2722,-35.156755,148.233572
1624,50552,Coolamon Central School,75 Methul St,Coolamon ,2701,-34.811904,147.201398
1659,50466,Corowa South Public School,158 Hume St,Corowa ,2646,-36.020988,146.376176
3536,50555,Yanco Public School,Main Ave,Yanco ,2703,-34.597911,146.411211
1698,50514,Culcairn Public School,CULCAIRN PUBLIC SCHOOL 43 BALFOUR STREET,CULCAIRN,2660,-35.668284,147.039992
3556,50458,Yerong Creek Public School,Cole St,Yerong Creek ,2642,-35.386787,147.060987
2035,50496,Goolgowi Public School,Penney St,Goolgowi,2652,-33.97571,145.709221
2070,51024,Greenethorpe Public School,Main St,Greenethorpe ,2809,-33.997714,148.400139
3922,50440,Albury North Public School,868 Mate St,Albury ,2640,-36.064177,146.932402
2102,50657,Gundagai Public School,William St,Gundagai ,2722,-35.052146,148.109174
3945,50639,Finley Public School,Coree St,Finley ,2713,-35.639399,145.574959
4027,50542,Griffith North Public School,Boonah St,Griffith ,2680,-34.279922,146.047903
4112,50625,Deniliquin South Public School,Sloane St,Deniliquin ,2710,-35.537609,144.955826
4131,50299,Young North Public School,William St,Young ,2594,-34.311036,148.305408
4144,50489,Turvey Park Public School,31 Halloran Street,Wagga Wagga ,2650,-35.129059,147.357531
4168,50447,Lavington East Public School,518 Daly Street,Lavington,2641,-36.039323,146.948942
2103,50660,Gundagai South Public School,Luke St,SOUTH GUNDAGAI,2722,-35.080802,148.103086
4209,50526,Temora West Public School,Truskett St,Temora ,2666,-34.451303,147.523536
4215,50485,Mount Austin Public School,Bourke St,Mount Austin ,2650,-35.135621,147.35123
2132,50544,Hanwood Public School,School St,Hanwood ,2680,-34.329726,146.04237
4270,50455,Khancoban Public School,21 Mitchell Ave,Khancoban ,2642,-36.21405,148.131142
4281,50624,Deniliquin North Public School,Victoria St,Deniliquin ,2710,-35.525164,144.981664
4348,50620,Coleambally Central School,Kingfisher Ave,Coleambally,2707,-34.804177,145.884407
4374,50648,Talbingo Public School,Lampe St,Talbingo ,2720,-35.580023,148.300454
2154,56236,Henty Public School,Sladen St,Henty ,2658,-35.517474,147.031248
4383,50292,E A Southee Public School,Poole St,Cootamundra,2590,-34.64182,148.014878
4407,50446,Hume Public School,Parklands Cres,Lavington ,2641,-36.050352,146.947268
2165,46478,Hillston Central School,62-80 Moore St,Hillston ,2675,-33.479904,145.54026
4413,50560,Parkview Public School,Park Ave,Leeton ,2705,-34.561818,146.395819
4418,50626,Edward Public School,Butler St,Deniliquin,2710,-35.524356,144.950562
2247,50518,Junee Public School,116 Lorne St,Junee,2663,-34.873488,147.584901
4457,50486,Sturt Public School,70 White Avenue,Wagga Wagga,2650,-35.13608,147.377439
4468,50443,Glenroy Public School,Logan Rd,NORTH ALBURY,2640,-36.05459,146.917314
4523,50450,Springdale Heights Public School,25 Cardo Drive,Lavington ,2641,-36.031932,146.949684
4565,56205,Clare Public School,Booligal Road,Clare,2715,-33.40137552,143.9444198
5550,56294,Willans Hill School,Lord Baden Powell Drive,Wagga Wagga ,2650,-35.126266,147.369416
2248,50517,Junee North Public School,Queen St,Junee ,2663,-34.855049,147.585376
5674,50647,Snowy Valleys School,92 Capper Street,Tumut,2720,-35.30328726,148.2210355
2353,50499,Ladysmith Public School,Tywong St,Ladysmith ,2652,-35.208549,147.510963
5730,50616,Gralee School,76A Yanco Avenue,Leeton,2705,-34.563497,146.412229
5744,56221,Kandeer School,412 Fallon St,NORTH ALBURY,2640,-36.062278,146.927949
5758,65674,The Bidgee School,21 Mitchelmore St,Wagga Wagga ,2650,-35.124587,147.364173
8101,50438,Albury High School,Kiewa St,Albury ,2640,-36.072846,146.915442
8118,46477,Murrumbidgee Regional High School - Griffith,Coolah St,Griffith ,2680,-34.292249,146.039628
8119,50634,Hay War Memorial High School,Pine St,Hay ,2711,-34.504747,144.839262
2378,50448,Lavington Public School,497 Hague St,Lavington ,2641,-36.037411,146.928265
2386,50558,Leeton Public School,Mallee St,Leeton,2705,-34.546126,146.407232
2485,50501,Marrar Public School,Centenary Drive,Marrar ,2652,-34.828341,147.355155
2584,50681,Moama Public School,Simms St,Moama ,2731,-36.115314,144.762821
2632,56249,Moulamein Public School,Brougham St,Moulamein ,2733,-35.08927,144.032816
2667,50470,Mulwala Public School,65 Melbourne Street,MULWALA,2647,-35.987094,146.006624
8179,46448,Junee High School,Lydia St,Junee,2663,-34.869115,147.592765
8190,46416,Cootamundra High School,Poole St,Cootamundra,2590,-34.635419,148.017191
8218,50623,Deniliquin High School,Harfleur St,Deniliquin ,2710,-35.53627,144.961269
8266,50439,James Fallon High School,400 Fallon Street,NORTH ALBURY,2640,-36.060244,146.928971
2701,50530,Naradhan Public School,Kooba St,Naradhan ,2669,-33.615639,146.327405
2933,50456,Rand Public School,Cowal St,Rand ,2642,-35.596087,146.580442
2935,50531,Rankins Springs Public School,Boree St,Rankins Springs ,2669,-33.83998,146.258245
8360,50638,Finley High School,Tocumwal St,Finley ,2713,-35.640413,145.571271
8392,50537,West Wyalong High School,30 Dumaresq St,West Wyalong ,2671,-33.915793,147.202014
8407,46417,Mount Austin High School,Leavenworth Drive,Wagga Wagga ,2650,-35.141908,147.353865
8442,50655,Gundagai High School,157 Hanley St,Gundagai,2722,-35.057144,148.099421
3109,50662,Stockinbingal Public School,Britannia St,Stockinbingal ,2725,-34.497611,147.883065
8461,50671,Barham High School,Gonn St,Barham ,2732,-35.623,144.132055
8470,50547,Murrumbidgee Regional High School - Wade,1-39 Poole St,Griffith ,2680,-34.282315,146.070718
8483,50482,Kooringal High School,Ziegler Ave,KOORINGAL,2650,-35.142886,147.381528
8503,50513,Billabong High School,Gordon St,Culcairn ,2660,-35.660874,147.043931
8505,50449,Murray High School,Kaitlers Rd,Lavington ,2641,-36.035173,146.946383
3153,50532,Tallimba Public School,Kikoira St,Tallimba ,2669,-33.993586,146.877792
3208,50445,Thurgoona Public School,Bottlebrush St,Thurgoona ,2640,-36.047283,146.983289
1076,49986,Austinmer Public School,90 Lawrence Hargrave Drive,Austinmer ,2515,-34.305398,150.934991
1081,50243,Avoca Public School,Sheepwash Rd,Avoca,2577,-34.612697,150.479766
1085,56197,Colo Vale Public School,Wattle St,Colo Vale ,2575,-34.401281,150.476178
1106,50002,Balgownie Public School,Balgownie Rd,Balgownie ,2519,-34.386984,150.872076
1149,50056,Batemans Bay Public School,Mundarra Way,Surfside,2536,-35.700051,150.188373
1168,69739,Bega Valley Public School,27 Auckland St,Bega ,2550,-36.670545,149.839095
1189,50185,Bemboka Public School,Kameruka St,Bemboka ,2550,-36.631309,149.571075
1202,49969,Berkeley Public School,BERKELEY PUBLIC SCHOOL 315 FLAGSTAFF ROAD,BERKELEY,2506,-34.480214,150.856493
1204,50178,Bermagui Public School,George St,Bermagui ,2546,-36.420776,150.063625
1206,50424,Berridale Public School,Oliver St,Berridale ,2628,-36.371444,148.827209
3225,50640,Tocumwal Public School,18-20 Morris St,Tocumwal,2714,-35.813862,145.56885
1211,50052,Berry Public School,Victoria St,Berry ,2535,-34.778317,150.689706
1223,50416,Bigga Public School,Blackman St,Bigga ,2583,-34.0847,149.144602
1231,50417,Binda Public School,Queen St,Binda ,2583,-34.331463,149.368114
1272,50175,Bodalla Public School,Potato Point Rd,Bodalla ,2545,-36.09938,150.053879
3235,46514,Tooleybuc Central School,Murray St,Tooleybuc ,2736,-35.026575,143.338058
8490,46437,Macintyre High School,Swanbrook Rd,Inverell,2360,-29.767546,151.129187
1313,50284,Boorowa Central School,Pudman St,Boorowa ,2586,-34.436712,148.726108
8519,49504,Warialda High School,Apollo Ave,Warialda ,2402,-29.547875,150.574806
8525,49351,Peel High School,88 Gunnedah Rd,Tamworth ,2340,-31.099764,150.89299
1340,50415,Braidwood Central School,Wilson St,Braidwood ,2622,-35.440595,149.798888
1345,50272,Breadalbane Public School,Collector Road,BREADALBANE,2581,-34.790546,149.487576
1347,50422,Bredbo Public School,Monaro Hwy,Bredbo ,2626,-35.95399,149.14797
1019,50442,Albury West Public School,Mott St,Albury ,2640,-36.07783,146.895548
1414,50251,Bundanoon Public School,Church St,Bundanoon ,2578,-34.657878,150.300442
1051,50519,Ardlethan Central School,Mithul St,Ardlethan ,2665,-34.354098,146.900557
1055,50520,Ariah Park Central School,Reid St,Ariah Park ,2665,-34.346925,147.218018
1481,50068,Cambewarra Public School,10 Kalinga Street,CAMBEWARRA,2540,-34.821537,150.556043
1490,50186,Candelo Public School,William St,Candelo ,2550,-36.768392,149.695674
1131,50521,Barellan Central School,Boree St,Barellan,2665,-34.287799,146.571928
1579,50179,Cobargo Public School,Wandella Rd,Cobargo,2550,-36.386942,149.882818
1587,49983,Coledale Public School,Lawrence Hargrave Drive,Coledale ,2515,-34.289546,150.947366
1590,50273,Collector Public School,Lorn St,Collector,2581,-34.914221,149.433144
1152,46415,Batlow Technology School,Pioneer St,Batlow ,2730,-35.523007,148.146548
1625,50054,Shoalhaven Heads Public School,47 Ravenscliffe Road,Shoalhaven Heads,2535,-34.853167,150.740088
1207,50636,Berrigan Public School,25-29 Momalong St,Berrigan ,2712,-35.659667,145.815664
1661,49999,Corrimal Public School,Princes Hwy,Corrimal,2518,-34.367371,150.899022
1684,50281,Crookwell Public School,Denison St,Crookwell ,2583,-34.459938,149.469806
3415,50535,Weethalle Public School,Wattle St,Weethalle ,2669,-33.880024,146.619256
3518,50536,Wyalong Public School,George Bland Ave,Wyalong ,2671,-33.923925,147.24207
1745,50437,Delegate Public School,Campbell St,Delegate ,2633,-37.041739,148.937215
1816,50194,Eden Public School,124 Imlay St,Eden ,2551,-37.063271,149.906688
3519,50538,West Wyalong Public School,Park St,West Wyalong ,2671,-33.918502,147.204056
1898,50003,Fairy Meadow Public School,Princes Hwy,Fairy Meadow ,2519,-34.390469,150.892302
1901,50071,Falls Creek Public School,26 Vidler St,Falls Creek ,2540,-34.965439,150.593403
1971,50050,Gerringong Public School,Archibald Rd,Gerringong ,2534,-34.749384,150.821499
1992,46145,Windang Public School,Oakland Ave,Windang ,2528,-34.531496,150.86597
3534,50444,Table Top Public School,Hume Hwy,Table Top ,2640,-35.967573,147.007302
3554,50549,Yenda Public School,Curran Rd,Yenda ,2681,-34.252389,146.198309
3561,50548,Yoogali Public School,1 East St,Yoogali ,2680,-34.299691,146.086176
3563,50300,Young Public School,Bruce St,Young ,2594,-34.321407,148.290231
3923,50515,Kapooka Public School,Sturt Ave,Kapooka ,2661,-35.15070215,147.3033056
4173,50483,Kooringal Public School,Lake Albert Rd,Wagga Wagga ,2650,-35.148828,147.373239
2111,50275,Gunning Public School,Yass St,Gunning ,2581,-34.783525,149.265602
2153,49977,Helensburgh Public School,Fletcher Street,Helensburgh ,2508,-34.184207,150.988393
2166,50237,Hill Top Public School,Linda St,Hill Top ,2575,-34.354826,150.491396
2199,50075,Huskisson Public School,Sydney St,Huskisson,2540,-35.036821,150.668104
2218,50045,Jamberoo Public School,Churchill St,Jamberoo ,2533,-34.644622,150.773003
4268,50541,Griffith East Public School,Wakaden St,Griffith ,2680,-34.286141,146.061792
4375,50475,Ashmont Public School,Bardia St,Wagga Wagga ,2650,-35.124467,147.332815
2271,49940,Keiraville Public School,286 Gipps Road,Keiraville ,2500,-34.414114,150.873364
2293,50048,Kiama Public School,67 Bong Bong Street,KIAMA,2533,-34.669659,150.850567
2354,50420,Laggan Public School,Laggan Rd,Laggan ,2583,-34.406246,149.527721
2496,50260,Marulan Public School,63 George St,Marulan ,2579,-34.713399,150.006603
2526,50180,Merimbula Public School,47-55 Main Street,MERIMBULA,2548,-36.886525,149.916952
4410,50488,Red Hill Public School,Hawkes Place,Wagga Wagga ,2650,-35.146431,147.347641
4456,50645,Franklin Public School,Forest St,Tumut ,2720,-35.315059,148.230502
2581,50238,Mittagong Public School,21 Pioneer St,Mittagong ,2575,-34.448044,150.44438
5653,56282,Wewak Street School,973 Wewak Street,North Albury,2640,-36.058451,146.929575
2628,50061,Moruya Public School,22 Evans St,Moruya ,2537,-35.912616,150.076453
2631,50248,Moss Vale Public School,Browley St,Moss Vale ,2577,-34.550639,150.366434
2642,46142,Mount Keira Public School,255 Mount Keira Rd,Mount Keira ,2500,-34.411383,150.856224
5699,46488,Kalinda School,Merrigal St,Griffith,2680,-34.293126,146.035366
2752,50434,Nimmitabel Public School,Wolfe Street,NIMMITABEL,2631,-36.510937,149.289599
2758,50177,Narooma Public School,7 Montague St,Narooma ,2546,-36.218595,150.137335
2769,50172,Nowra Public School,74 Plunkett Street,NOWRA,2541,-34.879407,150.60052
2818,49978,Otford Public School,Station Rd,Otford ,2508,-34.212198,151.001507
2831,50181,Pambula Public School,25 Oregon St,Pambula ,2549,-36.925482,149.871813
2860,50264,Penrose Public School,Penrose Rd,Penrose,2579,-34.669731,150.221344
8142,50490,Wagga Wagga High School,Coleman St,Wagga Wagga ,2650,-35.124438,147.364366
2904,49958,Primbee Public School,43 Illowra Cres,Primbee,2502,-34.501421,150.882302
2917,50187,Quaama Public School,48 Cobargo St,Quaama ,2550,-36.464226,149.86705
8144,50554,Yanco Agricultural High School,259 Euroley Rd,Yanco ,2703,-34.632239,146.383678
2971,50249,Robertson Public School,47-53 Hoddle Street,ROBERTSON,2577,-34.589625,150.592483
8155,50298,Young High School,Campbell St,Young ,2594,-34.317142,148.291705
3060,50034,Shellharbour Public School,Mary St,Shellharbour ,2529,-34.578968,150.865109
3103,49979,Stanwell Park Public School,Stanwell Ave,Stanwell Park ,2508,-34.228715,150.984536
3104,49955,Warrawong Public School,127 Cowper Street,WARRAWONG,2502,-34.481367,150.877847
3137,50411,Sutton Public School,Bywong St,Sutton ,2620,-35.165611,149.254979
3154,50265,Tallong Public School,Bumballa St,TALLONG,2579,-34.721496,150.083341
8156,50557,Leeton High School,Mallee & Myrtle Sts,Leeton,2705,-34.54684,146.405976
8157,46479,Narrandera High School,19-33 Elizabeth St,Narrandera,2700,-34.74421,146.567177
8168,50524,Temora High School,Anzac St,Temora ,2666,-34.441897,147.539525
3173,50189,Tathra Public School,Bega St,Tathra ,2550,-36.732802,149.979602
3185,50084,Terara Public School,20 Millbank Rd,TERARA,2540,-34.866633,150.63038
3201,49989,Thirroul Public School,Roxburgh Ave,Thirroul,2515,-34.31521,150.918701
3214,50176,Central Tilba Public School,89 Corkhill Drive,Central Tilba ,2546,-36.315664,150.07194
8308,50464,Corowa High School,69 Redlands Rd,Corowa,2646,-35.993008,146.381577
3226,50174,Tomerong Public School,355 Hawkens Rd,Tomerong ,2540,-35.054973,150.587182
3252,50190,Towamba Public School,Towamba St,Towamba ,2550,-37.084209,149.695158
2681,50289,Murringo Public School,91 Murringo Gap Road,MURRINGO,2586,-34.297202,148.515471
3308,45438,Unanderra Public School,Derribong Drive,Cordeaux Heights ,2526,-34.445456,150.834704
3412,50278,Wee Jasper Public School,6443 Wee Jasper Rd,Wee Jasper ,2582,-35.108785,148.673792
3457,50269,Windellama Public School,3426 Windellama Rd,Windellama,2580,-35.009988,149.833521
3461,50270,Wingello Public School,Murrimba Rd,Wingello ,2579,-34.688162,150.153487
8328,46418,Murrumburrah High School,Smith St,Harden ,2587,-34.559162,148.369808
8343,46419,Tumut High School,Bogong Place,Tumut,2720,-35.312212,148.219291
8450,46379,Tumbarumba High School,101 Tooma Road,Tumbarumba ,2653,-35.783098,148.018245
3525,50192,Wyndham Public School,Monaro St,Wyndham ,2550,-36.92962,149.64656
3549,50280,Yass Public School,Laidlaw St,Yass ,2582,-34.837588,148.906865
3659,50082,Sussex Inlet Public School,39 Thomson Street,Sussex Inlet,2540,-35.167302,150.584194
3673,50173,St Georges Basin Public School,Tallyan Point Rd,Basin View ,2540,-35.090698,150.563917
3741,50259,Goulburn West Public School,Combermere St,Goulburn ,2580,-34.759172,149.700707
3820,50000,Tarrawanna Public School,Kendall St,Tarrawanna ,2518,-34.380764,150.890246
1007,50425,Adaminaby Public School,9 Cosgrove Street,ADAMINABY,2629,-35.993292,148.776721
3860,50033,Oak Flats Public School,Griffiths St,Oak Flats ,2529,-34.56257,150.817546
1015,50020,Albion Park Public School,Tongarra & Hamilton Rds,Albion Park ,2527,-34.570257,150.77262
3867,50026,Lake Illawarra South Public School,119-129 Reddall Parade,LAKE ILLAWARRA,2528,-34.539523,150.859302
3872,50073,Greenwell Point Public School,Greenwell Point Rd,Greenwell Point ,2540,-34.907445,150.730396
3877,49998,Corrimal East Public School,Duff Parade,East Corrimal,2518,-34.377988,150.906532
3881,56250,Mount St Thomas Public School,Taronga Ave,Wollongong ,2500,-34.436911,150.870048
3890,50427,Cooma North Public School,Baroona Ave,Cooma North ,2630,-36.217908,149.130576
3954,49948,Wollongong Public School,67A Church Street,WOLLONGONG,2500,-34.422861,150.896726
3960,49993,Waniora Public School,Ursula Rd,Bulli ,2516,-34.336784,150.919146
3964,50014,Figtree Public School,9 Gibsons Rd,FIGTREE,2525,-34.440841,150.854443
1209,50244,Berrima Public School,Oxley St,Berrima ,2577,-34.485882,150.340775
1287,50168,Bomaderry Public School,Cambewarra Rd,Bomaderry ,2541,-34.847379,150.608269
3979,49997,Bellambi Public School,Owen Park Rd,Bellambi ,2518,-34.371201,150.914404
4005,50031,Warilla Public School,Leawarra Ave,Warilla ,2528,-34.557172,150.854194
4011,49952,Lake Heights Public School,302 Northcliffe Drive,LAKE HEIGHTS,2502,-34.489668,150.868047
4037,49950,Cringila Public School,Sheffield St,Cringila ,2502,-34.471975,150.86987
4042,49941,Lindsay Park Public School,Thames St,Wollongong ,2500,-34.430004,150.860942
4083,49960,Kemblawarra Public School,Shellharbour Rd,Port Kembla ,2505,-34.489284,150.893254
4095,46143,Mount Ousley Public School,31 McGrath Street,Fairy Meadow,2519,-34.398869,150.88825
4106,50171,Nowra Hill Public School,Naval Air Station,Nowra ,2541,-34.93542,150.566223
4121,50021,Albion Park Rail Public School,Gow Avenue,Albion Park Rail,2527,-34.56755,150.798668
1288,50436,Bombala Public School,8 Bright St,Bombala,2632,-36.918986,149.233792
4180,49975,Berkeley West Public School,Nolan St,Berkeley ,2506,-34.475497,150.841
4246,50169,Illaroo Road Public School,103 Illaroo Road,NORTH NOWRA,2541,-34.859064,150.590007
5685,56186,G S Kidd Memorial School,37 Lincoln st,Gunnedah,2380,-30.99611687,150.2386051
4266,50039,Lakelands Public School,Lakelands Drive,Dapto ,2530,-34.505002,150.795602
4291,50032,Balarang Public School,Government Rd,Oak Flats ,2529,-34.55976,150.831115
4296,49996,Woonona East Public School,19 Corinda Road,Woonona,2517,-34.352261,150.915453
4333,50030,Warilla North Public School,Oldfield St,Warilla ,2528,-34.546621,150.85283
3272,50533,Tullibigeal Central School,Kurrajong St,Tullibigeal ,2669,-33.422886,146.722678
3311,50534,Ungarie Central School,Ungarie-Condobolin Road,UNGARIE,2669,-33.637104,146.977953
3332,50491,North Wagga Public School,Hampden Ave,Wagga Wagga,2650,-35.096215,147.379513
3333,50493,South Wagga Public School,140 Edward St,WAGGA WAGGA,2650,-35.119291,147.36681
4399,44928,Hayes Park Public School,202 Kanahooka Road,KANAHOOKA,2530,-34.491584,150.816321
4406,50252,Bradfordville Public School,10 Hampden Street,GOULBURN,2580,-34.723022,149.739879
4409,50038,Koonawarra Public School,Byamee St,Dapto ,2530,-34.501193,150.807883
4423,50041,Mount Brown Public School,Mount Brown Rd,Dapto ,2530,-34.515885,150.784817
4438,50271,Wollondilly Public School,Newton & Hoskins Sts,Goulburn ,2580,-34.742953,149.710904
4450,50276,Berinba Public School,Church St,Yass ,2582,-34.849095,148.918959
4462,50010,Figtree Heights Public School,St Georges Ave,Figtree ,2525,-34.431526,150.855504
3338,50457,Walbundrie Public School,14 Queen Street,WALBUNDRIE,2642,-35.687427,146.726779
4464,50081,Sanctuary Point Public School,Idlewild Ave,Sanctuary Point ,2540,-35.104844,150.628585
3352,50512,Walla Walla Public School,Commercial St,Walla Walla ,2659,-35.757961,146.900625
1334,50277,Bowning Public School,147 Bowning Road,Bowning ,2582,-34.769376,148.81153
4500,46144,Nareena Hills Public School,Jacaranda Ave,Figtree ,2525,-34.425765,150.84787
4501,50023,Barrack Heights Public School,25 Hunter Street,BARRACK HEIGHTS,2528,-34.559085,150.846032
4562,56278,Sunshine Bay Public School,Beach Rd,Batehaven ,2536,-35.740734,150.209961
1335,50240,Bowral Public School,Bendooley Street,BOWRAL,2576,-34.481178,150.419191
1411,49992,Bulli Public School,Haig Rd,Bulli ,2516,-34.326951,150.912703
4612,54741,Broulee Public School,Cambridge Cresc,Broulee ,2537,-35.84558,150.171898
4618,55394,North Nowra Public School,75 Judith Drive,NORTH NOWRA,2541,-34.855557,150.57716
1421,50413,Bungendore Public School,Gibraltar St,Bungendore ,2621,-35.255619,149.444628
4633,57211,Jerrabomberra Public School,Coachwood Ave,Jerrabomberra ,2619,-35.38609,149.19847
4641,64011,Shell Cove Public School,Killalea Drive & Stradbroke Avenue,Shell Cove,2529,-34.59562185,150.8541675
4649,67585,Tullimbar Public School,1 Exeter Place, Tullimbar Village,2527,-34.57857077,150.7552528
5576,57882,Highlands School,2 Maxted Street,RENWICK,2575,-34.455042,150.477057
5634,56285,The Crescent School,Fitzroy St,Goulburn ,2580,-34.744593,149.710549
1445,50245,Burrawang Public School,Church St,Burrawang ,2577,-34.592222,150.51725
5666,56261,Peterborough School,41 William Avenue,WARILLA,2528,-34.555992,150.854963
5684,56284,Tangara School,Bong Bong Rd,Mittagong ,2575,-34.451869,150.469424
5698,56169,Havenlee School,73 Judith Drive,NORTH NOWRA,2541,-34.855204,150.576325
5749,56181,Budawang School,17 Croobyar Road,Milton,2538,-35.322301,150.442182
1502,50414,Captains Flat Public School,14 Montgomery St,Captains Flat,2623,-35.587192,149.450147
8116,50255,Goulburn High School,Goldsmith St,Goulburn ,2580,-34.746861,149.711241
8143,50004,Wollongong High School of the Performing Arts,Lysaght St,Fairy Meadow,2519,-34.406432,150.889188
8165,50182,Bega High School,Upper & Eden Sts,Bega ,2550,-36.678459,149.838766
8171,50047,Kiama High School,Saddleback Mountain Rd,Kiama ,2533,-34.68066,150.847197
8191,46434,Corrimal High School,Murray Rd,Corrimal ,2518,-34.374243,150.91071
8196,50431,Monaro High School,Mittagang Road,Cooma North,2630,-36.216655,149.134021
8201,54945,Nowra High School,Moss St,Nowra ,2541,-34.872966,150.609361
8204,50035,Dapto High School,Cleveland Rd,Dapto ,2530,-34.499054,150.785868
8205,58289,Illawarra Sports High School,Gura St,Berkeley ,2506,-34.480849,150.853331
8216,50407,Queanbeyan High School,Agnes Ave,Queanbeyan ,2620,-35.353243,149.220484
8334,50279,Yass High School,Grampian St,Yass ,2582,-34.835474,148.911066
8368,50060,Moruya High School,97 Albert Street,MORUYA,2537,-35.920195,150.08015
1612,49936,Coniston Public School,CONISTON PUBLIC SCHOOL 123 AUBURN STREET,CONISTON,2500,-34.439023,150.887435
8410,46435,Woonona High School,Nicholson Lane,Woonona ,2517,-34.345037,150.910102
3353,50288,Wallendbeen Public School,King St,Wallendbeen ,2588,-34.52524,148.159228
8448,46500,Bomaderry High School,Cambewarra Rd,Bomaderry ,2541,-34.844038,150.602725
3364,50617,Wamoon Public School,Oxley Road,Wamoon,2705,-34.526015,146.330876
8452,46388,Crookwell High School,Crown Street,CROOKWELL,2583,-34.452754,149.466967
8468,50263,Mulwaree High School,40 McDermott Drive,Goulburn ,2580,-34.728245,149.730169
1727,50036,Dapto Public School,48-66 Sierra Drive,HORSLEY,2530,-34.494679,150.776781
8480,46370,Warrawong High School,Cowper St,Warrawong ,2502,-34.480163,150.875178
1891,50253,Exeter Public School,School Rd,Exeter ,2579,-34.61612,150.321828
2015,50241,Glenquarry Public School,Tourist Rd,Glenquarry ,2576,-34.522335,150.483539
8489,46367,Kanahooka High School,Robert Street,Kanahooka,2530,-34.494652,150.805362
2053,50257,Goulburn Public School,204 Bourke Street,Goulburn ,2580,-34.750563,149.717773
8524,46375,Karabar High School,84 Donald Rd,Queanbeyan ,2620,-35.365337,149.224822
8536,46376,Narooma High School,Princes Hwy,Narooma ,2546,-36.235506,150.128648
2054,50254,Goulburn East Public School,Eleanor St,Goulburn ,2580,-34.7626,149.730388
8542,46369,Smiths Hill High School,35-37 Gipps St,Wollongong ,2500,-34.418889,150.89561
8561,46389,Shoalhaven High School,Park Rd,Nowra ,2541,-34.897296,150.610096
8581,54942,Batemans Bay High School,Beach Rd,Batehaven ,2536,-35.729246,150.194447
2055,50256,Goulburn North Public School,Union St,Goulburn North ,2580,-34.744579,149.735043
8593,54663,Vincentia High School,The Wool Rd,Vincentia ,2540,-35.077698,150.662803
2056,50258,Goulburn South Public School,Addison St,Goulburn ,2580,-34.76004,149.712314
8906,46502,Oak Flats High School,The Esplanade,Oak Flats ,2529,-34.559745,150.83408
1028,51109,Alma Public School,Comstock St,Broken Hill ,2880,-31.982217,141.462443
1111,51039,Ballimore Public School,Bomen St,Ballimore ,2830,-32.193596,148.899631
1130,46402,Baradine Central School,42 Narren St,Baradine,2396,-30.950736,149.070198
1150,50975,Bathurst Public School,George St,Bathurst ,2795,-33.420942,149.570615
2104,50405,Gundaroo Public School,Lot St,Gundaroo ,2620,-35.029909,149.267076
1237,56165,Binnaway Central School,David St,Binnaway,2395,-31.552793,149.374951
1260,50999,Blayney Public School,Lindsay St,Blayney ,2799,-33.528987,149.251583
2255,50242,Kangaloon Public School,Robertson St,Kangaloon ,2576,-34.552607,150.529555
1326,51062,Bourke Public School,19 Green Street,BOURKE,2840,-30.09351,145.94968
1350,46450,Brewarrina Central School,Bourke Street,BREWARRINA,2839,-29.963669,146.859088
2256,50246,Kangaroo Valley Public School,Moss Vale-Nowra Rd,Kangaroo Valley ,2577,-34.73652,150.531996
2540,50262,Michelago Public School,20 Ryrie Street,Michelago,2620,-35.705975,149.161716
1432,51112,Burke Ward Public School,Rakow St,Broken Hill ,2880,-31.960361,141.441054
1495,51004,Canobolas Public School,Canobolas Rd,Orange ,2800,-33.305942,149.04621
1501,51069,Capertee Public School,Castlereagh Hwy,Capertee ,2846,-33.147074,149.985922
2565,50062,Milton Public School,Thomas St,Milton ,2538,-35.314149,150.435816
2586,50058,Mogo Public School,Princes Hwy,Mogo ,2536,-35.786091,150.140569
2643,50017,Mount Kembla Public School,Cordeaux Rd,Mount Kembla ,2526,-34.432399,150.817114
2896,49967,Port Kembla Public School,Gloucester Boulevard,Port Kembla ,2505,-34.48609,150.914724
2922,50408,Queanbeyan Public School,Isabella St,Queanbeyan ,2620,-35.357526,149.236154
1609,51106,Condobolin Public School,Molong Street,CONDOBOLIN,2877,-33.085514,147.149077
1615,50960,Cooerwull Public School,319 Main St,Lithgow ,2790,-33.484053,150.142093
1621,51066,Coolah Central School,Binnia St,Coolah ,2843,-31.821024,149.723624
1630,49392,Coonabarabran Public School,Cnr John St & Newell Hwy,Coonabarabran ,2357,-31.280039,149.282061
3045,49981,Scarborough Public School,Lawrence Hargrave Drive,Scarborough ,2515,-34.266182,150.966036
3159,50188,Tanja Public School,Barrabooka Rd,Tanja ,2550,-36.64029,149.975072
3162,50266,Tarago Public School,Goulburn-Braidwood Rd,Tarago ,2580,-35.067671,149.654751
1695,51087,Cudal Public School,Toogong St,Cudal ,2864,-33.287099,148.740307
1700,50961,Cullen Bullen Public School,15-23 Castlereagh Hwy,Cullen Bullen ,2790,-33.299877,150.032317
1707,51091,Cumnock Public School,Railway Pde,Cumnock,2867,-32.931277,148.749492
3163,50267,Taralga Public School,Orchard St,Taralga ,2580,-34.397974,149.820962
3222,50268,Tirranna Public School,Goulburn-Braidwood Rd,Goulburn ,2580,-34.821486,149.682068
1776,51040,Dubbo North Public School,Fitzroy St,Dubbo ,2830,-32.24168,148.615776
1789,51067,Dunedoo Central School,Digilah St,Dunedoo ,2844,-32.018308,149.392212
1811,51043,Dubbo South Public School,Fitzroy St,Dubbo,2830,-32.263126,148.609749
3302,50066,Ulladulla Public School,241 Green Street,Ulladulla ,2539,-35.355186,150.469434
3477,49949,Wollongong West Public School,Crown St West,Wollongong ,2500,-34.424597,150.871509
3479,50191,Wolumla Public School,6-8 BEGA ST,WOLUMLA,2550,-36.832664,149.811656
3510,45441,Woonona Public School,Gray St,Woonona ,2517,-34.345569,150.906806
3826,49938,Gwynneville Public School,10 Acacia St,Gwynneville ,2500,-34.417233,150.879364
3866,50001,Towradgi Public School,Carters Lane,Fairy Meadow,2519,-34.388937,150.899966
3973,49994,Russell Vale Public School,Terania St,Russell Vale ,2517,-34.359483,150.906828
1986,51050,Girilambone Public School,Vega St,Girilambone ,2831,-31.24967,146.908851
3976,50015,Farmborough Road Public School,56 Farmborough Rd,Unanderra ,2526,-34.460322,150.834818
4127,50410,Queanbeyan West Public School,Morton St,Queanbeyan ,2620,-35.348418,149.21574
2038,56308,Gooloogong Public School,King St,Gooloogong ,2805,-33.617104,148.436422
2082,51026,Grenfell Public School,40-52 Melyra St,GRENFELL,2810,-33.892296,148.167544
4256,50170,Nowra East Public School,Jervis St,Nowra East ,2541,-34.882443,150.607732
2097,51085,Gulgong Public School,GULGONG PUBLIC SCHOOL 60 BELMORE STREET,GULGONG,2852,-32.359746,149.537692
2115,49391,Gwabegar Public School,Chauvel St,Gwabegar ,2356,-30.611489,148.974999
2129,56233,Hampton Public School,Jenolan Caves Rd,Hampton ,2790,-33.648479,150.048925
2136,51074,Hargraves Public School,Merinda St,Hargraves ,2850,-32.783336,149.461924
4357,50006,Pleasant Heights Public School,Alvan Pde,Mount Pleasant ,2519,-34.396188,150.873289
2161,51075,Hill End Public School,Tambaroora St,Hill End ,2850,-33.034573,149.415886
4371,50406,Queanbeyan East Public School,Yass St,Queanbeyan ,2620,-35.34542,149.24613
4394,50409,Queanbeyan South Public School,Cameron Rd,Queanbeyan ,2620,-35.365541,149.228192
2213,46476,Ivanhoe Central School,Columbus St,Ivanhoe ,2878,-32.898531,144.300978
2254,51070,Kandos Public School,23-37 Dangar Street,Kandos,2848,-32.856242,149.974813
4395,50028,Mount Warrigal Public School,Hogarth Ave,Warilla ,2528,-34.553788,150.84461
4463,57055,Flinders Public School,Adam Murray Way,Flinders ,2529,-34.582182,150.85024
2410,50963,Lithgow Public School,163 Mort St,Lithgow ,2790,-33.482092,150.160227
4485,50070,Culburra Public School,Carlton Cres,Culburra Beach ,2540,-34.933198,150.762286
4498,50043,Minnamurra Public School,85 Charles Ave,Minnamurra,2533,-34.62487,150.852773
2465,51088,Manildra Public School,2100 Packham Drive,MANILDRA,2865,-33.184214,148.700122
4592,55116,Vincentia Public School,George Caley Place,Vincentia ,2540,-35.073353,150.669549
4610,54670,Mount Terry Public School,175 Ashburton Drive,Albion Park,2527,-34.591636,150.779935
4626,56626,Callala Public School,Emmett St,Callala Bay ,2540,-34.995951,150.714405
2558,50995,Millthorpe Public School,Park St,Millthorpe ,2798,-33.445146,149.185939
2590,51090,Molong Central School,Phillip St,Molong ,2866,-33.098011,148.86389
2656,51079,Mudgee Public School,Perry St,Mudgee ,2850,-32.59594,149.583964
2664,51008,Mullion Creek Public School,45 Long Point Rd,Mullion Creek,2800,-33.139031,149.120501
2668,51006,Clergate Public School,Clergate Lane,Clergate ,2800,-33.192057,149.112293
5644,56258,Para Meadows School,56 Porter St,North Wollongong ,2500,-34.411196,150.888605
2713,51033,Narromine Public School,Meryula St,Narromine ,2821,-32.229903,148.244421
2714,51009,Nashdale Public School,Cargo Rd,Nashdale ,2800,-33.293794,149.013466
2732,51000,Neville Public School,Crouch St,Neville ,2799,-33.708658,149.216784
8104,50239,Bowral High School,Park & Aitken Rds,Bowral ,2576,-34.488816,150.423432
8388,50247,Moss Vale High School,Narellan Rd,Moss Vale ,2577,-34.551483,150.385294
2798,50984,O'Connell Public School,15 Black's Mill Lane,O'Connell ,2795,-33.524513,149.720076
2811,51010,Orange East Public School,45 Spring St,Orange ,2800,-33.282069,149.113698
8418,46503,Warilla High School,Keross Ave,Barrack Heights ,2528,-34.563813,150.857991
2848,51092,Peak Hill Central School,Caswell St,Peak Hill ,2869,-32.728855,148.192111
2862,50985,Perthville Public School,26 Rockley Street,PERTHVILLE,2795,-33.491052,149.550052
2893,50472,Pomona Public School,Pomona Rd,Pomona,2648,-34.025726,141.89493
2895,50473,Pooncarie Public School,Tarcoola Rd,Pooncarie ,2648,-33.383033,142.568324
2897,46350,Portland Central School,12A Wolgan Street,PORTLAND,2847,-33.354772,149.979653
2919,51054,Quambone Public School,Mungi Mungi St,Quambone ,2831,-30.930706,147.872001
2920,50653,Quandialla Public School,Third St,Quandialla ,2721,-34.010362,147.790454
2927,50986,Raglan Public School,Nelson St,Raglan ,2795,-33.428034,149.648098
2974,50987,Rockley Public School,Hill St,Rockley ,2795,-33.69193,149.562554
3025,51073,Rylstone Public School,25-27 Mudgee Street,RYLSTONE,2849,-32.795564,149.972877
1628,50428,Cooma Public School,Commissioner St,Cooma ,2630,-36.237474,149.125034
3093,50996,Spring Terrace Public School,573 Forest Rd,Spring Terrace,2798,-33.393976,149.097369
3127,51030,Stuart Town Public School,Burrendong Way,Stuart Town ,2820,-32.802566,149.068273
3211,51115,Tibooburra Outback Public School,Briscoe St,Tibooburra ,2880,-29.432133,142.010166
3242,51055,Tooraweenah Public School,Bridge St,Tooraweenah ,2831,-31.434763,148.912216
1723,50274,Dalton Public School,Jobson St,Dalton ,2581,-34.720369,149.17882
3254,46455,Trangie Central School,Derribong St,Trangie ,2823,-32.032544,147.979305
8486,46374,Bombala High School,Bright Street,Bombala ,2632,-36.917647,149.231927
8487,50193,Eden Marine High School,Barclay St,Eden ,2551,-37.055009,149.90731
3270,51103,Tullamore Central School,Hinkler Street,TULLAMORE,2874,-32.636788,147.565993
3342,51057,Walgett Community College - Primary School,Warrena St,Walgett ,2832,-30.020291,148.11566
3354,51068,Wallerawang Public School,Barton Ave,Wallerawang ,2845,-33.41768,150.069793
3365,51064,Wanaaring Public School,Bourke-Milparinka Rd,Wanaaring ,2840,-29.705267,144.145456
8495,50063,Ulladulla High School,South St,Ulladulla ,2539,-35.35821,150.47024
3402,50991,Wattle Flat Public School,Mudgee-Bathurst Rd,Wattle Flat ,2795,-33.141545,149.692677
8541,50008,Keira High School,Lysaght St,Fairy Meadow ,2519,-34.405282,150.88651
8586,54950,Albion Park High School,Church St,Albion Park ,2527,-34.576702,150.773359
3435,51060,White Cliffs Public School,Johnstone St,White Cliffs ,2836,-30.850852,143.090278
3442,46486,Wilcannia Central School,Barrier Hwy,Wilcannia ,2836,-31.558478,143.37591
3487,51056,Wongarbon Public School,Railway Street,WONGARBON,2831,-32.333558,148.759119
3499,50969,Woodstock Public School,Parkes St,Woodstock ,2793,-33.74594,148.849046
3504,51002,Borenore Public School,1243 The Escort Way,BORENORE,2800,-33.251005,148.984209
3555,46457,Yeoval Central School,Obley Street,Yeoval,2868,-32.754375,148.649673
3566,50965,Zig Zag Public School,23 Victoria Ave,Lithgow ,2790,-33.466136,150.182826
3591,51044,Dubbo West Public School,East St,Dubbo ,2830,-32.251915,148.588301
3594,56219,Louth Public School,Hughes St,Louth ,2840,-30.535792,145.117942
3626,51063,Enngonia Public School,Belalie St,Enngonia ,2840,-29.318855,145.844482
3824,50977,Bathurst West Public School,Suttor St,Bathurst ,2795,-33.411002,149.559746
3847,50976,Bathurst South Public School,Havannah St,Bathurst ,2795,-33.432989,149.568873
3903,51072,Glen Alice Public School,Beaumont St,Glen Alice ,2849,-33.040623,150.214727
3912,50471,Palinyewah Public School,248A Ellerslie Road,ELLERSLIE,2648,-33.845011,142.012741
4020,51007,Glenroi Heights Public School,Maxwell Ave,Orange,2800,-33.297205,149.11234
4089,51094,Middleton Public School,Medlyn St,Parkes ,2870,-33.14775,148.173061
4100,51101,Forbes North Public School,Thomson Street,Forbes,2871,-33.369929,148.001032
4190,50883,Black Springs Public School,Avoca St,Black Springs,2787,-33.845694,149.741982
4204,51095,Parkes East Public School,1-3 Thornbury St,Parkes ,2870,-33.136054,148.190215
8878,49990,Bulli High School,Ursula Rd,Bulli ,2516,-34.337247,150.921143
1164,51098,Bedgerabong Public School,7 Golding Avenue,BEDGERABONG,2871,-33.361353,147.679318
4305,51061,Weilmoringle Public School,Burns Rd,Weilmoringle ,2839,-29.238786,146.918094
4380,51003,Calare Public School,44 Wentworth Lane,ORANGE,2800,-33.286947,149.079358
4454,51034,Marra Creek Public School,Coolabah to Quambone Rd,NYNGAN,2825,-30.87887,147.374516
4538,56177,Bowen Public School,Park St,Orange ,2800,-33.280751,149.117874
4549,56256,Orana Heights Public School,Oak St,Dubbo ,2830,-32.2525,148.627132
4555,51080,Cudgegong Valley Public School,Madeira Rd,Mudgee ,2850,-32.606539,149.583789
4587,55676,Dubbo School of Distance Education,Myall St,Dubbo,2830,-32.242937,148.638967
1274,51105,Bogan Gate Public School,5 Bogan Street,Bogan Gate,2876,-33.104968,147.797859
1369,51111,Broken Hill Public School,Mica St,Broken Hill ,2880,-31.956108,141.456502
5242,50973,Mulyan Public School,Lachlan St,Cowra ,2794,-33.822374,148.687266
5265,51001,Bletchington Public School,139 Matthews Avenue,Orange,2800,-33.268526,149.10357
5302,56275,School of the Air,Lane St,Broken Hill ,2880,-31.945382,141.472
5577,57883,Mian School,Bultje Street,DUBBO,2830,-32.251353,148.606555
5610,56200,Carenne School,158 Browning St,Bathurst,2795,-33.426015,149.565755
1371,51110,Broken Hill North Public School,Chapple St,Broken Hill ,2880,-31.944457,141.471518
5736,56190,Holman Place School,8 Holman Place,Cowra ,2794,-33.824253,148.694013
7301,51019,Canowindra Public School,Tilga Street,CANOWINDRA,2804,-33.566198,148.664921
7307,51012,Orange Public School,78 Kite St,Orange ,2800,-33.286264,149.096584
8103,50974,"Denison College of Secondary Education, Bathurst High Campus",Hope St,Bathurst ,2795,-33.413383,149.569679
8105,46480,Broken Hill High School,76 Garnet St,Broken Hill,2880,-31.960105,141.456986
1503,51025,Caragabal Public School,Marsden & Wheoga Sts,Caragabal ,2810,-33.84532,147.744452
1504,50966,Carcoar Public School,Icely St,Carcoar ,2791,-33.612326,149.142432
8134,51011,Orange High School,Woodward St,Orange ,2800,-33.280352,149.084361
8146,51096,Parkes High School,Albert St,Parkes ,2870,-33.138824,148.180256
8148,50970,Cowra High School,Dowell St,Cowra ,2794,-33.814136,148.688347
1506,51005,Cargo Public School,Hutton St,Cargo ,2800,-33.427612,148.807697
1507,51046,Carinda Public School,Macnamara St,Carinda ,2831,-30.461882,147.687555
8314,51027,The Henry Lawson High School,49 South Street,Grenfell ,2810,-33.902722,148.163449
1578,51059,Cobar Public School,6-8 Blakey St,Cobar ,2835,-31.502199,145.836609
8346,46482,Condobolin High School,Innes St,CONDOBOLIN,2877,-33.091828,147.143195
8347,46404,Coonabarabran High School,Newell Hwy,Coonabarabran,2357,-31.283104,149.285117
1631,51038,Coonamble Public School,Bertram Street,COONAMBLE,2829,-30.958363,148.387024
1671,50971,Cowra Public School,Vaux St,Cowra ,2794,-33.836028,148.68992
1688,44959,Buronga Public School,BURONGA PUBLIC SCHOOL 1-15 CHAPMAN STREET,BURONGA,2739,-34.169471,142.181315
1732,50643,Dareton Public School,Matong St,Dareton ,2717,-34.091148,142.040358
1775,51041,Dubbo Public School,181 Darling St,Dubbo ,2830,-32.248749,148.60541
8417,11042,Dubbo College South Campus,Boundary Rd,Dubbo ,2830,-32.270837,148.610687
8444,46343,Canobolas Rural Technology High School,142 Icely Road,ORANGE,2800,-33.291759,149.121741
8451,46458,Coonamble High School,Aberford St,Coonamble ,2829,-30.955763,148.391351
1823,54951,Eglinton Public School,Alexander St,Eglinton ,2795,-33.37752,149.539343
8475,46411,Walgett Community College - High School,Arthur St,Walgett ,2832,-30.027113,148.118967
8491,46487,Willyama High School,Murton St,Broken Hill ,2880,-31.936552,141.473022
8494,46378,Coomealla High School,Silver City Hwy,Dareton ,2717,-34.09598,142.060295
8517,16223,"Denison College of Secondary Education, Kelso High Campus",88 Boyd Street,Kelso,2795,-33.410541,149.61444
8518,51018,Canowindra High School,Browns Avenue,CANOWINDRA,2804,-33.55892,148.670951
8543,6451,Dubbo College Delroy Campus,East St,Dubbo West,2830,-32.251619,148.582683
8546,51086,Gulgong High School,Belmore Street,GULGONG,2852,-32.360172,149.540002
8598,56254,Oberon High School,Ross St,Oberon ,2787,-33.701691,149.861132
1870,51021,Eugowra Public School,Hill St,Eugowra ,2806,-33.423082,148.369286
5765,69397,The Ponds School,201 The Ponds Boulevard,The Ponds,2769,-33.698,150.911601
4651,70137,Oran Park Public School,390 South Circuit,Oran Park,2570,-33.99728,150.73485
1873,51048,Eumungerie Public School,Wheaton St,Eumungerie ,2831,-31.951152,148.621075
1885,50677,Euston Public School,Sturt Hwy,Euston ,2737,-34.575588,142.744248
1926,51102,Forbes Public School,Lachlan St,FORBES,2871,-33.387948,148.006385
8912,70235,Aurora College,100 Eton Road,LINDFIELD,2070,-33.7897,151.1607
1972,51049,Geurie Public School,Narragal Street,GEURIE,2818,-32.3961,148.82945
4654,70231,Lake Cathie Public School,Wallum Drive,LAKE CATHIE,2445,-31.5682,152.8278
4653,70232,Riverbank Public School,25 Wentworth Street,THE PONDS,2769,-33.703959,150.899525
8911,70233,The Ponds High School,180 Riverbank Drive,The Ponds,2769,-33.7033,150.89764
1979,51037,Gilgandra Public School,Wrigley St,Gilgandra ,2827,-31.707981,148.66464
4657,70332,Spring Farm Public School,Barley Road,Spring Farm,2570,-34.069638,150.714957
2027,50680,Gol Gol Public School,William St,Gol Gol ,2738,-34.179608,142.222652
4659,68862,Southern Cross School of Distance Education,30 Chickiba Drive,East Ballina,2478,-28.84975642,153.5858174
2033,46406,Goodooga Central School,31 Doyle Street,GOODOOGA,2838,-29.115865,147.455532
2094,46459,Gulargambone Central School,Yalgogrin St,Gulargambone ,2828,-31.33224,148.475758
4658,85782,Lindfield Learning Village,100 Eton Road,Lindfield,2070,-33.790062,151.160509
5766,85784,Yandelora School,1B Wilson Crescent,Narellan,2567,-34.04306214,150.732244
4663,85772,Bella Vista Public School,83 Free Settlers Drive,BELLA VISTA,2153,-33.726556,150.954991
4664,85780,North Kellyville Public School,120 Hezlett Road,NORTH KELLYVILLE,2155,-33.691337,150.955059
4660,85786,Bayanami Public School,3 Marist Place,PARRAMATTA,2150,-33.80993,151.001264
5769,85778,Yawarra Community School,East St,Dubbo,2830,-32.24969,148.58362
2155,51051,Hermidale Public School,Mouramba St,Hermidale ,2831,-31.551165,146.723373
8913,86429,Inner Sydney High School,Cnr Cleveland St & Chalmers St,Surry Hills,2010,-33.889372,151.20603
8916,86431,Oran Park High School,1 Podium Way,ORAN PARK,2570,-33.998988,150.736305
4667,86423,Gledswood Hills Public School,78 The Hermitage Way,GLEDSWOOD HILLS,2557,-34.01223,150.776555
4668,86425,Smalls Road Public School,3B SMALLS RD,RYDE,2112,-33.799393,151.109465
2172,50972,Holmwood Public School,Cowra-Carcoar Rd,Cowra ,2794,-33.810597,148.756777
5771,86427,South Creek School,144 Regent Street,RIVERSTONE,2765,-33.6779475,150.8756393
4670,87046,Galungara Public School,95 Farmland Dr,SCHOFIELDS,2762,-33.700355,150.880515
4671,87048,Barramurra Public School,65 O'Keefe Dr,Oran Park,2570,-34.006959,150.749038
4672,87907,Denham Court Public School,Commissioners Drive and Willowdale Drive,Denham Court,2565,-33.9825,150.8154
4673,87050,Northbourne Public School,Northbourne Drive,Marsden Park,2765,-33.6890866,150.8186977
4674,87053,Estella Public School,56 Estella Rd,Wagga Wagga,2678,-35.068668,147.358717
5770,87055,Tirriwirri School,Alanbar Street,Karabar,2620,-35.366161,149.226545
8914,89126,Centre of Excellence in Agricultural Education,WSU Hawkesbury Campus,Richmond,2753,-33.614026,150.753568
4675,87910,Porters Creek Public School,75 Warnervale Road,Warnervale,2259,-33.249773,151.455534
4677,88415,Nangamay Public School,1-23 Forestwood Dr,GLENMORE PARK,2745,-33.803003,150.681619
4679,88419,Edmondson Park Public School,Buchan Avenue,Edmondson Park,2174,-33.965316,150.852675
4680,88421,Googong Public School,Aprasia Avenue,Googong,2620,-35.423014,149.238219
8919,88427,Bungendore High School,Cnr Majara Street & Kings Hwy,Bungendore,2621,-35.253603,149.445707
8922,88435,Jerrabomberra High School,Coachwood Ave,Jerrabomberra,2619,-35.38831,149.193594
4678,88417,Ngarala Public School,86 Chelmsford Ave,EPPING,2121,-33.78106,151.069192
4682,88423,Gregory Hills Public School,Long Reef Circuit,Gregory Hills,2557,-34.025,150.78
4683,88425,Murrumbateman Public School,2 Fairley Street,Murrumbateman,2582,-34.9664751,149.030288
4687,88922,Gulyangarri Public School,18 Forbes Street,Liverpool,2170,-33.917848,150.932241
4690,88559,Jindabyne Public School,8/20 Park Rd,Jindabyne,2627,-36.416783,148.618556
8924,88561,Jindabyne High School,8/20 Park Rd,Jindabyne,2627,-36.416671,148.619318
4686,88920,Tallawong Public School,24 Macquarie Road Rouse Hill NSW 2155 NSW,,,-33.6868,150.8991
4691,88925,Nirimba Fields Public School,Corner of Triton & Nabthorpe Parade,Nirimba Fields,2763,-33.7146,150.8728
8921,88927,Melonba High School,Corner Elara Boulevard & Kaluta Avenue,Marsden Park,2765,-33.697399,150.802768
2201,51076,Ilford Public School,Castlereagh Hwy,Ilford ,2850,-32.966702,149.855478
2275,50980,Kelso Public School,19 Gilmour Street,Kelso ,2795,-33.416969,149.605156
2395,56309,Lightning Ridge Central School,Kaolin Street,LIGHTNING RIDGE,2834,-29.425211,147.978614
2432,51077,Lue Public School,Swanston St,Lue,2850,-32.656339,149.844616
2436,50993,Lyndhurst Public School,Marsden St,Lyndhurst ,2797,-33.673266,149.044914
2509,50982,Meadow Flat Public School,2630 Great Western Highway,MEADOW FLAT,2795,-33.433726,149.920456
2522,51065,Mendooran Central School,MENDOORAN CENTRAL SCHOOL 51 BRAMBIL STREET,MENDOORAN,2842,-31.818731,149.122445
2523,46484,Menindee Central School,1 Bear St,MENINDEE,2879,-32.393368,142.41329
2669,51028,Mumbil Public School,Apsley Cres,Mumbil ,2820,-32.722371,149.052673
8449,50012,Figtree High School,Gibsons Rd,Figtree ,2525,-34.438352,150.855197
8474,46501,Lake Illawarra High School,Reddall Pde,Lake Illawarra ,2528,-34.541828,150.850426
3260,50990,Trunkey Public School,Carlyle Street,Trunkey Creek,2795,-33.816498,149.326253
3392,46460,Warren Central School,Chester Street,WARREN,2824,-31.705114,147.836503
3420,51031,Wellington Public School,Percy St,Wellington ,2820,-32.556883,148.943374
3421,50474,Wentworth Public School,93-107 Darling Street,WENTWORTH,2648,-34.103249,141.918751
4232,51113,Morgan Street Public School,482 Morgan St,Broken Hill ,2880,-31.941471,141.460807
4233,51114,Railway Town Public School,102-106 Wills Street,Broken Hill,2880,-31.970615,141.43997
4616,55824,Buninyong Public School,Myall St,Dubbo ,2830,-32.243188,148.639381
4644,64735,Bourke-Walgett School of Distance Education,Green Street,Bourke ,2840,-30.09364,145.949464
5625,56157,Anson Street School,94 Anson St,Orange ,2800,-33.296478,149.097489
8125,50962,Lithgow High School,1A Pau Street,LITHGOW,2790,-33.485739,150.166271
8128,51078,Mudgee High School,41 Douro St,Mudgee ,2850,-32.597793,149.583627
8194,51100,Forbes High School,18 Wyndham Ave,Forbes ,2871,-33.364596,148.011352
8197,46456,Wellington High School,Whiteley St,Wellington ,2820,-32.546677,148.947815
8318,46342,Kandos High School,Fleming St,Kandos ,2848,-32.855738,149.974588
8349,46453,Gilgandra High School,Court Street,GILGANDRA,2827,-31.703431,148.666529
8353,46454,Nyngan High School,19-37 Cobar Street,Nyngan,2825,-31.561368,147.188882
8355,46449,Bourke High School,34 Tarcoon St,Bourke ,2840,-30.091467,145.948761
8356,46481,Cobar High School,Wetherell Cres,Cobar ,2835,-31.501643,145.827881
8357,50998,Blayney High School,Water St,Blayney ,2799,-33.531048,149.251081
8462,51032,Narromine High School,13 Merilba Street,NARROMINE,2821,-32.229655,148.242585
4650,68167,Wilton Public School,11 Greenbridge Drive,WILTON,2571,-34.228678,150.684833
5767,70138,George Bass School,106 Johnston Road,BASS HILL,2197,-33.89794534,150.988237
4652,70139,Marie Bashir Public School,159 Albert Road,STRATHFIELD,2135,-33.875168,151.079424
8910,70230,Cammeraygal High School,192 Pacific Highway,Crows Nest,2065,-33.832162,151.20304
4655,70234,Victoria Avenue Public School,64-66 Victoria Avenue,CONCORD WEST,2138,-33.847748,151.083379
4656,70331,Anzac Park Public School,2 Anzac Avenue,CAMMERAY,2062,-33.826566,151.210731
5768,84953,Fernhill School,12-40 Ridgetop Drive,GLENMORE PARK,2745,-33.79628624,150.6769558
4662,85545,Wentworth Point Public School,3-5 Burroway Road,WENTWORTH POINT,2127,-33.823709,151.080113
4661,85775,Finigan School of Distance Education,Agnes Avenue,Queanbeyan,2620,-35.354009,149.221512
8915,49373,Armidale Secondary College,182 Butler Street,Armidale,2350,-30.519371,151.650348
4669,86805,Jordan Springs Public School,14-28 Cullen Avenue,JORDAN SPRINGS,2747,-33.724924,150.725931
2785,51035,Nyngan Public School,60 Cathundril St,Nyngan,2825,-31.568398,147.195259
2797,50959,Oberon Public School,15 Dart St,OBERON,2787,-33.703254,149.864517
2835,51097,Parkes Public School,77-85 Currajong St,Parkes ,2870,-33.13229,148.176314
3089,51013,Spring Hill Public School,Seaton Street,Spring Hill ,2800,-33.399574,149.151294
3249,46485,Tottenham Central School,Merilba St,Tottenham ,2873,-32.245635,147.3521
3259,51104,Trundle Central School,Croft St,Trundle ,2875,-32.925365,147.709198
